{
  "version": 0.6,
  "generator": "Overpass API 0.7.62.8 e802775f",
  "osm3s": {
    "timestamp_osm_base": "2025-10-27T19:43:34Z",
    "copyright": "The data included in this document is from www.openstreetmap.org. The data is made available under ODbL."
  },
  "elements": [

{
  "type": "way",
  "id": 30572853,
  "nodes": [
    8048704771,
    8048704770,
    9400463891,
    1198608621,
    8048704769,
    2984170702,
    1198637213,
    8048704761,
    2984170703,
    8048704763,
    8048704759,
    1198608299,
    1198608235,
    1198608278,
    8048704754,
    1198608334,
    1198634745,
    1198633276,
    1198608349,
    337849925,
    337849932,
    11230949401,
    337848967
  ],
  "tags": {
    "highway": "tertiary",
    "lane_markings": "no",
    "lit": "yes",
    "maxspeed": "50",
    "name": "Randbølvej",
    "name:etymology:wikidata": "Q130311956",
    "source:maxspeed": "DK:urban",
    "surface": "asphalt"
  }
},
{
  "type": "way",
  "id": 30604524,
  "nodes": [
    286462218,
    1198608458,
    11553232867,
    11230949397
  ],
  "tags": {
    "bicycle": "use_sidepath",
    "highway": "tertiary",
    "lanes": "2",
    "maxspeed": "80",
    "name": "Hans Thomsensvej",
    "oneway": "no",
    "source:maxspeed": "DK:rural",
    "surface": "asphalt"
  }
},
{
  "type": "way",
  "id": 30604548,
  "nodes": [
    286462218,
    2373079535,
    7670662672,
    1106213741,
    338409398
  ],
  "tags": {
    "highway": "unclassified",
    "name": "Hans Thomsens Vej"
  }
},
{
  "type": "way",
  "id": 36186593,
  "nodes": [
    337848967,
    338409220,
    2373079527,
    337849239,
    337848970,
    773334964,
    2984170723,
    11230949396,
    4623851221,
    773334965,
    337848974,
    8037799020,
    2984170729,
    2984172535,
    337848978,
    2984172564,
    8048704753,
    337848983,
    5384277634,
    5384277635,
    337848987,
    8037799018,
    1774001580,
    5384277312,
    1774001582,
    337848992
  ],
  "tags": {
    "cycleway": "track",
    "cycleway:segregated": "no",
    "highway": "tertiary",
    "lanes": "2",
    "lit": "yes",
    "maxspeed": "50",
    "name": "Grindstedvej",
    "name:etymology:wikidata": "Q3547368",
    "sidewalk": "both",
    "smoothness": "good",
    "source:maxspeed": "DK:urban",
    "surface": "asphalt"
  }
},
{
  "type": "way",
  "id": 62043953,
  "nodes": [
    773334970,
    1198608528,
    773334971,
    773334972,
    773334973,
    773334967
  ],
  "tags": {
    "highway": "residential",
    "lit": "yes",
    "name": "Gammel Stationsvej",
    "name:etymology:wikidata": "Q132907741"
  }
},
{
  "type": "way",
  "id": 62043954,
  "nodes": [
    773334964,
    773334974,
    3639994444,
    773334972
  ],
  "tags": {
    "highway": "residential",
    "lit": "yes",
    "name": "Stationsvej",
    "name:etymology:wikidata": "Q132907741"
  }
},
{
  "type": "way",
  "id": 82948851,
  "nodes": [
    11230949403,
    2007178447,
    11230949406,
    11230949411,
    1254163439,
    965128685,
    1502139067,
    1502139075,
    2007266571,
    4361137492,
    1502138880,
    11999702256,
    1502138886,
    11999708594,
    1502138900,
    11999708595,
    1502138905,
    11999708574,
    11230949427,
    1502138732
  ],
  "tags": {
    "cycleway": "no",
    "highway": "tertiary",
    "lanes": "2",
    "lit": "no",
    "maxspeed": "80",
    "name": "Kastanievej",
    "name:etymology:wikidata": "Q129324",
    "smoothness": "excellent",
    "source:maxspeed": "DK:rural",
    "surface": "asphalt"
  }
},
{
  "type": "way",
  "id": 103827474,
  "nodes": [
    1198608278,
    1198608412,
    1198608563,
    1198608169,
    1198608337,
    1198608450
  ],
  "tags": {
    "highway": "residential",
    "lit": "yes",
    "name": "Fasanvej",
    "name:etymology:wikidata": "Q25432",
    "surface": "asphalt"
  }
},
{
  "type": "way",
  "id": 103827482,
  "nodes": [
    1198608299,
    8048704755,
    8048704757,
    1198608497,
    1198608585,
    1198608181,
    1198608343,
    1198608135
  ],
  "tags": {
    "highway": "residential",
    "lit": "yes",
    "name": "Gyvelvej",
    "name:etymology:wikidata": "Q145781",
    "surface": "asphalt"
  }
},
{
  "type": "way",
  "id": 103827487,
  "nodes": [
    1198608621,
    1198608223,
    1198608455,
    1198608553
  ],
  "tags": {
    "highway": "residential",
    "lit": "yes",
    "name": "Falkevej",
    "name:etymology:wikidata": "Q43489",
    "surface": "asphalt"
  }
},
{
  "type": "way",
  "id": 103827488,
  "nodes": [
    1198608337,
    1198608127,
    5384277963,
    2984170711,
    1198608235
  ],
  "tags": {
    "highway": "residential",
    "lit": "yes",
    "name": "Fuglsangvej",
    "name:etymology:wikidata": "Q1126556",
    "surface": "asphalt"
  }
},
{
  "type": "way",
  "id": 103827494,
  "nodes": [
    5384277960,
    1198608403,
    1198608223,
    1198608156,
    1198608293,
    1198608579,
    1198608216,
    1198608156
  ],
  "tags": {
    "highway": "residential",
    "lit": "yes",
    "name": "Falkevej",
    "name:etymology:wikidata": "Q43489",
    "surface": "asphalt"
  }
},
{
  "type": "way",
  "id": 103827495,
  "nodes": [
    1198608497,
    1198608272,
    1198608410,
    1198608468,
    1198608334
  ],
  "tags": {
    "highway": "residential",
    "lit": "yes",
    "name": "Blomstervænget",
    "name:etymology:wikidata": "Q506",
    "surface": "asphalt"
  }
},
{
  "type": "way",
  "id": 103827500,
  "nodes": [
    1198608349,
    773334970,
    1198608153
  ],
  "tags": {
    "highway": "residential",
    "lit": "yes",
    "name": "Gammel Stationsvej",
    "name:etymology:wikidata": "Q132907741",
    "surface": "asphalt"
  }
},
{
  "type": "way",
  "id": 103828917,
  "nodes": [
    773334965,
    1774001579,
    1198608512,
    1198608625,
    1198608226,
    1198608354,
    9400486456,
    1198608396,
    5384277831,
    1198608463,
    5384277830,
    1198608558,
    1198608246,
    9400486479,
    1198608433,
    1198608409,
    9400486473,
    1198608346,
    1198608458
  ],
  "tags": {
    "highway": "residential",
    "name": "Gammel Åstvej",
    "short_name": "Gl. Åstvej",
    "surface": "gravel"
  }
},
{
  "type": "way",
  "id": 103829431,
  "nodes": [
    1198633276,
    1198633292
  ],
  "tags": {
    "highway": "residential",
    "lit": "yes",
    "name": "Rylevej",
    "name:etymology:wikidata": "Q30838",
    "surface": "asphalt"
  }
},
{
  "type": "way",
  "id": 103829653,
  "nodes": [
    1198634745,
    1198634746,
    5384277926
  ],
  "tags": {
    "highway": "residential",
    "lit": "yes",
    "name": "Ternevej",
    "name:etymology:wikidata": "Q33140745",
    "surface": "asphalt"
  }
},
{
  "type": "way",
  "id": 103830069,
  "nodes": [
    1198637213,
    1198637228
  ],
  "tags": {
    "highway": "residential",
    "lit": "yes",
    "name": "Lærkevej",
    "name:etymology:wikidata": "Q29858",
    "surface": "gravel"
  }
},
{
  "type": "way",
  "id": 228651368,
  "nodes": [
    2373079535,
    4850312692,
    4850312690,
    2373079534,
    9400486500,
    4850312691,
    9400486501,
    9400486502,
    2373079533,
    2373079532,
    9400486499,
    9400486498,
    2373079531,
    1198608346,
    11553232864,
    2373079530,
    11230949398,
    2373079529,
    2373079528,
    2373079527
  ],
  "tags": {
    "foot": "yes",
    "highway": "cycleway",
    "lit": "yes",
    "oneway": "no",
    "surface": "asphalt"
  }
},
{
  "type": "way",
  "id": 228651371,
  "nodes": [
    2373079540,
    2373079542
  ],
  "tags": {
    "foot": "yes",
    "highway": "cycleway",
    "lanes": "2",
    "layer": "-1",
    "oneway": "no",
    "surface": "asphalt",
    "tunnel": "yes"
  }
},
{
  "type": "way",
  "id": 228651374,
  "nodes": [
    2373079538,
    2373079536,
    4850312696,
    2373079537,
    2373079539,
    2373079540
  ],
  "tags": {
    "foot": "yes",
    "highway": "cycleway",
    "lanes": "2",
    "oneway": "no",
    "surface": "asphalt"
  }
},
{
  "type": "way",
  "id": 288076924,
  "nodes": [
    2916173499,
    2916175148,
    2916173500,
    2916175101,
    2916175103,
    2916175104,
    2916175105,
    2916175133,
    2916175107,
    2916175109,
    2916175132,
    2916175111,
    2916175113
  ],
  "tags": {
    "highway": "primary",
    "junction": "roundabout",
    "lanes": "1",
    "lit": "yes",
    "maxspeed": "80",
    "operator": "Vejdirektoratet",
    "operator:en": "The Danish Road Directorate",
    "operator:type": "public",
    "operator:wikidata": "Q1630101",
    "operator:wikipedia": "da:Vejdirektoratet",
    "ref": "28",
    "source:maxspeed": "DK:rural",
    "surface": "asphalt"
  }
},
{
  "type": "way",
  "id": 288076925,
  "nodes": [
    73014862,
    2916175116,
    2916175118,
    11764511442,
    2916175122
  ],
  "tags": {
    "highway": "trunk",
    "lanes": "1",
    "lit": "yes",
    "maxspeed": "80",
    "motorroad": "yes",
    "name": "Vandelvej",
    "name:etymology:wikidata": "Q4294399",
    "oneway": "yes",
    "operator": "Vejdirektoratet",
    "operator:en": "The Danish Road Directorate",
    "operator:type": "public",
    "operator:wikidata": "Q1630101",
    "operator:wikipedia": "da:Vejdirektoratet",
    "ref": "28",
    "source:maxspeed": "DK:rural",
    "surface": "asphalt"
  }
},
{
  "type": "way",
  "id": 288076926,
  "nodes": [
    2916175113,
    2916175126,
    2916175124,
    73014862
  ],
  "tags": {
    "highway": "trunk",
    "lanes": "1",
    "lit": "yes",
    "maxspeed": "80",
    "motorroad": "yes",
    "name": "Vandelvej",
    "name:etymology:wikidata": "Q4294399",
    "oneway": "yes",
    "operator": "Vejdirektoratet",
    "operator:en": "The Danish Road Directorate",
    "operator:type": "public",
    "operator:wikidata": "Q1630101",
    "operator:wikipedia": "da:Vejdirektoratet",
    "ref": "28",
    "source:maxspeed": "DK:rural",
    "surface": "asphalt"
  }
},
{
  "type": "way",
  "id": 288076927,
  "nodes": [
    73014873,
    2916175129,
    4928592008,
    11764511443,
    2916175132
  ],
  "tags": {
    "highway": "tertiary",
    "lanes": "1",
    "lit": "yes",
    "maxspeed": "80",
    "name": "Hans Thomsensvej",
    "oneway": "yes",
    "source:maxspeed": "DK:rural",
    "surface": "asphalt"
  }
},
{
  "type": "way",
  "id": 288076928,
  "nodes": [
    2916175133,
    2916175135,
    2916175137,
    73014873
  ],
  "tags": {
    "highway": "tertiary",
    "lanes": "1",
    "lit": "yes",
    "maxspeed": "80",
    "name": "Hans Thomsensvej",
    "oneway": "yes",
    "source:maxspeed": "DK:rural",
    "surface": "asphalt"
  }
},
{
  "type": "way",
  "id": 294793394,
  "nodes": [
    1198608528,
    2984170718
  ],
  "tags": {
    "highway": "residential",
    "lit": "yes",
    "name": "Gammel Stationsvej",
    "name:etymology:wikidata": "Q132907741"
  }
},
{
  "type": "way",
  "id": 294793400,
  "nodes": [
    2984170702,
    2984170697
  ],
  "tags": {
    "highway": "residential",
    "lit": "yes",
    "name": "Randbølvej",
    "name:etymology:wikidata": "Q130311956",
    "surface": "asphalt"
  }
},
{
  "type": "way",
  "id": 294793402,
  "nodes": [
    2984170703,
    8048704767,
    8048704765,
    2984170698
  ],
  "tags": {
    "highway": "residential",
    "lit": "yes",
    "name": "Randbølvej",
    "name:etymology:wikidata": "Q130311956",
    "surface": "asphalt"
  }
},
{
  "type": "way",
  "id": 294793422,
  "nodes": [
    2984170720,
    2984170718
  ],
  "tags": {
    "highway": "footway",
    "lit": "yes"
  }
},
{
  "type": "way",
  "id": 294793428,
  "nodes": [
    338409220,
    2984170720,
    2984170719,
    337849925
  ],
  "tags": {
    "highway": "footway",
    "lit": "yes"
  }
},
{
  "type": "way",
  "id": 294793429,
  "nodes": [
    1254163438,
    11230949404,
    2984172566,
    2984172567,
    2984172570
  ],
  "tags": {
    "highway": "service"
  }
},
{
  "type": "way",
  "id": 294793430,
  "nodes": [
    1198608272,
    2984170709,
    2984170707,
    2984170706,
    1198608153
  ],
  "tags": {
    "foot": "yes",
    "highway": "cycleway",
    "surface": "asphalt"
  }
},
{
  "type": "way",
  "id": 320572585,
  "nodes": [
    3271170736,
    1564363950,
    3271170739,
    1564363951,
    965128671,
    3271170743,
    1564363952,
    3271170744,
    3271170745,
    3271170746
  ],
  "tags": {
    "highway": "trunk",
    "lanes": "3",
    "lanes:backward": "2",
    "lanes:forward": "1",
    "maxspeed": "90",
    "motorroad": "yes",
    "name": "Vandelvej",
    "name:etymology:wikidata": "Q4294399",
    "operator": "Vejdirektoratet",
    "operator:en": "The Danish Road Directorate",
    "operator:type": "public",
    "operator:wikidata": "Q1630101",
    "operator:wikipedia": "da:Vejdirektoratet",
    "placement:forward": "left_of:1",
    "ref": "28",
    "source:maxspeed": "sign",
    "surface": "asphalt"
  }
},
{
  "type": "way",
  "id": 320572587,
  "nodes": [
    3271170746,
    73014862
  ],
  "tags": {
    "highway": "trunk",
    "lanes": "2",
    "maxspeed": "90",
    "motorroad": "yes",
    "name": "Vandelvej",
    "name:etymology:wikidata": "Q4294399",
    "operator": "Vejdirektoratet",
    "operator:en": "The Danish Road Directorate",
    "operator:type": "public",
    "operator:wikidata": "Q1630101",
    "operator:wikipedia": "da:Vejdirektoratet",
    "ref": "28",
    "source:maxspeed": "sign",
    "surface": "asphalt"
  }
},
{
  "type": "way",
  "id": 356680970,
  "nodes": [
    2394932408,
    1106224747,
    1106224770,
    1106224801,
    1106224745,
    3956389744,
    3505312249,
    3621671930,
    3621671931,
    1106224778,
    3505312250,
    1106224737,
    1106229447,
    1106227863,
    1106227867,
    1106227876,
    3505312248,
    3505312244,
    1106227888,
    1106227890,
    1106227860,
    1106227870,
    3505312222,
    1106227865,
    1106227868,
    3505312201,
    1106227873,
    1106224749
  ],
  "tags": {
    "highway": "tertiary",
    "name": "Nordre Ringvej",
    "surface": "asphalt"
  }
},
{
  "type": "way",
  "id": 356680971,
  "nodes": [
    1106227863,
    3975582698,
    3620939817
  ],
  "tags": {
    "highway": "service",
    "name": "Nordre Ringvej"
  }
},
{
  "type": "way",
  "id": 359242800,
  "nodes": [
    3639994444,
    4623851223,
    4623851222,
    4623851221
  ],
  "tags": {
    "highway": "service"
  }
},
{
  "type": "way",
  "id": 462851932,
  "nodes": [
    2916175113,
    2916175114,
    2916173485,
    2916173486,
    2916175122
  ],
  "tags": {
    "highway": "primary",
    "junction": "roundabout",
    "lanes": "1",
    "lit": "yes",
    "maxspeed": "80",
    "operator": "Vejdirektoratet",
    "operator:en": "The Danish Road Directorate",
    "operator:type": "public",
    "operator:wikidata": "Q1630101",
    "operator:wikipedia": "da:Vejdirektoratet",
    "ref": "28",
    "source:maxspeed": "DK:rural",
    "surface": "asphalt"
  }
},
{
  "type": "way",
  "id": 493099172,
  "nodes": [
    4850312678,
    4850312677,
    4850312679,
    4850312676,
    4850312674,
    4850312675
  ],
  "tags": {
    "highway": "service",
    "service": "parking_aisle"
  }
},
{
  "type": "way",
  "id": 493099173,
  "nodes": [
    1106213741,
    11764511439,
    12111955633,
    4850312675,
    12111955641,
    4850312679
  ],
  "tags": {
    "highway": "service",
    "service": "parking_aisle"
  }
},
{
  "type": "way",
  "id": 557024312,
  "nodes": [
    1198608135,
    5372551726,
    9400463892,
    9400463915,
    9400463914,
    3138783772,
    5372551727,
    5372551728,
    5372551729,
    5372551730,
    5372551731,
    5372551757,
    5372551756,
    5372551755,
    5372551746,
    5372551754,
    5372551753,
    5372551752,
    5372551751,
    5372551750,
    5372551749,
    5372551748,
    5372551747
  ],
  "tags": {
    "highway": "path",
    "surface": "dirt"
  }
},
{
  "type": "way",
  "id": 558354999,
  "nodes": [
    1198608625,
    5384277245,
    5384277244,
    5384277243,
    5384277242
  ],
  "tags": {
    "highway": "service",
    "service": "driveway"
  }
},
{
  "type": "way",
  "id": 558355087,
  "nodes": [
    773334964,
    5384277833,
    11230949392,
    5384277832,
    11230949391,
    11230949390,
    11230949389,
    11230949388
  ],
  "tags": {
    "highway": "service",
    "service": "driveway"
  }
},
{
  "type": "way",
  "id": 558355103,
  "nodes": [
    1198608153,
    5384277897,
    5384277896
  ],
  "tags": {
    "highway": "service",
    "service": "driveway"
  }
},
{
  "type": "way",
  "id": 558355105,
  "nodes": [
    1198608181,
    5384277925,
    5384277924,
    5384277923,
    5384277922,
    5384277921,
    5384277920
  ],
  "tags": {
    "highway": "track"
  }
},
{
  "type": "way",
  "id": 558355106,
  "nodes": [
    5384277928,
    1198633292,
    5384277927
  ],
  "tags": {
    "highway": "residential",
    "lit": "yes",
    "name": "Rylevej",
    "name:etymology:wikidata": "Q30838",
    "surface": "asphalt"
  }
},
{
  "type": "way",
  "id": 558355109,
  "nodes": [
    5384277940,
    5384277941,
    5384277939,
    5384277938
  ],
  "tags": {
    "highway": "footway"
  }
},
{
  "type": "way",
  "id": 558355110,
  "nodes": [
    5384277947,
    5384277948,
    5384277946,
    5384277945,
    5384277944,
    5384277943,
    5384277942,
    5384277941
  ],
  "tags": {
    "highway": "footway"
  }
},
{
  "type": "way",
  "id": 558355111,
  "nodes": [
    5384277949,
    5384277948
  ],
  "tags": {
    "highway": "footway"
  }
},
{
  "type": "way",
  "id": 558355112,
  "nodes": [
    5384277952,
    5384277951,
    5384277949,
    5384277950
  ],
  "tags": {
    "highway": "footway"
  }
},
{
  "type": "way",
  "id": 558355113,
  "nodes": [
    5384277953,
    6285769874,
    6285769873,
    5384277952,
    5384277938
  ],
  "tags": {
    "highway": "footway"
  }
},
{
  "type": "way",
  "id": 558355115,
  "nodes": [
    5384277963,
    5384277962,
    5384277961
  ],
  "tags": {
    "highway": "service",
    "service": "driveway"
  }
},
{
  "type": "way",
  "id": 558355125,
  "nodes": [
    5384278031,
    5384278030
  ],
  "tags": {
    "highway": "service",
    "lit": "yes"
  }
},
{
  "type": "way",
  "id": 558355126,
  "nodes": [
    5384278033,
    5384278032
  ],
  "tags": {
    "highway": "service",
    "lit": "yes"
  }
},
{
  "type": "way",
  "id": 558355127,
  "nodes": [
    5384278038,
    1198608450,
    5384277953,
    5384278037,
    5384278036,
    5384278035,
    5384278034,
    5384278031,
    5384278033
  ],
  "tags": {
    "highway": "residential",
    "lit": "yes",
    "name": "Fasanvej",
    "name:etymology:wikidata": "Q25432",
    "surface": "asphalt"
  }
},
{
  "type": "way",
  "id": 671226711,
  "nodes": [
    6285769873,
    5384278032
  ],
  "tags": {
    "highway": "footway"
  }
},
{
  "type": "way",
  "id": 671226712,
  "nodes": [
    6285769874,
    5384278030
  ],
  "tags": {
    "highway": "footway"
  }
},
{
  "type": "way",
  "id": 821473426,
  "nodes": [
    7670662670,
    7670662669,
    7670662668,
    286462218
  ],
  "tags": {
    "highway": "service"
  }
},
{
  "type": "way",
  "id": 821473427,
  "nodes": [
    7670662672,
    7670662671
  ],
  "tags": {
    "highway": "service"
  }
},
{
  "type": "way",
  "id": 863982830,
  "nodes": [
    8048704756,
    8048704755
  ],
  "tags": {
    "highway": "service",
    "service": "driveway"
  }
},
{
  "type": "way",
  "id": 863982831,
  "nodes": [
    8048704758,
    8048704757
  ],
  "tags": {
    "highway": "service",
    "service": "driveway"
  }
},
{
  "type": "way",
  "id": 863982832,
  "nodes": [
    8048704760,
    8048704759
  ],
  "tags": {
    "highway": "service",
    "service": "driveway"
  }
},
{
  "type": "way",
  "id": 863982833,
  "nodes": [
    8048704762,
    8048704761
  ],
  "tags": {
    "highway": "service",
    "service": "driveway"
  }
},
{
  "type": "way",
  "id": 863982834,
  "nodes": [
    8048704764,
    8048704763
  ],
  "tags": {
    "highway": "service",
    "service": "driveway"
  }
},
{
  "type": "way",
  "id": 863982835,
  "nodes": [
    8048704766,
    8048704765
  ],
  "tags": {
    "highway": "service",
    "service": "driveway"
  }
},
{
  "type": "way",
  "id": 863982836,
  "nodes": [
    8048704768,
    8048704767
  ],
  "tags": {
    "highway": "service",
    "service": "driveway",
    "surface": "asphalt"
  }
},
{
  "type": "way",
  "id": 1019193854,
  "nodes": [
    9400486473,
    9400486472,
    9400486471,
    9400486470,
    9400486469,
    9400486468,
    9400486467,
    9400486466,
    9400486465,
    9400486464,
    9400486463,
    9400486462,
    9400486461,
    9400486460,
    9400486459,
    9400486458,
    9400486457,
    338409398
  ],
  "tags": {
    "highway": "service"
  }
},
{
  "type": "way",
  "id": 1019193855,
  "nodes": [
    4850312680,
    9400486478,
    9400486477,
    9400486476,
    9400486475,
    9400486474,
    9400486491
  ],
  "tags": {
    "highway": "path"
  }
},
{
  "type": "way",
  "id": 1019193856,
  "nodes": [
    338409398,
    9400486497,
    9400486496,
    9400486495,
    9400486494,
    9400486493,
    9400486492,
    9400486491,
    9400486490,
    9400486489,
    9400486488,
    9400486487,
    9400486486,
    9400486485,
    9400486484,
    9400486483,
    9400486482,
    9400486481,
    9400486480,
    9400486479
  ],
  "tags": {
    "highway": "path"
  }
},
{
  "type": "way",
  "id": 1201746602,
  "nodes": [
    337848967,
    1254163438
  ],
  "tags": {
    "cycleway": "no",
    "highway": "tertiary",
    "lanes": "2",
    "lit": "yes",
    "maxspeed": "50",
    "name": "Kastanievej",
    "name:etymology:wikidata": "Q129324",
    "smoothness": "excellent",
    "source:maxspeed": "DK:urban",
    "surface": "asphalt"
  }
},
{
  "type": "way",
  "id": 1212220255,
  "nodes": [
    11230949394,
    11230949387,
    11230949386,
    11230949385
  ],
  "tags": {
    "highway": "service",
    "service": "driveway"
  }
},
{
  "type": "way",
  "id": 1212220256,
  "nodes": [
    11230949396,
    11230949395,
    11230949394,
    11230949393,
    11230949388,
    11230949392
  ],
  "tags": {
    "highway": "service",
    "service": "driveway"
  }
},
{
  "type": "way",
  "id": 1212220257,
  "nodes": [
    11230949397,
    11230949399,
    11230949402,
    338409220
  ],
  "tags": {
    "bicycle": "use_sidepath",
    "highway": "tertiary",
    "lanes": "2",
    "maxspeed": "50",
    "name": "Hans Thomsensvej",
    "oneway": "no",
    "source:maxspeed": "DK:urban",
    "surface": "asphalt"
  }
},
{
  "type": "way",
  "id": 1212220258,
  "nodes": [
    11230949400,
    11230949399,
    11230949398
  ],
  "tags": {
    "highway": "service",
    "surface": "asphalt"
  }
},
{
  "type": "way",
  "id": 1212220259,
  "nodes": [
    1254163438,
    11230949403
  ],
  "tags": {
    "cycleway": "no",
    "highway": "tertiary",
    "lanes": "2",
    "lit": "no",
    "maxspeed": "50",
    "name": "Kastanievej",
    "name:etymology:wikidata": "Q129324",
    "smoothness": "excellent",
    "source:maxspeed": "DK:urban",
    "surface": "asphalt"
  }
},
{
  "type": "way",
  "id": 1243102230,
  "nodes": [
    12419578803,
    12419578802,
    12419569198,
    12419569199,
    12419578801,
    12419569200,
    11553232866,
    11553232865
  ],
  "tags": {
    "highway": "proposed",
    "name": "Nordskovvej",
    "proposed": "residential"
  }
},
{
  "type": "way",
  "id": 1298147118,
  "nodes": [
    73014873,
    2373079538,
    286462218
  ],
  "tags": {
    "highway": "tertiary",
    "lanes": "2",
    "maxspeed": "80",
    "name": "Hans Thomsensvej",
    "oneway": "no",
    "source:maxspeed": "DK:rural",
    "surface": "asphalt"
  }
},
{
  "type": "way",
  "id": 1307890675,
  "nodes": [
    12111955638,
    12111955639,
    12111955640,
    4850312680,
    12111955643,
    12111955642,
    12111955641
  ],
  "tags": {
    "highway": "service",
    "oneway": "yes"
  }
},
{
  "type": "way",
  "id": 1307890676,
  "nodes": [
    12111955633,
    12111955634,
    12111955635,
    12111955636,
    12111955637
  ],
  "tags": {
    "highway": "service",
    "oneway": "yes"
  }
},
{
  "type": "way",
  "id": 1307890677,
  "nodes": [
    12111955637,
    12111955638
  ],
  "tags": {
    "highway": "service",
    "oneway": "yes",
    "tunnel": "building_passage"
  }
},
{
  "type": "way",
  "id": 1342402377,
  "nodes": [
    11553232866,
    12419569178
  ],
  "tags": {
    "highway": "proposed",
    "name": "Nordskovvej",
    "proposed": "residential"
  }
},
{
  "type": "way",
  "id": 1342402378,
  "nodes": [
    12419569180,
    12419569179,
    12419578801
  ],
  "tags": {
    "highway": "proposed",
    "proposed": "residential"
  }
},
{
  "type": "node",
  "id": 1106224745,
  "lat": 55.7051813,
  "lon": 9.2054790
},
{
  "type": "node",
  "id": 1106224747,
  "lat": 55.7046676,
  "lon": 9.2034165
},
{
  "type": "node",
  "id": 1106224770,
  "lat": 55.7048639,
  "lon": 9.2040601
},
{
  "type": "node",
  "id": 1106224778,
  "lat": 55.7054277,
  "lon": 9.2074394
},
{
  "type": "node",
  "id": 1106224801,
  "lat": 55.7050196,
  "lon": 9.2046583
},
{
  "type": "node",
  "id": 2394932408,
  "lat": 55.7038971,
  "lon": 9.2014462
},
{
  "type": "node",
  "id": 3505312249,
  "lat": 55.7053499,
  "lon": 9.2065551
},
{
  "type": "node",
  "id": 3621671930,
  "lat": 55.7053556,
  "lon": 9.2066200
},
{
  "type": "node",
  "id": 3621671931,
  "lat": 55.7054229,
  "lon": 9.2073849
},
{
  "type": "node",
  "id": 3956389744,
  "lat": 55.7052698,
  "lon": 9.2059600
},
{
  "type": "node",
  "id": 773334967,
  "lat": 55.7080782,
  "lon": 9.2122613
},
{
  "type": "node",
  "id": 773334972,
  "lat": 55.7080704,
  "lon": 9.2141441
},
{
  "type": "node",
  "id": 773334973,
  "lat": 55.7080505,
  "lon": 9.2137097
},
{
  "type": "node",
  "id": 1106224737,
  "lat": 55.7054307,
  "lon": 9.2091733
},
{
  "type": "node",
  "id": 1106227863,
  "lat": 55.7050285,
  "lon": 9.2141274
},
{
  "type": "node",
  "id": 1106229447,
  "lat": 55.7053321,
  "lon": 9.2105792
},
{
  "type": "node",
  "id": 3505312250,
  "lat": 55.7054516,
  "lon": 9.2082864
},
{
  "type": "node",
  "id": 3620939817,
  "lat": 55.7041738,
  "lon": 9.2136895
},
{
  "type": "node",
  "id": 3639994444,
  "lat": 55.7087392,
  "lon": 9.2141898
},
{
  "type": "node",
  "id": 3975582698,
  "lat": 55.7049680,
  "lon": 9.2140964
},
{
  "type": "node",
  "id": 4623851223,
  "lat": 55.7087522,
  "lon": 9.2136819
},
{
  "type": "node",
  "id": 1106224749,
  "lat": 55.6958409,
  "lon": 9.2224152
},
{
  "type": "node",
  "id": 1106227860,
  "lat": 55.7022713,
  "lon": 9.2213036
},
{
  "type": "node",
  "id": 1106227865,
  "lat": 55.7008557,
  "lon": 9.2221636
},
{
  "type": "node",
  "id": 1106227868,
  "lat": 55.6973258,
  "lon": 9.2225879
},
{
  "type": "node",
  "id": 1106227870,
  "lat": 55.7018100,
  "lon": 9.2217130
},
{
  "type": "node",
  "id": 1106227873,
  "lat": 55.6962486,
  "lon": 9.2225391
},
{
  "type": "node",
  "id": 3505312201,
  "lat": 55.6967438,
  "lon": 9.2226180
},
{
  "type": "node",
  "id": 3505312222,
  "lat": 55.7013932,
  "lon": 9.2219646
},
{
  "type": "node",
  "id": 337848967,
  "lat": 55.7088281,
  "lon": 9.2170399
},
{
  "type": "node",
  "id": 337849925,
  "lat": 55.7086494,
  "lon": 9.2171013
},
{
  "type": "node",
  "id": 337849932,
  "lat": 55.7087093,
  "lon": 9.2170439
},
{
  "type": "node",
  "id": 338409220,
  "lat": 55.7088876,
  "lon": 9.2161924
},
{
  "type": "node",
  "id": 773334970,
  "lat": 55.7077316,
  "lon": 9.2179644
},
{
  "type": "node",
  "id": 773334971,
  "lat": 55.7080848,
  "lon": 9.2145587
},
{
  "type": "node",
  "id": 1106227867,
  "lat": 55.7048804,
  "lon": 9.2151225
},
{
  "type": "node",
  "id": 1106227876,
  "lat": 55.7047407,
  "lon": 9.2158060
},
{
  "type": "node",
  "id": 1106227888,
  "lat": 55.7031917,
  "lon": 9.2199413
},
{
  "type": "node",
  "id": 1106227890,
  "lat": 55.7027410,
  "lon": 9.2207542
},
{
  "type": "node",
  "id": 1198608153,
  "lat": 55.7074387,
  "lon": 9.2178943
},
{
  "type": "node",
  "id": 1198608272,
  "lat": 55.7074207,
  "lon": 9.2201372
},
{
  "type": "node",
  "id": 1198608334,
  "lat": 55.7077885,
  "lon": 9.2203211
},
{
  "type": "node",
  "id": 1198608349,
  "lat": 55.7083665,
  "lon": 9.2181199
},
{
  "type": "node",
  "id": 1198608410,
  "lat": 55.7074544,
  "lon": 9.2200955
},
{
  "type": "node",
  "id": 1198608468,
  "lat": 55.7075022,
  "lon": 9.2200900
},
{
  "type": "node",
  "id": 1198608528,
  "lat": 55.7079632,
  "lon": 9.2161672
},
{
  "type": "node",
  "id": 1198633276,
  "lat": 55.7080123,
  "lon": 9.2194560
},
{
  "type": "node",
  "id": 1198633292,
  "lat": 55.7083376,
  "lon": 9.2197229
},
{
  "type": "node",
  "id": 1198634745,
  "lat": 55.7078195,
  "lon": 9.2201992
},
{
  "type": "node",
  "id": 1198634746,
  "lat": 55.7082903,
  "lon": 9.2205602
},
{
  "type": "node",
  "id": 1254163438,
  "lat": 55.7086358,
  "lon": 9.2201717
},
{
  "type": "node",
  "id": 2984170706,
  "lat": 55.7071702,
  "lon": 9.2194591
},
{
  "type": "node",
  "id": 2984170707,
  "lat": 55.7071710,
  "lon": 9.2197717
},
{
  "type": "node",
  "id": 2984170709,
  "lat": 55.7072289,
  "lon": 9.2199635
},
{
  "type": "node",
  "id": 2984170718,
  "lat": 55.7086530,
  "lon": 9.2163932
},
{
  "type": "node",
  "id": 2984170719,
  "lat": 55.7086559,
  "lon": 9.2169545
},
{
  "type": "node",
  "id": 2984170720,
  "lat": 55.7087874,
  "lon": 9.2164486
},
{
  "type": "node",
  "id": 3505312244,
  "lat": 55.7041228,
  "lon": 9.2176535
},
{
  "type": "node",
  "id": 3505312248,
  "lat": 55.7045249,
  "lon": 9.2165720
},
{
  "type": "node",
  "id": 5384277896,
  "lat": 55.7071293,
  "lon": 9.2177331
},
{
  "type": "node",
  "id": 5384277897,
  "lat": 55.7071588,
  "lon": 9.2178766
},
{
  "type": "node",
  "id": 5384277926,
  "lat": 55.7082682,
  "lon": 9.2206511
},
{
  "type": "node",
  "id": 5384277927,
  "lat": 55.7083094,
  "lon": 9.2198308
},
{
  "type": "node",
  "id": 5384277928,
  "lat": 55.7083660,
  "lon": 9.2196138
},
{
  "type": "node",
  "id": 8048704754,
  "lat": 55.7076843,
  "lon": 9.2207530
},
{
  "type": "node",
  "id": 11230949401,
  "lat": 55.7087744,
  "lon": 9.2170417
},
{
  "type": "node",
  "id": 11230949403,
  "lat": 55.7086103,
  "lon": 9.2205602
},
{
  "type": "node",
  "id": 11230949404,
  "lat": 55.7086810,
  "lon": 9.2202035
},
{
  "type": "node",
  "id": 1198608127,
  "lat": 55.7075201,
  "lon": 9.2238059
},
{
  "type": "node",
  "id": 1198608135,
  "lat": 55.7056572,
  "lon": 9.2252535
},
{
  "type": "node",
  "id": 1198608156,
  "lat": 55.7064125,
  "lon": 9.2274344
},
{
  "type": "node",
  "id": 1198608169,
  "lat": 55.7081467,
  "lon": 9.2216621
},
{
  "type": "node",
  "id": 1198608181,
  "lat": 55.7061841,
  "lon": 9.2234000
},
{
  "type": "node",
  "id": 1198608235,
  "lat": 55.7069917,
  "lon": 9.2234310
},
{
  "type": "node",
  "id": 1198608278,
  "lat": 55.7076011,
  "lon": 9.2210976
},
{
  "type": "node",
  "id": 1198608293,
  "lat": 55.7064858,
  "lon": 9.2271483
},
{
  "type": "node",
  "id": 1198608299,
  "lat": 55.7068750,
  "lon": 9.2238776
},
{
  "type": "node",
  "id": 1198608337,
  "lat": 55.7079773,
  "lon": 9.2239087
},
{
  "type": "node",
  "id": 1198608343,
  "lat": 55.7061218,
  "lon": 9.2234961
},
{
  "type": "node",
  "id": 1198608412,
  "lat": 55.7080896,
  "lon": 9.2214719
},
{
  "type": "node",
  "id": 1198608450,
  "lat": 55.7078940,
  "lon": 9.2251521
},
{
  "type": "node",
  "id": 1198608497,
  "lat": 55.7065191,
  "lon": 9.2235795
},
{
  "type": "node",
  "id": 1198608563,
  "lat": 55.7081340,
  "lon": 9.2215543
},
{
  "type": "node",
  "id": 1198608579,
  "lat": 55.7067865,
  "lon": 9.2273909
},
{
  "type": "node",
  "id": 1198608585,
  "lat": 55.7062594,
  "lon": 9.2233923
},
{
  "type": "node",
  "id": 1198637213,
  "lat": 55.7064069,
  "lon": 9.2257326
},
{
  "type": "node",
  "id": 1198637228,
  "lat": 55.7070659,
  "lon": 9.2262083
},
{
  "type": "node",
  "id": 2984170697,
  "lat": 55.7058597,
  "lon": 9.2255995
},
{
  "type": "node",
  "id": 2984170698,
  "lat": 55.7060973,
  "lon": 9.2245903
},
{
  "type": "node",
  "id": 2984170702,
  "lat": 55.7063480,
  "lon": 9.2259655
},
{
  "type": "node",
  "id": 2984170703,
  "lat": 55.7065970,
  "lon": 9.2249792
},
{
  "type": "node",
  "id": 2984170711,
  "lat": 55.7073619,
  "lon": 9.2237169
},
{
  "type": "node",
  "id": 5372551726,
  "lat": 55.7056604,
  "lon": 9.2253064
},
{
  "type": "node",
  "id": 5384277920,
  "lat": 55.7055758,
  "lon": 9.2233618
},
{
  "type": "node",
  "id": 5384277921,
  "lat": 55.7056649,
  "lon": 9.2231914
},
{
  "type": "node",
  "id": 5384277922,
  "lat": 55.7057322,
  "lon": 9.2231002
},
{
  "type": "node",
  "id": 5384277923,
  "lat": 55.7057911,
  "lon": 9.2230815
},
{
  "type": "node",
  "id": 5384277924,
  "lat": 55.7058501,
  "lon": 9.2231016
},
{
  "type": "node",
  "id": 5384277925,
  "lat": 55.7061123,
  "lon": 9.2233148
},
{
  "type": "node",
  "id": 5384277938,
  "lat": 55.7079140,
  "lon": 9.2259625
},
{
  "type": "node",
  "id": 5384277939,
  "lat": 55.7077549,
  "lon": 9.2259313
},
{
  "type": "node",
  "id": 5384277940,
  "lat": 55.7077274,
  "lon": 9.2263732
},
{
  "type": "node",
  "id": 5384277941,
  "lat": 55.7077522,
  "lon": 9.2259736
},
{
  "type": "node",
  "id": 5384277942,
  "lat": 55.7075559,
  "lon": 9.2259352
},
{
  "type": "node",
  "id": 5384277943,
  "lat": 55.7075529,
  "lon": 9.2259836
},
{
  "type": "node",
  "id": 5384277944,
  "lat": 55.7073762,
  "lon": 9.2259490
},
{
  "type": "node",
  "id": 5384277945,
  "lat": 55.7073917,
  "lon": 9.2256992
},
{
  "type": "node",
  "id": 5384277946,
  "lat": 55.7074188,
  "lon": 9.2257045
},
{
  "type": "node",
  "id": 5384277947,
  "lat": 55.7074455,
  "lon": 9.2252735
},
{
  "type": "node",
  "id": 5384277948,
  "lat": 55.7074214,
  "lon": 9.2256611
},
{
  "type": "node",
  "id": 5384277949,
  "lat": 55.7076066,
  "lon": 9.2256974
},
{
  "type": "node",
  "id": 5384277950,
  "lat": 55.7076276,
  "lon": 9.2253592
},
{
  "type": "node",
  "id": 5384277951,
  "lat": 55.7075990,
  "lon": 9.2258198
},
{
  "type": "node",
  "id": 5384277952,
  "lat": 55.7079190,
  "lon": 9.2258825
},
{
  "type": "node",
  "id": 5384277953,
  "lat": 55.7079635,
  "lon": 9.2251667
},
{
  "type": "node",
  "id": 5384277961,
  "lat": 55.7072816,
  "lon": 9.2242999
},
{
  "type": "node",
  "id": 5384277962,
  "lat": 55.7073435,
  "lon": 9.2242429
},
{
  "type": "node",
  "id": 5384277963,
  "lat": 55.7074041,
  "lon": 9.2237406
},
{
  "type": "node",
  "id": 5384278030,
  "lat": 55.7079764,
  "lon": 9.2254398
},
{
  "type": "node",
  "id": 5384278031,
  "lat": 55.7081050,
  "lon": 9.2254668
},
{
  "type": "node",
  "id": 5384278032,
  "lat": 55.7079643,
  "lon": 9.2257240
},
{
  "type": "node",
  "id": 5384278033,
  "lat": 55.7080862,
  "lon": 9.2257495
},
{
  "type": "node",
  "id": 5384278034,
  "lat": 55.7081132,
  "lon": 9.2253439
},
{
  "type": "node",
  "id": 5384278035,
  "lat": 55.7081066,
  "lon": 9.2252773
},
{
  "type": "node",
  "id": 5384278036,
  "lat": 55.7080853,
  "lon": 9.2252212
},
{
  "type": "node",
  "id": 5384278037,
  "lat": 55.7080530,
  "lon": 9.2251855
},
{
  "type": "node",
  "id": 5384278038,
  "lat": 55.7074255,
  "lon": 9.2250542
},
{
  "type": "node",
  "id": 6285769873,
  "lat": 55.7079294,
  "lon": 9.2257158
},
{
  "type": "node",
  "id": 6285769874,
  "lat": 55.7079471,
  "lon": 9.2254299
},
{
  "type": "node",
  "id": 8048704755,
  "lat": 55.7066712,
  "lon": 9.2237069
},
{
  "type": "node",
  "id": 8048704756,
  "lat": 55.7065460,
  "lon": 9.2241490
},
{
  "type": "node",
  "id": 8048704757,
  "lat": 55.7066296,
  "lon": 9.2236721
},
{
  "type": "node",
  "id": 8048704758,
  "lat": 55.7065127,
  "lon": 9.2241168
},
{
  "type": "node",
  "id": 8048704759,
  "lat": 55.7067266,
  "lon": 9.2244655
},
{
  "type": "node",
  "id": 8048704760,
  "lat": 55.7069200,
  "lon": 9.2246063
},
{
  "type": "node",
  "id": 8048704761,
  "lat": 55.7065202,
  "lon": 9.2252837
},
{
  "type": "node",
  "id": 8048704762,
  "lat": 55.7066684,
  "lon": 9.2253801
},
{
  "type": "node",
  "id": 8048704763,
  "lat": 55.7066179,
  "lon": 9.2248964
},
{
  "type": "node",
  "id": 8048704764,
  "lat": 55.7068271,
  "lon": 9.2250542
},
{
  "type": "node",
  "id": 8048704765,
  "lat": 55.7063226,
  "lon": 9.2247656
},
{
  "type": "node",
  "id": 8048704766,
  "lat": 55.7064160,
  "lon": 9.2244373
},
{
  "type": "node",
  "id": 8048704767,
  "lat": 55.7063391,
  "lon": 9.2247785
},
{
  "type": "node",
  "id": 8048704768,
  "lat": 55.7062422,
  "lon": 9.2251179
},
{
  "type": "node",
  "id": 8048704769,
  "lat": 55.7060652,
  "lon": 9.2270624
},
{
  "type": "node",
  "id": 337848992,
  "lat": 55.7118704,
  "lon": 9.2072023
},
{
  "type": "node",
  "id": 1774001582,
  "lat": 55.7117468,
  "lon": 9.2077185
},
{
  "type": "node",
  "id": 337848974,
  "lat": 55.7096373,
  "lon": 9.2121264
},
{
  "type": "node",
  "id": 337848978,
  "lat": 55.7101058,
  "lon": 9.2108266
},
{
  "type": "node",
  "id": 337848983,
  "lat": 55.7110145,
  "lon": 9.2093234
},
{
  "type": "node",
  "id": 337848987,
  "lat": 55.7115664,
  "lon": 9.2082891
},
{
  "type": "node",
  "id": 773334964,
  "lat": 55.7091429,
  "lon": 9.2142424
},
{
  "type": "node",
  "id": 773334965,
  "lat": 55.7095618,
  "lon": 9.2124342
},
{
  "type": "node",
  "id": 773334974,
  "lat": 55.7090479,
  "lon": 9.2142109
},
{
  "type": "node",
  "id": 1198608226,
  "lat": 55.7113210,
  "lon": 9.2134865
},
{
  "type": "node",
  "id": 1198608354,
  "lat": 55.7114386,
  "lon": 9.2134176
},
{
  "type": "node",
  "id": 1198608396,
  "lat": 55.7129614,
  "lon": 9.2139298
},
{
  "type": "node",
  "id": 1198608463,
  "lat": 55.7130294,
  "lon": 9.2140431
},
{
  "type": "node",
  "id": 1198608512,
  "lat": 55.7111912,
  "lon": 9.2135068
},
{
  "type": "node",
  "id": 1198608558,
  "lat": 55.7130192,
  "lon": 9.2142751
},
{
  "type": "node",
  "id": 1198608625,
  "lat": 55.7112561,
  "lon": 9.2135149
},
{
  "type": "node",
  "id": 1774001579,
  "lat": 55.7110651,
  "lon": 9.2134711
},
{
  "type": "node",
  "id": 1774001580,
  "lat": 55.7116700,
  "lon": 9.2080105
},
{
  "type": "node",
  "id": 2984170723,
  "lat": 55.7092484,
  "lon": 9.2137181
},
{
  "type": "node",
  "id": 2984170729,
  "lat": 55.7098059,
  "lon": 9.2115702
},
{
  "type": "node",
  "id": 2984172535,
  "lat": 55.7099401,
  "lon": 9.2111984
},
{
  "type": "node",
  "id": 2984172564,
  "lat": 55.7108231,
  "lon": 9.2096400
},
{
  "type": "node",
  "id": 4623851221,
  "lat": 55.7092944,
  "lon": 9.2135297
},
{
  "type": "node",
  "id": 4623851222,
  "lat": 55.7090109,
  "lon": 9.2134458
},
{
  "type": "node",
  "id": 5384277242,
  "lat": 55.7115607,
  "lon": 9.2140116
},
{
  "type": "node",
  "id": 5384277243,
  "lat": 55.7113522,
  "lon": 9.2139472
},
{
  "type": "node",
  "id": 5384277244,
  "lat": 55.7113477,
  "lon": 9.2137004
},
{
  "type": "node",
  "id": 5384277245,
  "lat": 55.7113258,
  "lon": 9.2136079
},
{
  "type": "node",
  "id": 5384277312,
  "lat": 55.7116850,
  "lon": 9.2079535
},
{
  "type": "node",
  "id": 5384277634,
  "lat": 55.7112819,
  "lon": 9.2088845
},
{
  "type": "node",
  "id": 5384277635,
  "lat": 55.7114618,
  "lon": 9.2085298
},
{
  "type": "node",
  "id": 5384277830,
  "lat": 55.7130317,
  "lon": 9.2141524
},
{
  "type": "node",
  "id": 5384277831,
  "lat": 55.7130022,
  "lon": 9.2139727
},
{
  "type": "node",
  "id": 5384277833,
  "lat": 55.7092200,
  "lon": 9.2143039
},
{
  "type": "node",
  "id": 8037799018,
  "lat": 55.7116440,
  "lon": 9.2080803
},
{
  "type": "node",
  "id": 8037799020,
  "lat": 55.7097347,
  "lon": 9.2118049
},
{
  "type": "node",
  "id": 8048704753,
  "lat": 55.7109178,
  "lon": 9.2094827
},
{
  "type": "node",
  "id": 9400486456,
  "lat": 55.7122006,
  "lon": 9.2136723
},
{
  "type": "node",
  "id": 11230949385,
  "lat": 55.7098985,
  "lon": 9.2134430
},
{
  "type": "node",
  "id": 11230949386,
  "lat": 55.7098094,
  "lon": 9.2138131
},
{
  "type": "node",
  "id": 11230949387,
  "lat": 55.7097656,
  "lon": 9.2139378
},
{
  "type": "node",
  "id": 11230949388,
  "lat": 55.7096757,
  "lon": 9.2142335
},
{
  "type": "node",
  "id": 11230949389,
  "lat": 55.7097452,
  "lon": 9.2142744
},
{
  "type": "node",
  "id": 11230949390,
  "lat": 55.7097678,
  "lon": 9.2143174
},
{
  "type": "node",
  "id": 11230949393,
  "lat": 55.7096817,
  "lon": 9.2141940
},
{
  "type": "node",
  "id": 11230949394,
  "lat": 55.7096636,
  "lon": 9.2140357
},
{
  "type": "node",
  "id": 11230949395,
  "lat": 55.7095933,
  "lon": 9.2138681
},
{
  "type": "node",
  "id": 11230949396,
  "lat": 55.7092681,
  "lon": 9.2136374
},
{
  "type": "node",
  "id": 11553232865,
  "lat": 55.7120836,
  "lon": 9.2138877
},
{
  "type": "node",
  "id": 73014862,
  "lat": 55.7135891,
  "lon": 9.2203012
},
{
  "type": "node",
  "id": 73014873,
  "lat": 55.7133882,
  "lon": 9.2192257
},
{
  "type": "node",
  "id": 286462218,
  "lat": 55.7126932,
  "lon": 9.2187568
},
{
  "type": "node",
  "id": 337848970,
  "lat": 55.7090494,
  "lon": 9.2148067
},
{
  "type": "node",
  "id": 337849239,
  "lat": 55.7089786,
  "lon": 9.2153390
},
{
  "type": "node",
  "id": 338409398,
  "lat": 55.7129422,
  "lon": 9.2176519
},
{
  "type": "node",
  "id": 1106213741,
  "lat": 55.7128670,
  "lon": 9.2179975
},
{
  "type": "node",
  "id": 1198608246,
  "lat": 55.7129222,
  "lon": 9.2146204
},
{
  "type": "node",
  "id": 1198608346,
  "lat": 55.7113239,
  "lon": 9.2175999
},
{
  "type": "node",
  "id": 1198608409,
  "lat": 55.7123155,
  "lon": 9.2161050
},
{
  "type": "node",
  "id": 1198608433,
  "lat": 55.7124341,
  "lon": 9.2158610
},
{
  "type": "node",
  "id": 1198608458,
  "lat": 55.7112624,
  "lon": 9.2177937
},
{
  "type": "node",
  "id": 2373079527,
  "lat": 55.7089255,
  "lon": 9.2157988
},
{
  "type": "node",
  "id": 2373079528,
  "lat": 55.7089870,
  "lon": 9.2160031
},
{
  "type": "node",
  "id": 2373079529,
  "lat": 55.7090387,
  "lon": 9.2160868
},
{
  "type": "node",
  "id": 2373079530,
  "lat": 55.7106465,
  "lon": 9.2171844
},
{
  "type": "node",
  "id": 2373079531,
  "lat": 55.7126094,
  "lon": 9.2184490
},
{
  "type": "node",
  "id": 2373079532,
  "lat": 55.7126743,
  "lon": 9.2184496
},
{
  "type": "node",
  "id": 2373079533,
  "lat": 55.7126923,
  "lon": 9.2184271
},
{
  "type": "node",
  "id": 2373079534,
  "lat": 55.7127694,
  "lon": 9.2181504
},
{
  "type": "node",
  "id": 2373079535,
  "lat": 55.7128315,
  "lon": 9.2181495
},
{
  "type": "node",
  "id": 2373079536,
  "lat": 55.7130723,
  "lon": 9.2190884
},
{
  "type": "node",
  "id": 2373079537,
  "lat": 55.7130817,
  "lon": 9.2192107
},
{
  "type": "node",
  "id": 2373079538,
  "lat": 55.7130854,
  "lon": 9.2190218
},
{
  "type": "node",
  "id": 2373079539,
  "lat": 55.7134615,
  "lon": 9.2201346
},
{
  "type": "node",
  "id": 2373079540,
  "lat": 55.7135219,
  "lon": 9.2201912
},
{
  "type": "node",
  "id": 2373079542,
  "lat": 55.7136765,
  "lon": 9.2203722
},
{
  "type": "node",
  "id": 2916173485,
  "lat": 55.7137267,
  "lon": 9.2199050
},
{
  "type": "node",
  "id": 2916173486,
  "lat": 55.7137705,
  "lon": 9.2199467
},
{
  "type": "node",
  "id": 2916173499,
  "lat": 55.7140160,
  "lon": 9.2192058
},
{
  "type": "node",
  "id": 2916173500,
  "lat": 55.7139354,
  "lon": 9.2191303
},
{
  "type": "node",
  "id": 2916175101,
  "lat": 55.7138878,
  "lon": 9.2191133
},
{
  "type": "node",
  "id": 2916175103,
  "lat": 55.7138393,
  "lon": 9.2191132
},
{
  "type": "node",
  "id": 2916175104,
  "lat": 55.7137917,
  "lon": 9.2191302
},
{
  "type": "node",
  "id": 2916175105,
  "lat": 55.7137385,
  "lon": 9.2191722
},
{
  "type": "node",
  "id": 2916175107,
  "lat": 55.7136511,
  "lon": 9.2193302
},
{
  "type": "node",
  "id": 2916175109,
  "lat": 55.7136261,
  "lon": 9.2194415
},
{
  "type": "node",
  "id": 2916175111,
  "lat": 55.7136301,
  "lon": 9.2196747
},
{
  "type": "node",
  "id": 2916175113,
  "lat": 55.7136576,
  "lon": 9.2197794
},
{
  "type": "node",
  "id": 2916175114,
  "lat": 55.7136885,
  "lon": 9.2198485
},
{
  "type": "node",
  "id": 2916175116,
  "lat": 55.7136258,
  "lon": 9.2202125
},
{
  "type": "node",
  "id": 2916175118,
  "lat": 55.7136983,
  "lon": 9.2200972
},
{
  "type": "node",
  "id": 2916175122,
  "lat": 55.7138181,
  "lon": 9.2199718
},
{
  "type": "node",
  "id": 2916175124,
  "lat": 55.7136273,
  "lon": 9.2200851
},
{
  "type": "node",
  "id": 2916175126,
  "lat": 55.7136500,
  "lon": 9.2198920
},
{
  "type": "node",
  "id": 2916175129,
  "lat": 55.7134993,
  "lon": 9.2193532
},
{
  "type": "node",
  "id": 2916175132,
  "lat": 55.7136191,
  "lon": 9.2195608
},
{
  "type": "node",
  "id": 2916175133,
  "lat": 55.7136923,
  "lon": 9.2192352
},
{
  "type": "node",
  "id": 2916175135,
  "lat": 55.7136152,
  "lon": 9.2192576
},
{
  "type": "node",
  "id": 2916175137,
  "lat": 55.7135306,
  "lon": 9.2192603
},
{
  "type": "node",
  "id": 2916175148,
  "lat": 55.7139802,
  "lon": 9.2191636
},
{
  "type": "node",
  "id": 3271170746,
  "lat": 55.7133965,
  "lon": 9.2208253
},
{
  "type": "node",
  "id": 4850312674,
  "lat": 55.7130371,
  "lon": 9.2181848
},
{
  "type": "node",
  "id": 4850312675,
  "lat": 55.7130508,
  "lon": 9.2181218
},
{
  "type": "node",
  "id": 4850312676,
  "lat": 55.7129946,
  "lon": 9.2183923
},
{
  "type": "node",
  "id": 4850312677,
  "lat": 55.7132629,
  "lon": 9.2186505
},
{
  "type": "node",
  "id": 4850312678,
  "lat": 55.7135424,
  "lon": 9.2188503
},
{
  "type": "node",
  "id": 4850312679,
  "lat": 55.7132463,
  "lon": 9.2185445
},
{
  "type": "node",
  "id": 4850312680,
  "lat": 55.7133237,
  "lon": 9.2179862
},
{
  "type": "node",
  "id": 4850312690,
  "lat": 55.7127790,
  "lon": 9.2181308
},
{
  "type": "node",
  "id": 4850312691,
  "lat": 55.7127454,
  "lon": 9.2182656
},
{
  "type": "node",
  "id": 4850312692,
  "lat": 55.7127911,
  "lon": 9.2181275
},
{
  "type": "node",
  "id": 4850312696,
  "lat": 55.7130695,
  "lon": 9.2191487
},
{
  "type": "node",
  "id": 4928592008,
  "lat": 55.7135541,
  "lon": 9.2194350
},
{
  "type": "node",
  "id": 5384277832,
  "lat": 55.7097195,
  "lon": 9.2145413
},
{
  "type": "node",
  "id": 7670662668,
  "lat": 55.7126222,
  "lon": 9.2190582
},
{
  "type": "node",
  "id": 7670662669,
  "lat": 55.7125316,
  "lon": 9.2190903
},
{
  "type": "node",
  "id": 7670662670,
  "lat": 55.7124893,
  "lon": 9.2192835
},
{
  "type": "node",
  "id": 7670662671,
  "lat": 55.7124258,
  "lon": 9.2177573
},
{
  "type": "node",
  "id": 7670662672,
  "lat": 55.7128548,
  "lon": 9.2180522
},
{
  "type": "node",
  "id": 9400486457,
  "lat": 55.7129388,
  "lon": 9.2175896
},
{
  "type": "node",
  "id": 9400486458,
  "lat": 55.7129297,
  "lon": 9.2175440
},
{
  "type": "node",
  "id": 9400486459,
  "lat": 55.7129123,
  "lon": 9.2175011
},
{
  "type": "node",
  "id": 9400486460,
  "lat": 55.7128753,
  "lon": 9.2174716
},
{
  "type": "node",
  "id": 9400486461,
  "lat": 55.7128103,
  "lon": 9.2174220
},
{
  "type": "node",
  "id": 9400486462,
  "lat": 55.7126963,
  "lon": 9.2173456
},
{
  "type": "node",
  "id": 9400486463,
  "lat": 55.7126615,
  "lon": 9.2172839
},
{
  "type": "node",
  "id": 9400486464,
  "lat": 55.7126245,
  "lon": 9.2172061
},
{
  "type": "node",
  "id": 9400486465,
  "lat": 55.7126011,
  "lon": 9.2170800
},
{
  "type": "node",
  "id": 9400486466,
  "lat": 55.7126018,
  "lon": 9.2170036
},
{
  "type": "node",
  "id": 9400486467,
  "lat": 55.7125799,
  "lon": 9.2169151
},
{
  "type": "node",
  "id": 9400486468,
  "lat": 55.7125572,
  "lon": 9.2168681
},
{
  "type": "node",
  "id": 9400486469,
  "lat": 55.7125263,
  "lon": 9.2168359
},
{
  "type": "node",
  "id": 9400486470,
  "lat": 55.7124462,
  "lon": 9.2167796
},
{
  "type": "node",
  "id": 9400486471,
  "lat": 55.7121734,
  "lon": 9.2166120
},
{
  "type": "node",
  "id": 9400486472,
  "lat": 55.7121002,
  "lon": 9.2165557
},
{
  "type": "node",
  "id": 9400486473,
  "lat": 55.7120654,
  "lon": 9.2164913
},
{
  "type": "node",
  "id": 9400486474,
  "lat": 55.7132024,
  "lon": 9.2173040
},
{
  "type": "node",
  "id": 9400486475,
  "lat": 55.7132704,
  "lon": 9.2175776
},
{
  "type": "node",
  "id": 9400486476,
  "lat": 55.7133218,
  "lon": 9.2177492
},
{
  "type": "node",
  "id": 9400486477,
  "lat": 55.7133406,
  "lon": 9.2178616
},
{
  "type": "node",
  "id": 9400486478,
  "lat": 55.7133359,
  "lon": 9.2179231
},
{
  "type": "node",
  "id": 9400486479,
  "lat": 55.7124849,
  "lon": 9.2157320
},
{
  "type": "node",
  "id": 9400486480,
  "lat": 55.7125474,
  "lon": 9.2158033
},
{
  "type": "node",
  "id": 9400486481,
  "lat": 55.7126283,
  "lon": 9.2158838
},
{
  "type": "node",
  "id": 9400486482,
  "lat": 55.7127514,
  "lon": 9.2159736
},
{
  "type": "node",
  "id": 9400486483,
  "lat": 55.7131163,
  "lon": 9.2162298
},
{
  "type": "node",
  "id": 9400486484,
  "lat": 55.7131707,
  "lon": 9.2162861
},
{
  "type": "node",
  "id": 9400486485,
  "lat": 55.7131972,
  "lon": 9.2163518
},
{
  "type": "node",
  "id": 9400486486,
  "lat": 55.7132062,
  "lon": 9.2164068
},
{
  "type": "node",
  "id": 9400486487,
  "lat": 55.7132236,
  "lon": 9.2165235
},
{
  "type": "node",
  "id": 9400486488,
  "lat": 55.7132289,
  "lon": 9.2167139
},
{
  "type": "node",
  "id": 9400486489,
  "lat": 55.7132251,
  "lon": 9.2169258
},
{
  "type": "node",
  "id": 9400486490,
  "lat": 55.7132130,
  "lon": 9.2170425
},
{
  "type": "node",
  "id": 9400486491,
  "lat": 55.7131911,
  "lon": 9.2171377
},
{
  "type": "node",
  "id": 9400486492,
  "lat": 55.7131609,
  "lon": 9.2172195
},
{
  "type": "node",
  "id": 9400486493,
  "lat": 55.7131095,
  "lon": 9.2173201
},
{
  "type": "node",
  "id": 9400486494,
  "lat": 55.7130566,
  "lon": 9.2174046
},
{
  "type": "node",
  "id": 9400486495,
  "lat": 55.7130151,
  "lon": 9.2174824
},
{
  "type": "node",
  "id": 9400486496,
  "lat": 55.7129932,
  "lon": 9.2175293
},
{
  "type": "node",
  "id": 9400486497,
  "lat": 55.7129713,
  "lon": 9.2176071
},
{
  "type": "node",
  "id": 9400486498,
  "lat": 55.7126275,
  "lon": 9.2184560
},
{
  "type": "node",
  "id": 9400486499,
  "lat": 55.7126551,
  "lon": 9.2184587
},
{
  "type": "node",
  "id": 9400486500,
  "lat": 55.7127586,
  "lon": 9.2182072
},
{
  "type": "node",
  "id": 9400486501,
  "lat": 55.7127272,
  "lon": 9.2183393
},
{
  "type": "node",
  "id": 9400486502,
  "lat": 55.7127053,
  "lon": 9.2184050
},
{
  "type": "node",
  "id": 11230949391,
  "lat": 55.7097640,
  "lon": 9.2144595
},
{
  "type": "node",
  "id": 11230949392,
  "lat": 55.7096348,
  "lon": 9.2145011
},
{
  "type": "node",
  "id": 11230949397,
  "lat": 55.7099030,
  "lon": 9.2168771
},
{
  "type": "node",
  "id": 11230949398,
  "lat": 55.7097107,
  "lon": 9.2165455
},
{
  "type": "node",
  "id": 11230949399,
  "lat": 55.7096724,
  "lon": 9.2167216
},
{
  "type": "node",
  "id": 11230949400,
  "lat": 55.7096507,
  "lon": 9.2168172
},
{
  "type": "node",
  "id": 11230949402,
  "lat": 55.7089489,
  "lon": 9.2162337
},
{
  "type": "node",
  "id": 11553232864,
  "lat": 55.7111630,
  "lon": 9.2175012
},
{
  "type": "node",
  "id": 11553232866,
  "lat": 55.7120367,
  "lon": 9.2144472
},
{
  "type": "node",
  "id": 11553232867,
  "lat": 55.7111104,
  "lon": 9.2176894
},
{
  "type": "node",
  "id": 11764511439,
  "lat": 55.7128955,
  "lon": 9.2180168
},
{
  "type": "node",
  "id": 11764511442,
  "lat": 55.7137736,
  "lon": 9.2200184
},
{
  "type": "node",
  "id": 11764511443,
  "lat": 55.7135888,
  "lon": 9.2195021
},
{
  "type": "node",
  "id": 12111955633,
  "lat": 55.7130390,
  "lon": 9.2181142
},
{
  "type": "node",
  "id": 12111955634,
  "lat": 55.7130934,
  "lon": 9.2178530
},
{
  "type": "node",
  "id": 12111955635,
  "lat": 55.7131088,
  "lon": 9.2178235
},
{
  "type": "node",
  "id": 12111955636,
  "lat": 55.7131281,
  "lon": 9.2178201
},
{
  "type": "node",
  "id": 12111955637,
  "lat": 55.7131802,
  "lon": 9.2178444
},
{
  "type": "node",
  "id": 12111955638,
  "lat": 55.7132890,
  "lon": 9.2179189
},
{
  "type": "node",
  "id": 12111955639,
  "lat": 55.7133075,
  "lon": 9.2179375
},
{
  "type": "node",
  "id": 12111955640,
  "lat": 55.7133230,
  "lon": 9.2179804
},
{
  "type": "node",
  "id": 12111955641,
  "lat": 55.7133037,
  "lon": 9.2182763
},
{
  "type": "node",
  "id": 12111955642,
  "lat": 55.7133281,
  "lon": 9.2181503
},
{
  "type": "node",
  "id": 12111955643,
  "lat": 55.7133316,
  "lon": 9.2180559
},
{
  "type": "node",
  "id": 12419569178,
  "lat": 55.7124069,
  "lon": 9.2145360
},
{
  "type": "node",
  "id": 12419569179,
  "lat": 55.7118032,
  "lon": 9.2154144
},
{
  "type": "node",
  "id": 12419569180,
  "lat": 55.7115101,
  "lon": 9.2153031
},
{
  "type": "node",
  "id": 12419569198,
  "lat": 55.7115384,
  "lon": 9.2167722
},
{
  "type": "node",
  "id": 12419569199,
  "lat": 55.7116438,
  "lon": 9.2164631
},
{
  "type": "node",
  "id": 12419569200,
  "lat": 55.7119887,
  "lon": 9.2149859
},
{
  "type": "node",
  "id": 12419578801,
  "lat": 55.7118648,
  "lon": 9.2154651
},
{
  "type": "node",
  "id": 12419578802,
  "lat": 55.7114705,
  "lon": 9.2172062
},
{
  "type": "node",
  "id": 12419578803,
  "lat": 55.7113310,
  "lon": 9.2175593
},
{
  "type": "node",
  "id": 2984172566,
  "lat": 55.7110564,
  "lon": 9.2218723
},
{
  "type": "node",
  "id": 2984172567,
  "lat": 55.7111738,
  "lon": 9.2220168
},
{
  "type": "node",
  "id": 2984172570,
  "lat": 55.7116530,
  "lon": 9.2227895
},
{
  "type": "node",
  "id": 3271170744,
  "lat": 55.7115833,
  "lon": 9.2257378
},
{
  "type": "node",
  "id": 3271170745,
  "lat": 55.7126053,
  "lon": 9.2229808
},
{
  "type": "node",
  "id": 5372551728,
  "lat": 55.7022856,
  "lon": 9.2379892
},
{
  "type": "node",
  "id": 5372551729,
  "lat": 55.7020362,
  "lon": 9.2386919
},
{
  "type": "node",
  "id": 1198608216,
  "lat": 55.7067132,
  "lon": 9.2276771
},
{
  "type": "node",
  "id": 1198608223,
  "lat": 55.7062828,
  "lon": 9.2279407
},
{
  "type": "node",
  "id": 1198608403,
  "lat": 55.7060943,
  "lon": 9.2286766
},
{
  "type": "node",
  "id": 1198608455,
  "lat": 55.7068993,
  "lon": 9.2284127
},
{
  "type": "node",
  "id": 1198608553,
  "lat": 55.7066637,
  "lon": 9.2293593
},
{
  "type": "node",
  "id": 1198608621,
  "lat": 55.7059190,
  "lon": 9.2276441
},
{
  "type": "node",
  "id": 1564363951,
  "lat": 55.7087811,
  "lon": 9.2338347
},
{
  "type": "node",
  "id": 2007178447,
  "lat": 55.7077961,
  "lon": 9.2329679
},
{
  "type": "node",
  "id": 5384277960,
  "lat": 55.7061369,
  "lon": 9.2287110
},
{
  "type": "node",
  "id": 8048704770,
  "lat": 55.7053080,
  "lon": 9.2301108
},
{
  "type": "node",
  "id": 8048704771,
  "lat": 55.7052867,
  "lon": 9.2301967
},
{
  "type": "node",
  "id": 9400463891,
  "lat": 55.7054228,
  "lon": 9.2296473
},
{
  "type": "node",
  "id": 9400463892,
  "lat": 55.7046932,
  "lon": 9.2290172
},
{
  "type": "node",
  "id": 9400463914,
  "lat": 55.7037991,
  "lon": 9.2324388
},
{
  "type": "node",
  "id": 9400463915,
  "lat": 55.7038730,
  "lon": 9.2321557
},
{
  "type": "node",
  "id": 965128685,
  "lat": 55.7075346,
  "lon": 9.2368227
},
{
  "type": "node",
  "id": 1254163439,
  "lat": 55.7076485,
  "lon": 9.2352889
},
{
  "type": "node",
  "id": 1564363950,
  "lat": 55.7082699,
  "lon": 9.2358491
},
{
  "type": "node",
  "id": 3138783772,
  "lat": 55.7028206,
  "lon": 9.2361881
},
{
  "type": "node",
  "id": 3271170736,
  "lat": 55.7080177,
  "lon": 9.2370985
},
{
  "type": "node",
  "id": 3271170739,
  "lat": 55.7085190,
  "lon": 9.2348216
},
{
  "type": "node",
  "id": 5372551727,
  "lat": 55.7025546,
  "lon": 9.2371336
},
{
  "type": "node",
  "id": 11230949406,
  "lat": 55.7077106,
  "lon": 9.2343124
},
{
  "type": "node",
  "id": 11230949411,
  "lat": 55.7076888,
  "lon": 9.2346547
},
{
  "type": "node",
  "id": 5372551730,
  "lat": 55.7010296,
  "lon": 9.2409423
},
{
  "type": "node",
  "id": 5372551731,
  "lat": 55.7009774,
  "lon": 9.2411153
},
{
  "type": "node",
  "id": 5372551746,
  "lat": 55.6988031,
  "lon": 9.2458454
},
{
  "type": "node",
  "id": 5372551753,
  "lat": 55.6980065,
  "lon": 9.2469746
},
{
  "type": "node",
  "id": 5372551754,
  "lat": 55.6984766,
  "lon": 9.2463563
},
{
  "type": "node",
  "id": 5372551755,
  "lat": 55.6991508,
  "lon": 9.2452084
},
{
  "type": "node",
  "id": 5372551756,
  "lat": 55.7001318,
  "lon": 9.2429982
},
{
  "type": "node",
  "id": 5372551757,
  "lat": 55.7004053,
  "lon": 9.2424124
},
{
  "type": "node",
  "id": 5372551747,
  "lat": 55.6977208,
  "lon": 9.2508870
},
{
  "type": "node",
  "id": 5372551748,
  "lat": 55.6974125,
  "lon": 9.2482768
},
{
  "type": "node",
  "id": 5372551749,
  "lat": 55.6972976,
  "lon": 9.2476572
},
{
  "type": "node",
  "id": 5372551750,
  "lat": 55.6973418,
  "lon": 9.2475788
},
{
  "type": "node",
  "id": 5372551751,
  "lat": 55.6974677,
  "lon": 9.2475110
},
{
  "type": "node",
  "id": 5372551752,
  "lat": 55.6975705,
  "lon": 9.2474534
},
{
  "type": "node",
  "id": 1502139067,
  "lat": 55.7069402,
  "lon": 9.2430586
},
{
  "type": "node",
  "id": 1502139075,
  "lat": 55.7067382,
  "lon": 9.2456715
},
{
  "type": "node",
  "id": 2007266571,
  "lat": 55.7065485,
  "lon": 9.2488645
},
{
  "type": "node",
  "id": 965128671,
  "lat": 55.7090658,
  "lon": 9.2327947
},
{
  "type": "node",
  "id": 1564363952,
  "lat": 55.7096676,
  "lon": 9.2309321
},
{
  "type": "node",
  "id": 3271170743,
  "lat": 55.7093634,
  "lon": 9.2318532
},
{
  "type": "node",
  "id": 1502138880,
  "lat": 55.7060752,
  "lon": 9.2592926
},
{
  "type": "node",
  "id": 1502138886,
  "lat": 55.7060214,
  "lon": 9.2598958
},
{
  "type": "node",
  "id": 4361137492,
  "lat": 55.7061866,
  "lon": 9.2568981
},
{
  "type": "node",
  "id": 11999702256,
  "lat": 55.7060540,
  "lon": 9.2596002
},
{
  "type": "node",
  "id": 11999708594,
  "lat": 55.7059936,
  "lon": 9.2601044
},
{
  "type": "node",
  "id": 1502138732,
  "lat": 55.7057548,
  "lon": 9.2608186
},
{
  "type": "node",
  "id": 1502138900,
  "lat": 55.7059607,
  "lon": 9.2602770
},
{
  "type": "node",
  "id": 1502138905,
  "lat": 55.7058804,
  "lon": 9.2605711
},
{
  "type": "node",
  "id": 11230949427,
  "lat": 55.7057783,
  "lon": 9.2607706
},
{
  "type": "node",
  "id": 11999708574,
  "lat": 55.7058286,
  "lon": 9.2606724
},
{
  "type": "node",
  "id": 11999708595,
  "lat": 55.7059241,
  "lon": 9.2604363
}

  ]
}
