{
  "version": 0.6,
  "generator": "Overpass API 0.7.62.8 e802775f",
  "osm3s": {
    "timestamp_osm_base": "2025-10-09T13:38:36Z",
    "copyright": "The data included in this document is from www.openstreetmap.org. The data is made available under ODbL."
  },
  "elements": [
    {
      "type": "way",
      "id": 8058917,
      "nodes": [311864630, 13197582276, 1364468259, 311864546, 311864547],
      "tags": {
        "highway": "track",
        "smoothness": "bad",
        "surface": "compacted",
        "tracktype": "grade2",
        "width": "3.5"
      }
    },
    {
      "type": "way",
      "id": 23757808,
      "nodes": [257402920, 31206474],
      "tags": {
        "bridge": "yes",
        "cycleway:both": "no",
        "highway": "primary",
        "lanes": "2",
        "layer": "1",
        "maxspeed": "100",
        "motorroad": "yes",
        "ref": "B 2",
        "surface": "asphalt"
      }
    },
    {
      "type": "way",
      "id": 23757809,
      "nodes": [
        31206474, 257402922, 31206475, 11666239654, 311650890, 2634297070,
        31206477, 2634297067, 311879244, 2634297061, 31206479, 2634297053,
        31206480, 11666239658, 2634297046, 31206481, 2634297037, 311650837,
        2634297027, 31206482, 2634296997
      ],
      "tags": {
        "cycleway:both": "no",
        "highway": "primary",
        "lanes": "2",
        "maxspeed": "100",
        "motorroad": "yes",
        "oneway": "no",
        "ref": "B 2",
        "surface": "asphalt"
      }
    },
    {
      "type": "way",
      "id": 23757810,
      "nodes": [257402923, 257402949, 5446218646, 257402926],
      "tags": {
        "bicycle": "use_sidepath",
        "dual_carriageway": "yes",
        "highway": "primary",
        "lanes": "2",
        "oneway": "yes",
        "priority_road": "designated",
        "ref": "B 246",
        "smoothness": "good",
        "surface": "asphalt",
        "turn:lanes": "left|through;right"
      }
    },
    {
      "type": "way",
      "id": 23757813,
      "nodes": [
        257402923, 311864841, 60253241, 311865419, 268203283, 60253246,
        268203472, 311865421, 13197639143, 311865090, 311865089, 311865020,
        311865012, 311865002, 311865003, 2540969039, 2540969038, 311864998,
        60253239, 9881814559
      ],
      "tags": {
        "bicycle": "use_sidepath",
        "cycleway:left": "no",
        "cycleway:right": "separate",
        "highway": "primary",
        "lanes": "2",
        "maxspeed": "70",
        "name": "Trebbiner Straße",
        "priority_road": "designated",
        "ref": "B 246",
        "sidewalk:right": "separate",
        "smoothness": "good",
        "surface": "asphalt"
      }
    },
    {
      "type": "way",
      "id": 25750428,
      "nodes": [
        280826181, 31206467, 311866176, 311866177, 311866178, 31206468,
        311735843, 311735860, 31206469, 311735861, 31206470, 311735888
      ],
      "tags": {
        "cycleway:both": "no",
        "highway": "primary",
        "lanes": "2",
        "maxspeed": "100",
        "motorroad": "yes",
        "oneway": "no",
        "ref": "B 2",
        "smoothness": "good",
        "surface": "asphalt"
      }
    },
    {
      "type": "way",
      "id": 28374816,
      "nodes": [311650588, 9730200576, 311652416, 311650602, 311650600],
      "tags": {
        "cycleway:both": "no",
        "highway": "tertiary",
        "maxspeed": "50",
        "name": "Poststraße",
        "old_ref": "B 2",
        "postal_code": "14547",
        "surface": "paving_stones"
      }
    },
    {
      "type": "way",
      "id": 28374880,
      "nodes": [311651351, 311651144, 10914515301, 311651143],
      "tags": {
        "highway": "residential",
        "maxspeed": "30",
        "name": "Virchowstraße",
        "postal_code": "14547",
        "traffic_sign": "DE:274.1[30]",
        "zone:maxspeed": "DE:30"
      }
    },
    {
      "type": "way",
      "id": 28374943,
      "nodes": [
        311651690, 6047519813, 311651689, 311651688, 10914524507, 311651687
      ],
      "tags": {
        "access": "destination",
        "bicycle": "yes",
        "foot": "yes",
        "hgv": "no",
        "highway": "residential",
        "name": "Berliner Straße",
        "postal_code": "14547",
        "surface": "cobblestone"
      }
    },
    {
      "type": "way",
      "id": 28374958,
      "nodes": [
        311651824, 9646661547, 311651823, 311651820, 311651819, 311651815,
        5421181360, 2994203989, 2994203995
      ],
      "tags": {
        "highway": "residential",
        "lanes": "1",
        "lit": "yes",
        "maxspeed": "30",
        "name": "Bekkerstraße",
        "postal_code": "14547",
        "surface": "asphalt"
      }
    },
    {
      "type": "way",
      "id": 28374975,
      "nodes": [
        311652147, 2181333232, 311652198, 311652333, 3003230107, 311652157,
        3003230109, 311651970, 3003230111, 311651976, 3003230114, 311651980,
        4549673211, 3003230118, 4549673210, 311651984, 3003230120, 311651985
      ],
      "tags": {
        "highway": "residential",
        "maxspeed": "30",
        "name": "Mauerstraße",
        "postal_code": "14547",
        "source:maxspeed": "DE:zone30",
        "surface": "sett"
      }
    },
    {
      "type": "way",
      "id": 28374987,
      "nodes": [311651985, 5140213585, 3003230122, 311652075, 3251645663],
      "tags": {
        "hgv": "no",
        "highway": "residential",
        "maxspeed": "30",
        "name": "Mauerstraße",
        "oneway": "yes",
        "postal_code": "14547",
        "surface": "paved"
      }
    },
    {
      "type": "way",
      "id": 28375018,
      "nodes": [311652147, 3201492576, 311650588],
      "tags": {
        "highway": "residential",
        "name": "Grünstraße",
        "oneway": "yes",
        "postal_code": "14547"
      }
    },
    {
      "type": "way",
      "id": 28375024,
      "nodes": [311650591, 3003230105, 311652198],
      "tags": {
        "highway": "service",
        "lanes": "1",
        "maxspeed": "30",
        "name": "Botengasse",
        "oneway": "yes",
        "postal_code": "14547",
        "service": "alley",
        "sidewalk": "no"
      }
    },
    {
      "type": "way",
      "id": 28375042,
      "nodes": [311652331, 311652333],
      "tags": {
        "hgv": "no",
        "highway": "residential",
        "maxspeed": "30",
        "name": "Edelstraße",
        "oneway": "yes",
        "postal_code": "14547",
        "source:maxspeed": "DE:zone30"
      }
    },
    {
      "type": "way",
      "id": 28375070,
      "nodes": [311652451, 311652420, 9692924960],
      "tags": {
        "highway": "residential",
        "maxspeed": "30",
        "name": "Brauerstraße",
        "oneway": "yes",
        "oneway:bicycle": "no",
        "postal_code": "14547",
        "source:maxspeed": "DE:zone30",
        "surface": "paved"
      }
    },
    {
      "type": "way",
      "id": 28375166,
      "nodes": [
        1757595010, 1757595012, 311770650, 311652950, 1757595016, 8846739428,
        3202472361, 1757595017, 9062418047, 1757595075, 1757595078, 311652957
      ],
      "tags": {
        "highway": "footway",
        "lit": "yes",
        "name": "Steinhorst",
        "postal_code": "14547",
        "smoothness": "bad",
        "surface": "sett",
        "width": "3 m"
      }
    },
    {
      "type": "way",
      "id": 28375208,
      "nodes": [
        311653597, 10236253744, 311653595, 311653593, 311653590, 5420167377,
        311653588, 311739065, 311653581, 3251623961, 5420167375, 2305620168,
        2305620169, 5449515564, 9688293217, 2305620170
      ],
      "tags": {
        "highway": "residential",
        "maxspeed": "30",
        "name": "Am Lustgarten",
        "postal_code": "14547",
        "surface": "paved"
      }
    },
    {
      "type": "way",
      "id": 28379941,
      "nodes": [311740504, 311740484, 311740522, 6424494654],
      "tags": {
        "highway": "footway"
      }
    },
    {
      "type": "way",
      "id": 28379943,
      "nodes": [311740522, 311740523],
      "tags": {
        "created_by": "Potlatch 0.10f",
        "highway": "footway"
      }
    },
    {
      "type": "way",
      "id": 28380125,
      "nodes": [
        311742904, 311743291, 311743297, 5449500997, 311742905, 2992753307,
        2992753306, 3192614771, 311743308, 311743312, 5449459369, 5449459368,
        311742908, 5449459367, 5449459366, 311742909, 311651769, 5449459365,
        311651770, 311651771, 311742957, 311651773, 311742958, 311742959,
        11842973170, 311651775, 5421102668, 311742960, 311651777, 9688250707,
        262266033
      ],
      "tags": {
        "highway": "residential",
        "lit": "yes",
        "maxspeed": "30",
        "name": "Ratinger Straße",
        "postal_code": "14547",
        "source:maxspeed": "DE:zone30",
        "surface": "paving_stones"
      }
    },
    {
      "type": "way",
      "id": 28380164,
      "nodes": [311742904, 2250582302, 311743172, 311743165],
      "tags": {
        "highway": "service",
        "name": "Alfterer Straße",
        "postal_code": "14547"
      }
    },
    {
      "type": "way",
      "id": 28380172,
      "nodes": [311743172, 311743171],
      "tags": {
        "highway": "service",
        "name": "Alfterer Straße",
        "postal_code": "14547"
      }
    },
    {
      "type": "way",
      "id": 28380253,
      "nodes": [311742905, 311743288, 311743289, 5449500998, 311743290],
      "tags": {
        "highway": "service",
        "lit": "yes",
        "surface": "asphalt"
      }
    },
    {
      "type": "way",
      "id": 28380266,
      "nodes": [
        311743297, 311743301, 5449459341, 5449459340, 2250582420, 5449459342,
        2250582397, 2250582276
      ],
      "tags": {
        "highway": "residential",
        "name": "Montepulcianoweg",
        "postal_code": "14547"
      }
    },
    {
      "type": "way",
      "id": 28380284,
      "nodes": [311743312, 311743311],
      "tags": {
        "highway": "service",
        "name": "Kleiner Anger",
        "postal_code": "14547"
      }
    },
    {
      "type": "way",
      "id": 28380306,
      "nodes": [
        311743355, 311765181, 311651758, 311765125, 8381893275, 311651760,
        311651761, 311766266, 311740468, 311651762, 311766032, 311740523,
        311651765, 311651766, 311740464, 311651767, 311651769
      ],
      "tags": {
        "highway": "residential",
        "name": "Kleiner Anger",
        "postal_code": "14547"
      }
    },
    {
      "type": "way",
      "id": 28380343,
      "nodes": [
        311743355, 3002095155, 3002095154, 3002095153, 3002095151, 7551846616,
        3002095150, 7551846614, 7551846612, 3002095148, 7551846610, 3002095145,
        3002095143, 3002084530, 311743416, 3002847567, 10982293722, 311743441
      ],
      "tags": {
        "hgv": "no",
        "highway": "service",
        "name": "Trebbiner Straße"
      }
    },
    {
      "type": "way",
      "id": 28382679,
      "nodes": [311766032, 311766031, 311766030],
      "tags": {
        "highway": "service",
        "postal_code": "14547"
      }
    },
    {
      "type": "way",
      "id": 28382973,
      "nodes": [
        8846739428, 9062402708, 9062402709, 9062402710, 13198084700, 9062402711,
        9062402712, 13198132503, 9062402713, 13198132501, 13198132502,
        311770650, 3202472261, 3202454463, 3202446462, 8846739426, 311770651,
        311770652, 311770653, 3202472064, 311770655, 8846737708, 7464201501,
        311770657, 311770658, 311770659, 311770660, 311770661, 311770662,
        311770664, 9411240778
      ],
      "tags": {
        "highway": "footway",
        "lit": "yes",
        "smoothness": "excellent",
        "surface": "asphalt"
      }
    },
    {
      "type": "way",
      "id": 28392154,
      "nodes": [
        311864822, 311864823, 311865401, 311864827, 311864828, 311864829,
        311864830, 311864831, 311864834, 311864836, 311864837, 2909399130,
        311864630
      ],
      "tags": {
        "highway": "service",
        "postal_code": "14547",
        "smoothness": "bad",
        "surface": "compacted",
        "width": "3.5"
      }
    },
    {
      "type": "way",
      "id": 28398279,
      "nodes": [
        10018003922, 311926322, 311926323, 311926324, 311926325, 312409986,
        311926326, 311926327, 312409987, 311926328, 311926330, 311926331,
        311926332, 311926333, 311926334, 311926335, 311926336, 311926337,
        311926338, 312410367, 311926339, 311926340, 311926341, 311926342,
        311926343, 311926344, 311926347, 311926348, 311926349, 311926350,
        311926351, 311926352, 311926353, 311925958, 311925960, 311925962,
        311925964, 311925967, 311864547
      ],
      "tags": {
        "bicycle": "yes",
        "highway": "track",
        "ref": "Spargelrundweg",
        "surface": "ground",
        "tracktype": "grade4"
      }
    },
    {
      "type": "way",
      "id": 40012342,
      "nodes": [2799400616, 257402947, 257402924],
      "tags": {
        "bicycle": "use_sidepath",
        "dual_carriageway": "yes",
        "highway": "primary",
        "lanes": "1",
        "name": "Trebbiner Straße",
        "oneway": "yes",
        "priority_road": "designated",
        "ref": "B 246",
        "smoothness": "good",
        "surface": "asphalt"
      }
    },
    {
      "type": "way",
      "id": 40012347,
      "nodes": [257402926, 706010480, 31206471],
      "tags": {
        "highway": "primary",
        "lanes": "4",
        "motorroad": "yes",
        "ref": "B 2",
        "surface": "asphalt",
        "turn:lanes:backward": "left|through",
        "turn:lanes:forward": "left|through"
      }
    },
    {
      "type": "way",
      "id": 40803145,
      "nodes": [
        600395387, 496110253, 496110251, 496110250, 2991862265, 2991447115,
        496110247, 2991447112, 257402952, 496110244, 496110242, 1814541413
      ],
      "tags": {
        "bicycle": "designated",
        "foot": "designated",
        "highway": "path",
        "oneway": "no",
        "segregated": "no",
        "surface": "asphalt",
        "traffic_sign": "DE:240,1000-31"
      }
    },
    {
      "type": "way",
      "id": 44013695,
      "nodes": [268202420, 9688250698, 311650599, 2711681948],
      "tags": {
        "destination:forward": "Altstadt",
        "hgv": "delivery",
        "highway": "tertiary",
        "lanes": "2",
        "lit": "yes",
        "maxspeed": "50",
        "name": "Berliner Straße",
        "old_ref": "B 2",
        "postal_code": "14547",
        "sidewalk:both": "separate",
        "surface": "asphalt"
      }
    },
    {
      "type": "way",
      "id": 44608647,
      "nodes": [
        311651143, 6373479210, 5449516636, 5449515606, 5449515610, 3192614767,
        2250582415, 5449515603, 2305620172, 5449515566, 311651687
      ],
      "tags": {
        "cycleway:both": "lane",
        "cycleway:both:lane": "advisory",
        "highway": "tertiary",
        "lanes": "2",
        "maxspeed": "50",
        "name": "Berliner Straße",
        "old_ref": "B 2",
        "postal_code": "14547",
        "sidewalk:both": "separate",
        "surface": "asphalt"
      }
    },
    {
      "type": "way",
      "id": 107109360,
      "nodes": [257402948, 31206472, 268202862, 257402920],
      "tags": {
        "cycleway:both": "no",
        "highway": "primary",
        "lanes": "2",
        "maxspeed": "100",
        "motorroad": "yes",
        "oneway": "no",
        "ref": "B 2",
        "surface": "asphalt"
      }
    },
    {
      "type": "way",
      "id": 107109362,
      "nodes": [257402928, 2799400620],
      "tags": {
        "cycleway:both": "no",
        "highway": "primary",
        "lanes": "4",
        "lanes:backward": "1",
        "lanes:forward": "3",
        "maxspeed": "70",
        "motorroad": "yes",
        "ref": "B 2",
        "surface": "asphalt",
        "turn:lanes:forward": "left|through|right"
      }
    },
    {
      "type": "way",
      "id": 122020209,
      "nodes": [
        311743355, 311651757, 311651756, 311765071, 311651755, 311651754
      ],
      "tags": {
        "highway": "residential",
        "name": "Schlunkendorfer Weg",
        "postal_code": "14547"
      }
    },
    {
      "type": "way",
      "id": 122020217,
      "nodes": [2992089337, 1364435802, 5421102667, 2250582345, 311651771],
      "tags": {
        "highway": "service",
        "service": "parking_aisle"
      }
    },
    {
      "type": "way",
      "id": 130879107,
      "nodes": [311740484, 1440441334, 10982293718],
      "tags": {
        "highway": "footway"
      }
    },
    {
      "type": "way",
      "id": 134408458,
      "nodes": [268202419, 9881814542, 311738694, 6373479215],
      "tags": {
        "cycleway": "no",
        "highway": "primary",
        "lanes": "2",
        "lit": "yes",
        "maxspeed": "50",
        "maxspeed:conditional": "30 @ Mo-Fr 05:30-18:00",
        "name": "Clara-Zetkin-Straße",
        "priority_road": "designated",
        "ref": "B 246",
        "sidewalk:both": "separate",
        "smoothness": "excellent",
        "surface": "asphalt"
      }
    },
    {
      "type": "way",
      "id": 153029998,
      "nodes": [
        1657791491, 12135414301, 7846199436, 1657791490, 1657791487, 2305620166,
        2305620165, 1657791485
      ],
      "tags": {
        "highway": "service",
        "name": "Am Hahn",
        "postal_code": "14547"
      }
    },
    {
      "type": "way",
      "id": 153030001,
      "nodes": [
        1657791485, 1657791486, 1657791484, 1657791483, 1657791481, 2181333406,
        1657791478, 3202454461, 311770620, 311770668, 311770621, 311770622,
        311770623, 1657791479, 1657791480, 1657791482, 1657791485
      ],
      "tags": {
        "highway": "service"
      }
    },
    {
      "type": "way",
      "id": 153030017,
      "nodes": [268202420, 311649588, 9688250699],
      "tags": {
        "cycleway:both": "no",
        "highway": "primary",
        "lanes": "2",
        "lit": "yes",
        "maxspeed": "50",
        "maxspeed:type": "DE:urban",
        "name": "Trebbiner Straße",
        "priority_road": "designated",
        "ref": "B 246",
        "sidewalk:both": "separate",
        "smoothness": "good",
        "surface": "asphalt"
      }
    },
    {
      "type": "way",
      "id": 153229857,
      "nodes": [257402924, 1659393668, 5446218647, 31206471],
      "tags": {
        "bicycle": "use_sidepath",
        "cycleway:left": "no",
        "cycleway:right": "separate",
        "dual_carriageway": "yes",
        "highway": "primary",
        "lanes": "2",
        "name": "Trebbiner Straße",
        "oneway": "yes",
        "priority_road": "designated",
        "ref": "B 246",
        "sidewalk:right": "separate",
        "smoothness": "good",
        "surface": "asphalt",
        "turn:lanes": "left|through;right"
      }
    },
    {
      "type": "way",
      "id": 164096975,
      "nodes": [1757595075, 1757595073, 1757595047, 9062418055, 1757595043],
      "tags": {
        "highway": "footway",
        "lit": "yes",
        "smoothness": "excellent",
        "surface": "asphalt"
      }
    },
    {
      "type": "way",
      "id": 170299765,
      "nodes": [
        311652957, 13197494240, 3003230100, 2181333218, 3003230101, 311652045,
        3003230102, 311652043, 3003230103, 3003230104, 311652147
      ],
      "tags": {
        "highway": "residential",
        "name": "Mauerstraße",
        "oneway": "yes",
        "oneway:bicycle": "no",
        "postal_code": "14547"
      }
    },
    {
      "type": "way",
      "id": 170299766,
      "nodes": [311864630, 311864841],
      "tags": {
        "highway": "service",
        "postal_code": "14547"
      }
    },
    {
      "type": "way",
      "id": 170299768,
      "nodes": [
        1814541413, 13197582275, 496110241, 2991862264, 496110239, 2991862263,
        496110238, 2991862262, 496110236, 13197639144, 13197639145, 1174593747,
        496110234, 496110227, 496110225, 496110222, 3088891941, 496110220,
        496110217, 496110214, 496110212, 496110210, 3088891939, 1657791474,
        1318979627, 1318979638, 8869930078, 1318979619, 8869930079, 8869930080,
        1318979622, 1318979635, 1318979645, 8869930082, 8869930083, 1318979606,
        8869930084, 1318979618, 1318979623, 1318979636, 1318979639, 1318979608,
        3088871435, 1318979613
      ],
      "tags": {
        "bicycle": "designated",
        "foot": "designated",
        "highway": "path",
        "oneway": "no",
        "segregated": "no",
        "surface": "asphalt",
        "traffic_sign": "DE:240,1000-31"
      }
    },
    {
      "type": "way",
      "id": 170299772,
      "nodes": [
        311864547, 311925871, 311925872, 311943256, 311943261, 311943263,
        311943265, 311943267, 311943268, 311943269, 1174593815, 311943270,
        2181319685, 311943271, 311943272, 311928294, 311943274, 311943275,
        311943276, 5449411131, 311943278, 5449411105, 311650539
      ],
      "tags": {
        "highway": "track",
        "smoothness": "bad",
        "surface": "fine_gravel",
        "tracktype": "grade2"
      }
    },
    {
      "type": "way",
      "id": 170299773,
      "nodes": [
        311651985, 9692924960, 311652331, 6377255544, 6377255545, 2305620162,
        311650591, 6532010668, 311650588
      ],
      "tags": {
        "cycleway:both": "no",
        "hgv": "delivery",
        "highway": "tertiary",
        "lanes": "2",
        "lit": "yes",
        "maxspeed": "50",
        "maxweight": "7.5",
        "name": "Berliner Straße",
        "old_ref": "B 2",
        "postal_code": "14547",
        "sidewalk": "both",
        "sidewalk:both:surface": "sett",
        "smoothness": "excellent",
        "surface": "paving_stones"
      }
    },
    {
      "type": "way",
      "id": 170299775,
      "nodes": [600395387, 257402924],
      "tags": {
        "bicycle": "use_sidepath",
        "change:lanes": "no|no",
        "cycleway:left": "no",
        "cycleway:right": "separate",
        "highway": "primary",
        "lanes": "2",
        "maxspeed": "50",
        "maxspeed:type": "sign",
        "name": "Trebbiner Straße",
        "priority_road": "designated",
        "ref": "B 246",
        "sidewalk:right": "separate",
        "smoothness": "good",
        "surface": "asphalt"
      }
    },
    {
      "type": "way",
      "id": 170299776,
      "nodes": [311652731, 13197494249, 311652957],
      "tags": {
        "highway": "residential",
        "name": "Mauerstraße",
        "oneway": "yes",
        "oneway:bicycle": "no",
        "postal_code": "14547"
      }
    },
    {
      "type": "way",
      "id": 170299779,
      "nodes": [311864841, 1814541413],
      "tags": {
        "highway": "footway",
        "lit": "yes"
      }
    },
    {
      "type": "way",
      "id": 204856751,
      "nodes": [1810983855, 2148311506],
      "tags": {
        "highway": "track",
        "name": "Moderhorstweg",
        "note": "Routen 4 und D"
      }
    },
    {
      "type": "way",
      "id": 207890154,
      "nodes": [
        2181333232, 2181333238, 2181333239, 2181333240, 2181333241, 2181333243,
        9860341589, 9411165834, 9860169296, 9411240775, 9860169281, 2181333286
      ],
      "tags": {
        "highway": "footway",
        "lit": "yes",
        "smoothness": "good",
        "surface": "compacted"
      }
    },
    {
      "type": "way",
      "id": 207890156,
      "nodes": [
        1757595075, 2181333261, 8846739419, 8846739418, 8846739417, 2181333283,
        2181333286, 9860169286, 2181333289, 8843230095, 2181333295, 9411240776,
        2181333301
      ],
      "tags": {
        "highway": "footway",
        "lit": "yes",
        "smoothness": "excellent",
        "surface": "asphalt",
        "tracktype": "grade1"
      }
    },
    {
      "type": "way",
      "id": 207890158,
      "nodes": [
        2181333312, 9411167947, 2181333313, 2181333316, 2181333319, 13197639140,
        2181333323, 2181333327, 2181333329, 2181333332, 2181333334, 2181333337,
        2181333340, 2181333343, 13197732108, 2181333346, 2181333351
      ],
      "tags": {
        "bicycle": "no",
        "highway": "track",
        "motor_vehicle": "agricultural",
        "smoothness": "horrible",
        "surface": "grass",
        "tracktype": "grade4",
        "width": "2.5"
      }
    },
    {
      "type": "way",
      "id": 221532825,
      "nodes": [2305620162, 2305620164],
      "tags": {
        "highway": "residential",
        "lit": "yes",
        "name": "Kirchplatz",
        "oneway": "yes",
        "sidewalk": "both",
        "sidewalk:both:surface": "sett",
        "smoothness": "bad",
        "surface": "sett"
      }
    },
    {
      "type": "way",
      "id": 221532827,
      "nodes": [
        3187790362, 2992753299, 2992753301, 2992753303, 2992753305, 2992753304,
        2992753300, 2992753298, 2992753297, 2992753296, 311651771
      ],
      "tags": {
        "access": "destination",
        "emergency": "yes",
        "highway": "service",
        "vehicle": "no"
      }
    },
    {
      "type": "way",
      "id": 247163844,
      "nodes": [31206471, 257402953, 257402923],
      "tags": {
        "bicycle": "use_sidepath",
        "cycleway:left": "no",
        "cycleway:right": "separate",
        "destination": "Zossen;Trebbin",
        "destination:ref": "B 246",
        "dual_carriageway": "yes",
        "highway": "primary",
        "lanes": "1",
        "name": "Trebbiner Straße",
        "oneway": "yes",
        "priority_road": "designated",
        "ref": "B 246",
        "sidewalk:right": "separate",
        "smoothness": "good",
        "surface": "asphalt"
      }
    },
    {
      "type": "way",
      "id": 265515622,
      "nodes": [
        2711681940, 262266035, 6932067189, 2992771019, 9692924952, 262266033,
        11842973203, 9983792243, 268202422, 3095147275
      ],
      "tags": {
        "highway": "primary",
        "lanes": "2",
        "maxspeed": "30",
        "name": "Trebbiner Straße",
        "priority_road": "designated",
        "ref": "B 246",
        "sidewalk:left": "separate",
        "smoothness": "good",
        "source:maxspeed": "sign",
        "surface": "asphalt"
      }
    },
    {
      "type": "way",
      "id": 275302272,
      "nodes": [2799400620, 268202558, 257402926],
      "tags": {
        "cycleway:both": "no",
        "destination:backward": "Berliner Ring;Berlin;Potsdam",
        "destination:ref:backward": "A 10",
        "highway": "primary",
        "lanes": "3",
        "lanes:backward": "1",
        "lanes:forward": "2",
        "maxspeed": "70",
        "motorroad": "yes",
        "ref": "B 2",
        "surface": "asphalt",
        "turn:lanes:forward": "left|through"
      }
    },
    {
      "type": "way",
      "id": 275302273,
      "nodes": [257402948, 268202860, 279165120, 496110247, 31206471],
      "tags": {
        "cycleway:both": "no",
        "destination:backward": "Lutherstadt Wittenberg;Treuenbrietzen",
        "destination:ref:backward": "B 2",
        "highway": "primary",
        "lanes": "4",
        "lanes:backward": "1",
        "lanes:forward": "3",
        "maxspeed": "100",
        "motorroad": "yes",
        "ref": "B 2",
        "surface": "asphalt",
        "turn:lanes:forward": "left|through|right"
      }
    },
    {
      "type": "way",
      "id": 275302274,
      "nodes": [
        2799400620, 2799400619, 2799400618, 2991447117, 2799400617, 2991447116,
        2799400616
      ],
      "tags": {
        "cycleway:both": "no",
        "destination": "München;Bad Belzig;Beelitz",
        "destination:ref": "A 9;B 246",
        "dual_carriageway": "no",
        "highway": "primary_link",
        "lanes": "1",
        "oneway": "yes",
        "surface": "asphalt",
        "turn": "right"
      }
    },
    {
      "type": "way",
      "id": 289380206,
      "nodes": [2305620170, 10899759980, 262266034, 2711681944],
      "tags": {
        "cycleway:both": "no",
        "highway": "primary",
        "lanes": "2",
        "lit": "yes",
        "maxspeed": "50",
        "maxspeed:conditional": "30 @ Mo-Fr 05:30-18:00",
        "name": "Clara-Zetkin-Straße",
        "priority_road": "designated",
        "ref": "B 246",
        "sidewalk:both": "separate",
        "smoothness": "good",
        "surface": "asphalt"
      }
    },
    {
      "type": "way",
      "id": 289380597,
      "nodes": [2711681953, 274915501, 9688250697, 268202420],
      "tags": {
        "cycleway:both": "no",
        "destination:backward": "Beelitz-Nord",
        "foot": "yes",
        "highway": "tertiary",
        "lanes": "2",
        "lit": "yes",
        "maxspeed": "50",
        "name": "Berliner Straße",
        "old_ref": "B 2",
        "oneway": "no",
        "postal_code": "14547",
        "sidewalk:both": "separate",
        "surface": "asphalt"
      }
    },
    {
      "type": "way",
      "id": 295545295,
      "nodes": [311742904, 5449501003, 7121877829, 311743166, 311743167],
      "tags": {
        "highway": "residential",
        "name": "Alfterer Straße",
        "postal_code": "14547"
      }
    },
    {
      "type": "way",
      "id": 295545296,
      "nodes": [2992753307, 5449459364, 2992753308, 2992753309, 2992753310],
      "tags": {
        "highway": "service",
        "service": "driveway"
      }
    },
    {
      "type": "way",
      "id": 295546609,
      "nodes": [
        311742960, 5421102672, 5421102670, 2992771029, 2992771025, 5421102669,
        5421102671, 5421102672
      ],
      "tags": {
        "highway": "service",
        "service": "parking_aisle",
        "surface": "asphalt"
      }
    },
    {
      "type": "way",
      "id": 296496934,
      "nodes": [3002095145, 3002847575],
      "tags": {
        "highway": "service",
        "service": "parking_aisle"
      }
    },
    {
      "type": "way",
      "id": 296496935,
      "nodes": [3002095143, 3002847574],
      "tags": {
        "highway": "service",
        "service": "parking_aisle"
      }
    },
    {
      "type": "way",
      "id": 296496936,
      "nodes": [
        3002084530, 3002847573, 3002847572, 3002847571, 3002847570, 3002847569,
        3002847568, 3002847567
      ],
      "tags": {
        "highway": "service",
        "service": "parking_aisle"
      }
    },
    {
      "type": "way",
      "id": 296500459,
      "nodes": [
        3002864926, 10982293721, 3002864927, 3002864928, 3002864929, 3002864930,
        3002864931, 3002864932, 3002865233, 3002865234, 3002865235, 3002865236,
        3002865237, 3002865239, 3002865241, 3002865242, 3002865240, 6424494654
      ],
      "tags": {
        "highway": "path"
      }
    },
    {
      "type": "way",
      "id": 307629052,
      "nodes": [311735888, 311866334, 311735889, 257402928],
      "tags": {
        "cycleway:both": "no",
        "highway": "primary",
        "lanes": "2",
        "maxspeed": "70",
        "motorroad": "yes",
        "oneway": "no",
        "ref": "B 2",
        "surface": "asphalt"
      }
    },
    {
      "type": "way",
      "id": 308033752,
      "nodes": [2711681944, 3187963764, 60373094, 9688250700, 268202420],
      "tags": {
        "cycleway:both": "no",
        "destination:backward": "München;Bad Belzig",
        "destination:ref:backward": "A 9",
        "highway": "primary",
        "lanes": "2",
        "lit": "yes",
        "maxspeed": "50",
        "name": "Clara-Zetkin-Straße",
        "priority_road": "designated",
        "ref": "B 246",
        "sidewalk:both": "separate",
        "smoothness": "good",
        "surface": "asphalt"
      }
    },
    {
      "type": "way",
      "id": 313249342,
      "nodes": [3187790362, 2992753302, 9689867061, 2305620172],
      "tags": {
        "highway": "service",
        "vehicle": "no"
      }
    },
    {
      "type": "way",
      "id": 313338174,
      "nodes": [
        3192614767, 9646661545, 3192614466, 3192614765, 3192614861, 3192614771
      ],
      "tags": {
        "bicycle": "yes",
        "highway": "service",
        "surface": "sett",
        "vehicle": "destination"
      }
    },
    {
      "type": "way",
      "id": 313351857,
      "nodes": [311743291, 311743295, 311743296],
      "tags": {
        "highway": "service",
        "name": "Pornicweg",
        "postal_code": "14547"
      }
    },
    {
      "type": "way",
      "id": 313619633,
      "nodes": [
        9689867062, 7768702855, 5449499803, 311651824, 274915496, 6373479211,
        311651143
      ],
      "tags": {
        "cycleway:both": "lane",
        "cycleway:both:lane": "advisory",
        "highway": "tertiary",
        "maxspeed": "50",
        "name": "Berliner Straße",
        "old_ref": "B 2",
        "postal_code": "14547",
        "sidewalk:both": "separate",
        "surface": "asphalt"
      }
    },
    {
      "type": "way",
      "id": 314199837,
      "nodes": [311770666, 311770668],
      "tags": {
        "highway": "service"
      }
    },
    {
      "type": "way",
      "id": 314202539,
      "nodes": [
        3202454462, 3202490766, 3202490268, 9411240786, 3202490864, 3202490372,
        3202490166, 3202490168, 3202490069, 9411240780, 3202490169, 3202490170,
        3202490171, 1810983855
      ],
      "tags": {
        "highway": "service",
        "name": "Moderhorstweg"
      }
    },
    {
      "type": "way",
      "id": 314212118,
      "nodes": [
        1810983855, 3202490371, 3202490768, 3202490368, 3202489965, 311879497
      ],
      "tags": {
        "access": "private",
        "highway": "service",
        "name": "Langer Wiesenweg"
      }
    },
    {
      "type": "way",
      "id": 314217616,
      "nodes": [
        3202445066, 3202672364, 312406116, 3202445065, 312406117, 3202472264,
        3202472665, 9411167951, 3202445264
      ],
      "tags": {
        "bicycle": "yes",
        "foot": "yes",
        "highway": "cycleway",
        "is_sidepath": "no",
        "name": "Radweg von Schönefeld zur Nieplitz",
        "note": "Routen 4 und D",
        "ref": "A9039"
      }
    },
    {
      "type": "way",
      "id": 314217617,
      "nodes": [
        2148311506, 3202677765, 3202679164, 2148311505, 3202679364, 3202445066
      ],
      "tags": {
        "highway": "track",
        "name": "Zur Neuen Nieplitzbrücke",
        "note": "Routen 4 und D"
      }
    },
    {
      "type": "way",
      "id": 314987556,
      "nodes": [11842973171, 3210687858],
      "tags": {
        "highway": "service",
        "service": "parking_aisle"
      }
    },
    {
      "type": "way",
      "id": 314987557,
      "nodes": [1364435797, 3210687856],
      "tags": {
        "highway": "service",
        "service": "parking_aisle"
      }
    },
    {
      "type": "way",
      "id": 318784175,
      "nodes": [3251623961, 3251623861, 3251623761],
      "tags": {
        "access": "private",
        "highway": "service",
        "service": "driveway",
        "surface": "paved",
        "tracktype": "grade2"
      }
    },
    {
      "type": "way",
      "id": 382209362,
      "nodes": [2711681948, 311651882, 3854023005],
      "tags": {
        "hgv": "delivery",
        "highway": "tertiary",
        "lanes": "2",
        "lit": "yes",
        "maxspeed": "50",
        "name": "Berliner Straße",
        "old_ref": "B 2",
        "postal_code": "14547",
        "surface": "asphalt"
      }
    },
    {
      "type": "way",
      "id": 445366042,
      "nodes": [257402926, 257402927, 2799400616],
      "tags": {
        "bicycle": "use_sidepath",
        "destination": "München;Bad Belzig;Beelitz",
        "destination:ref": "A 9;B 246",
        "dual_carriageway": "yes",
        "highway": "primary",
        "lanes": "1",
        "name": "Trebbiner Straße",
        "oneway": "yes",
        "priority_road": "designated",
        "ref": "B 246",
        "smoothness": "good",
        "surface": "asphalt"
      }
    },
    {
      "type": "way",
      "id": 488513988,
      "nodes": [2992771019, 9688250705, 4808010801, 2992771025],
      "tags": {
        "highway": "footway",
        "lit": "yes"
      }
    },
    {
      "type": "way",
      "id": 562225181,
      "nodes": [5420167377, 9687919605, 5420167376, 5420167375],
      "tags": {
        "highway": "service",
        "service": "parking_aisle"
      }
    },
    {
      "type": "way",
      "id": 562317749,
      "nodes": [
        11842973170, 11842973169, 11842973171, 11842918968, 1364435797,
        2992089337, 5421102667
      ],
      "tags": {
        "highway": "service",
        "service": "parking_aisle"
      }
    },
    {
      "type": "way",
      "id": 565994523,
      "nodes": [5449459339, 2250582276],
      "tags": {
        "highway": "service",
        "service": "driveway"
      }
    },
    {
      "type": "way",
      "id": 565999688,
      "nodes": [5449515564, 5449515565, 10914524512],
      "tags": {
        "highway": "footway"
      }
    },
    {
      "type": "way",
      "id": 565999689,
      "nodes": [5449515566, 9646661544, 5449515568, 5449515567],
      "tags": {
        "highway": "service",
        "service": "parking_aisle"
      }
    },
    {
      "type": "way",
      "id": 565999691,
      "nodes": [
        5449515577, 5449515576, 5449515575, 8693262971, 11842973173,
        11842973174, 311651775
      ],
      "tags": {
        "access": "private",
        "bicycle": "private",
        "covered": "no",
        "foot": "private",
        "highway": "service",
        "horse": "private",
        "motor_vehicle": "private",
        "service": "driveway"
      }
    },
    {
      "type": "way",
      "id": 565999699,
      "nodes": [5449515605, 5449515604, 10914524505, 5449515603],
      "tags": {
        "highway": "service",
        "service": "driveway"
      }
    },
    {
      "type": "way",
      "id": 565999700,
      "nodes": [5449515609, 5449515608, 5449515607, 10914515303, 5449515606],
      "tags": {
        "highway": "service",
        "service": "driveway"
      }
    },
    {
      "type": "way",
      "id": 565999701,
      "nodes": [
        5449515614, 5449515613, 5449515612, 5449515611, 10914515304, 5449515610
      ],
      "tags": {
        "highway": "service",
        "service": "driveway"
      }
    },
    {
      "type": "way",
      "id": 565999706,
      "nodes": [5449516642, 5449516641, 5449516640, 5449516639, 5449516638],
      "tags": {
        "highway": "service",
        "service": "parking_aisle"
      }
    },
    {
      "type": "way",
      "id": 680656841,
      "nodes": [6373479212, 1477057614],
      "tags": {
        "bench": "yes",
        "bin": "yes",
        "bus": "yes",
        "departures_board": "realtime",
        "highway": "platform",
        "name": "Lustgarten",
        "public_transport": "platform",
        "shelter": "yes",
        "tactile_paving": "yes",
        "wheelchair": "yes"
      }
    },
    {
      "type": "way",
      "id": 685537055,
      "nodes": [5449516637, 10914515302, 5449516636],
      "tags": {
        "highway": "service",
        "service": "parking_aisle"
      }
    },
    {
      "type": "way",
      "id": 685537056,
      "nodes": [5449516638, 5449516637],
      "tags": {
        "highway": "service",
        "maxheight": "default",
        "service": "parking_aisle",
        "tunnel": "building_passage"
      }
    },
    {
      "type": "way",
      "id": 688329506,
      "nodes": [6373479215, 2305620170],
      "tags": {
        "cycleway:both": "no",
        "highway": "primary",
        "lanes": "2",
        "lit": "yes",
        "maxspeed": "50",
        "name": "Clara-Zetkin-Straße",
        "priority_road": "designated",
        "ref": "B 246",
        "sidewalk:both": "separate",
        "smoothness": "good",
        "surface": "asphalt"
      }
    },
    {
      "type": "way",
      "id": 695615327,
      "nodes": [6532010668, 6532010667],
      "tags": {
        "highway": "service",
        "service": "parking_aisle"
      }
    },
    {
      "type": "way",
      "id": 702532858,
      "nodes": [3854023005, 3192304762, 3192304761, 311651985],
      "tags": {
        "hgv": "delivery",
        "highway": "tertiary",
        "lanes": "2",
        "lit": "yes",
        "maxspeed": "50",
        "maxweight": "7.5",
        "name": "Berliner Straße",
        "old_ref": "B 2",
        "postal_code": "14547",
        "priority": "forward",
        "surface": "asphalt"
      }
    },
    {
      "type": "way",
      "id": 740404718,
      "nodes": [2305620167, 6932058565],
      "tags": {
        "highway": "service"
      }
    },
    {
      "type": "way",
      "id": 740404721,
      "nodes": [6932058565, 6932058557],
      "tags": {
        "highway": "service",
        "service": "parking_aisle"
      }
    },
    {
      "type": "way",
      "id": 740404722,
      "nodes": [6932058557, 6932058564, 6932058566, 3187986462],
      "tags": {
        "highway": "footway",
        "layer": "-1"
      }
    },
    {
      "type": "way",
      "id": 762206028,
      "nodes": [
        7121877826, 7121877827, 7121877830, 7121877831, 7121877828, 7121877829
      ],
      "tags": {
        "access": "private",
        "highway": "service",
        "service": "driveway"
      }
    },
    {
      "type": "way",
      "id": 766906233,
      "nodes": [7162481391, 7162481395, 7162481392, 7162481393, 7162481394],
      "tags": {
        "access": "private",
        "highway": "service"
      }
    },
    {
      "type": "way",
      "id": 807558706,
      "nodes": [7551846610, 7551846609],
      "tags": {
        "highway": "service",
        "service": "driveway"
      }
    },
    {
      "type": "way",
      "id": 807558707,
      "nodes": [7551846612, 7551846611],
      "tags": {
        "highway": "service",
        "service": "driveway"
      }
    },
    {
      "type": "way",
      "id": 807558708,
      "nodes": [7551846614, 7551846613],
      "tags": {
        "highway": "service",
        "service": "driveway"
      }
    },
    {
      "type": "way",
      "id": 807558709,
      "nodes": [7551846616, 7551846615],
      "tags": {
        "highway": "service",
        "service": "driveway"
      }
    },
    {
      "type": "way",
      "id": 807558725,
      "nodes": [311765083, 7551846678, 11751256119, 7551846677],
      "tags": {
        "access": "no",
        "highway": "service",
        "service": "driveway"
      }
    },
    {
      "type": "way",
      "id": 886920736,
      "nodes": [
        8247188577, 8247188578, 8247188579, 8247188580, 8247188581, 8247188582
      ],
      "tags": {
        "highway": "service"
      }
    },
    {
      "type": "way",
      "id": 886972983,
      "nodes": [
        311766030, 8247688856, 8247688857, 8247688858, 8247688859, 8247688860,
        8247688861
      ],
      "tags": {
        "highway": "service"
      }
    },
    {
      "type": "way",
      "id": 902430871,
      "nodes": [8381893264, 8381893262, 8381893261, 7551846610],
      "tags": {
        "highway": "track"
      }
    },
    {
      "type": "way",
      "id": 902430872,
      "nodes": [
        8381893269, 8381893267, 8381893266, 8381893265, 8381893264, 3002865237
      ],
      "tags": {
        "highway": "path"
      }
    },
    {
      "type": "way",
      "id": 902430873,
      "nodes": [
        8381893275, 8381893274, 8381893273, 8381893272, 8381893271, 8381893270,
        8381893269, 8381893268
      ],
      "tags": {
        "highway": "path"
      }
    },
    {
      "type": "way",
      "id": 955887818,
      "nodes": [8846737711, 8846737710, 8846737709, 8846737708],
      "tags": {
        "highway": "footway",
        "lit": "yes",
        "smoothness": "good",
        "surface": "sett"
      }
    },
    {
      "type": "way",
      "id": 955887819,
      "nodes": [
        2181333261, 8846737716, 8846737715, 8846737714, 8846737713, 8846737712,
        311770653
      ],
      "tags": {
        "highway": "footway"
      }
    },
    {
      "type": "way",
      "id": 955887820,
      "nodes": [
        311770655, 8846739422, 8846737711, 8846739421, 8846739420, 8846739424
      ],
      "tags": {
        "highway": "footway",
        "lit": "no",
        "smoothness": "excellent",
        "surface": "asphalt"
      }
    },
    {
      "type": "way",
      "id": 955887821,
      "nodes": [7464201501, 8846739425, 8846739424, 2181333286],
      "tags": {
        "highway": "footway",
        "lit": "yes",
        "smoothness": "excellent",
        "surface": "asphalt"
      }
    },
    {
      "type": "way",
      "id": 979581514,
      "nodes": [8846739417, 9860279109, 8846737713],
      "tags": {
        "highway": "footway"
      }
    },
    {
      "type": "way",
      "id": 979581516,
      "nodes": [
        9062418047, 9062418048, 9860169285, 9860169280, 9062418049, 9062402709,
        9062418050
      ],
      "tags": {
        "highway": "footway"
      }
    },
    {
      "type": "way",
      "id": 979581522,
      "nodes": [
        311770659, 2181333308, 2181333310, 9062402705, 9062402704, 9411240777,
        9462588950, 9062402703
      ],
      "tags": {
        "highway": "footway",
        "lit": "yes",
        "smoothness": "excellent",
        "surface": "asphalt"
      }
    },
    {
      "type": "way",
      "id": 1020386327,
      "nodes": [9411240776, 9411240778, 9462561807, 9411240777],
      "tags": {
        "highway": "footway",
        "lit": "yes",
        "smoothness": "excellent",
        "surface": "asphalt"
      }
    },
    {
      "type": "way",
      "id": 1020386328,
      "nodes": [9411240779, 3202446463],
      "tags": {
        "bridge": "yes",
        "highway": "footway",
        "layer": "1",
        "lit": "yes",
        "surface": "wood"
      }
    },
    {
      "type": "way",
      "id": 1020386329,
      "nodes": [7464201501, 9411240779],
      "tags": {
        "foot": "yes",
        "highway": "footway",
        "lit": "yes",
        "surface": "wood"
      }
    },
    {
      "type": "way",
      "id": 1020386330,
      "nodes": [
        3202446463, 9411240780, 12304979626, 9860323308, 9411240781, 9411240782,
        9411240788, 12304979623, 12304979622, 12304979621
      ],
      "tags": {
        "foot": "yes",
        "highway": "footway",
        "surface": "concrete"
      }
    },
    {
      "type": "way",
      "id": 1026334283,
      "nodes": [
        9062402703, 13200838526, 13200838528, 13200838530, 13200838532,
        13200838534, 13012201298, 9462588943, 9462588931, 5825307441,
        9462588926, 311657074, 9462588917
      ],
      "tags": {
        "highway": "service",
        "lit": "yes",
        "smoothness": "excellent",
        "surface": "asphalt"
      }
    },
    {
      "type": "way",
      "id": 1026334284,
      "nodes": [
        311657071, 11777990135, 11777990130, 11777990134, 11777990133,
        11777990132, 11777990131, 9462561814, 311657071
      ],
      "tags": {
        "area": "yes",
        "bus": "yes",
        "highway": "platform",
        "name": "Ärztehaus",
        "public_transport": "platform",
        "surface": "concrete"
      }
    },
    {
      "type": "way",
      "id": 1026334285,
      "nodes": [9462588949, 9462561812, 9462588948, 9462588921],
      "tags": {
        "highway": "service",
        "horse": "no",
        "psv": "yes",
        "surface": "asphalt"
      }
    },
    {
      "type": "way",
      "id": 1026334286,
      "nodes": [9462561806, 9462588923, 9462588925],
      "tags": {
        "highway": "service",
        "horse": "no",
        "service": "parking_aisle"
      }
    },
    {
      "type": "way",
      "id": 1026334287,
      "nodes": [9462588921, 11751256117, 9462588919],
      "tags": {
        "highway": "service",
        "horse": "no",
        "surface": "asphalt"
      }
    },
    {
      "type": "way",
      "id": 1026334289,
      "nodes": [
        9462588918, 311657069, 311657068, 13200838535, 9462561805, 13200838536,
        9462561806, 9062402703, 9462588936
      ],
      "tags": {
        "highway": "service",
        "horse": "no",
        "smoothness": "bad",
        "surface": "compacted"
      }
    },
    {
      "type": "way",
      "id": 1026334290,
      "nodes": [
        9462588936, 13200838525, 13200838527, 13200838529, 13200838531,
        13200838533, 9462588937, 13012201298
      ],
      "tags": {
        "highway": "service",
        "smoothness": "bad",
        "surface": "compacted"
      }
    },
    {
      "type": "way",
      "id": 1026334291,
      "nodes": [
        9462588943, 13012211010, 9462588938, 9462588939, 13012201297,
        9462588940, 9462588941, 9462588942, 13012211011, 9462588931
      ],
      "tags": {
        "highway": "service",
        "oneway": "yes",
        "service": "parking_aisle",
        "surface": "asphalt"
      }
    },
    {
      "type": "way",
      "id": 1026334292,
      "nodes": [9462588944, 11751256121, 9462588945, 9462588946, 9462588947],
      "tags": {
        "access": "private",
        "highway": "service",
        "service": "driveway"
      }
    },
    {
      "type": "way",
      "id": 1030295083,
      "nodes": [3095147275, 11751256116, 9462588918],
      "tags": {
        "highway": "service",
        "horse": "no",
        "smoothness": "excellent",
        "surface": "asphalt"
      }
    },
    {
      "type": "way",
      "id": 1030295084,
      "nodes": [9462588925, 9462588917, 9462588921],
      "tags": {
        "highway": "service",
        "horse": "no",
        "smoothness": "excellent",
        "surface": "asphalt"
      }
    },
    {
      "type": "way",
      "id": 1030295085,
      "nodes": [
        311743441, 9462588944, 311765085, 7162481391, 3002084512, 600395387
      ],
      "tags": {
        "cycleway:left": "no",
        "cycleway:right": "separate",
        "highway": "primary",
        "lanes": "2",
        "maxspeed": "30",
        "name": "Trebbiner Straße",
        "priority_road": "designated",
        "ref": "B 246",
        "smoothness": "good",
        "source:maxspeed": "sign",
        "surface": "asphalt"
      }
    },
    {
      "type": "way",
      "id": 1030295086,
      "nodes": [3095147275, 3002864926, 7127846445, 9462588919],
      "tags": {
        "cycleway:left": "no",
        "cycleway:right": "separate",
        "highway": "primary",
        "lanes": "2",
        "maxspeed": "50",
        "maxspeed:type": "DE:urban",
        "name": "Trebbiner Straße",
        "priority_road": "designated",
        "ref": "B 246",
        "sidewalk:left": "separate",
        "smoothness": "good",
        "surface": "asphalt"
      }
    },
    {
      "type": "way",
      "id": 1054239325,
      "nodes": [
        9688250708, 9688250703, 9688250704, 9688250705, 9688250706, 9688250707
      ],
      "tags": {
        "footway": "sidewalk",
        "highway": "footway",
        "is_sidepath": "yes",
        "is_sidepath:of": "primary",
        "is_sidepath:of:name": "Trebbiner Straße",
        "lit": "yes",
        "surface": "sett"
      }
    },
    {
      "type": "way",
      "id": 1054239326,
      "nodes": [9688250708, 9688250699, 9688250709],
      "tags": {
        "crossing": "traffic_signals",
        "crossing:island": "no",
        "footway": "crossing",
        "highway": "footway",
        "lit": "yes"
      }
    },
    {
      "type": "way",
      "id": 1054239327,
      "nodes": [9688250710, 9688250700, 9688250711],
      "tags": {
        "crossing": "traffic_signals",
        "crossing:island": "no",
        "footway": "crossing",
        "highway": "footway",
        "lit": "yes",
        "smoothness": "good",
        "surface": "asphalt"
      }
    },
    {
      "type": "way",
      "id": 1054239328,
      "nodes": [10914524509, 9688250712, 9688250713, 9688250709],
      "tags": {
        "footway": "sidewalk",
        "highway": "footway",
        "lit": "yes"
      }
    },
    {
      "type": "way",
      "id": 1054239329,
      "nodes": [
        9688186866, 10719096929, 9688250714, 9688250715, 9688250716, 9688293217,
        10899759979, 9688250711
      ],
      "tags": {
        "footway": "sidewalk",
        "highway": "footway",
        "is_sidepath": "yes",
        "is_sidepath:of": "primary",
        "is_sidepath:of:name": "Clara-Zetkin-Straße",
        "lit": "yes",
        "smoothness": "intermediate",
        "surface": "sett"
      }
    },
    {
      "type": "way",
      "id": 1054256992,
      "nodes": [9688250694, 9688293218, 9688250710, 9688250701, 9688250702],
      "tags": {
        "footway": "sidewalk",
        "highway": "footway",
        "is_sidepath": "yes",
        "is_sidepath:of": "primary",
        "is_sidepath:of:name": "Clara-Zetkin-Straße",
        "lit": "yes"
      }
    },
    {
      "type": "way",
      "id": 1054256993,
      "nodes": [9688250702, 9688250697, 9688250708],
      "tags": {
        "crossing": "traffic_signals",
        "crossing:island": "no",
        "footway": "crossing",
        "highway": "footway",
        "lit": "yes"
      }
    },
    {
      "type": "way",
      "id": 1054256994,
      "nodes": [9688250711, 9688250698, 9688250712],
      "tags": {
        "crossing": "traffic_signals",
        "crossing:island": "no",
        "footway": "crossing",
        "highway": "footway",
        "lit": "yes"
      }
    },
    {
      "type": "way",
      "id": 1054421323,
      "nodes": [
        9688250708, 10899697418, 10899697417, 10899697416, 10899697415,
        10899697414, 9646661544, 9689867061, 9646661545, 9646661546, 9646661547,
        9646661548, 9646661549, 9646661550
      ],
      "tags": {
        "footway": "sidewalk",
        "highway": "footway",
        "is_sidepath": "yes",
        "is_sidepath:of": "tertiary",
        "is_sidepath:of:name": "Berliner Straße",
        "lit": "yes",
        "segregated": "no",
        "surface": "paving_stones"
      }
    },
    {
      "type": "way",
      "id": 1054421956,
      "nodes": [
        8247688861, 8247688862, 8247688863, 8247688864, 8247688865, 8247688866,
        9689828110, 8247688867, 8247688868, 2994203989
      ],
      "tags": {
        "highway": "path"
      }
    },
    {
      "type": "way",
      "id": 1058942745,
      "nodes": [9730200577, 9730200576],
      "tags": {
        "highway": "footway",
        "lit": "yes",
        "smoothness": "intermediate",
        "surface": "sett"
      }
    },
    {
      "type": "way",
      "id": 1058942746,
      "nodes": [9730200578, 9730200577],
      "tags": {
        "access": "private",
        "highway": "footway",
        "surface": "wood",
        "tunnel": "building_passage"
      }
    },
    {
      "type": "way",
      "id": 1065870154,
      "nodes": [9688250692, 10719096928, 10899759981, 9688250693, 9688250694],
      "tags": {
        "footway": "sidewalk",
        "highway": "footway",
        "is_sidepath": "yes",
        "is_sidepath:of": "primary",
        "is_sidepath:of:name": "Clara-Zetkin-Straße",
        "lit": "yes"
      }
    },
    {
      "type": "way",
      "id": 1075078497,
      "nodes": [
        9860169286, 9860169291, 9860169297, 9860169293, 9860169298, 9860169288,
        9860341587, 9860341586, 9860341588, 9860341589
      ],
      "tags": {
        "highway": "footway"
      }
    },
    {
      "type": "way",
      "id": 1075078499,
      "nodes": [9860169293, 9860169278, 9860169284, 9860169296],
      "tags": {
        "highway": "footway"
      }
    },
    {
      "type": "way",
      "id": 1075091989,
      "nodes": [311770653, 9860279102, 9860279107, 9860279105, 311770655],
      "tags": {
        "highway": "footway",
        "surface": "fine_gravel"
      }
    },
    {
      "type": "way",
      "id": 1075091990,
      "nodes": [
        9860279107, 9860279108, 9860279100, 9860279104, 9860279101, 9860279106,
        9860279105
      ],
      "tags": {
        "highway": "footway",
        "surface": "fine_gravel"
      }
    },
    {
      "type": "way",
      "id": 1075198152,
      "nodes": [311651882, 10914524509, 2305620167, 1657791491],
      "tags": {
        "highway": "living_street",
        "name": "Am Hahn",
        "postal_code": "14547"
      }
    },
    {
      "type": "way",
      "id": 1077732565,
      "nodes": [
        311743167, 9881416596, 9881416586, 9881416583, 9881416589, 9881416610,
        8247688861
      ],
      "tags": {
        "highway": "path"
      }
    },
    {
      "type": "way",
      "id": 1077732566,
      "nodes": [311743167, 9881416591, 9881416592],
      "tags": {
        "highway": "service",
        "surface": "paving_stones"
      }
    },
    {
      "type": "way",
      "id": 1077760503,
      "nodes": [311651687, 311650243, 2711681953],
      "tags": {
        "cycleway:both": "no",
        "highway": "tertiary",
        "lanes": "2",
        "maxspeed": "50",
        "maxspeed:conditional": "30 @ Mo-Fr 06:00-18:00",
        "name": "Berliner Straße",
        "old_ref": "B 2",
        "postal_code": "14547",
        "sidewalk:both": "separate",
        "surface": "asphalt"
      }
    },
    {
      "type": "way",
      "id": 1124912266,
      "nodes": [10287001269, 2250582288],
      "tags": {
        "highway": "platform",
        "name": "Virchowstraße",
        "public_transport": "platform",
        "shelter": "yes",
        "wheelchair": "yes"
      }
    },
    {
      "type": "way",
      "id": 1124912270,
      "nodes": [10287001279, 2250582394],
      "tags": {
        "highway": "platform",
        "name": "Virchowstraße",
        "public_transport": "platform",
        "wheelchair": "limited"
      }
    },
    {
      "type": "way",
      "id": 1173106853,
      "nodes": [10899759979, 10899759980, 10899759981],
      "tags": {
        "highway": "footway",
        "lit": "yes",
        "smoothness": "intermediate",
        "surface": "sett"
      }
    },
    {
      "type": "way",
      "id": 1174596552,
      "nodes": [
        10719099482, 10914515299, 10914515300, 10914515301, 10914515302,
        10914515303, 10914515304, 10914524505, 10914524506, 10914524507,
        10914524508, 9688250702
      ],
      "tags": {
        "footway": "sidewalk",
        "highway": "footway",
        "is_sidepath": "yes",
        "is_sidepath:of": "tertiary",
        "is_sidepath:of:name": "Berliner Straße",
        "lit": "yes",
        "segregated": "no",
        "surface": "paving_stones"
      }
    },
    {
      "type": "way",
      "id": 1174596553,
      "nodes": [9688250711, 10914524510, 10914524511, 10914524512],
      "tags": {
        "footway": "sidewalk",
        "highway": "footway",
        "lit": "yes"
      }
    },
    {
      "type": "way",
      "id": 1182668894,
      "nodes": [
        9688250707, 10982293718, 10982293719, 10982293720, 10982293721,
        10982293722
      ],
      "tags": {
        "footway": "sidewalk",
        "highway": "footway",
        "is_sidepath": "yes",
        "is_sidepath:of": "primary",
        "is_sidepath:of:name": "Trebbiner Straße"
      }
    },
    {
      "type": "way",
      "id": 1185215826,
      "nodes": [6377255543, 311652331],
      "tags": {
        "highway": "footway"
      }
    },
    {
      "type": "way",
      "id": 1231302947,
      "nodes": [9688250699, 2250582342, 2711681940],
      "tags": {
        "cycleway:both": "no",
        "highway": "primary",
        "lanes": "2",
        "lit": "yes",
        "maxspeed": "50",
        "maxspeed:type": "DE:urban",
        "name": "Trebbiner Straße",
        "priority_road": "designated",
        "ref": "B 246",
        "sidewalk:left": "separate",
        "smoothness": "good",
        "surface": "asphalt"
      }
    },
    {
      "type": "way",
      "id": 1231303432,
      "nodes": [9462588919, 9462561808, 311765083, 311743441],
      "tags": {
        "cycleway:left": "no",
        "cycleway:right": "separate",
        "highway": "primary",
        "lanes": "2",
        "maxspeed": "30",
        "name": "Trebbiner Straße",
        "priority_road": "designated",
        "ref": "B 246",
        "sidewalk:left": "separate",
        "smoothness": "good",
        "source:maxspeed": "sign",
        "surface": "asphalt"
      }
    },
    {
      "type": "way",
      "id": 1264933199,
      "nodes": [
        11751256116, 11777990129, 11777990128, 11751256117, 11751256118,
        11751256119, 11751256120, 11751256121, 11751256122, 11751256123,
        496110253
      ],
      "tags": {
        "bicycle": "designated",
        "foot": "designated",
        "highway": "path",
        "oneway": "no",
        "segregated": "no",
        "traffic_sign": "DE:240,1000-31"
      }
    },
    {
      "type": "way",
      "id": 1275368457,
      "nodes": [9462588918, 9462588949],
      "tags": {
        "highway": "service",
        "horse": "no",
        "psv": "yes",
        "surface": "asphalt"
      }
    },
    {
      "type": "way",
      "id": 1275474216,
      "nodes": [11842918968, 11842973172],
      "tags": {
        "highway": "service",
        "service": "parking_aisle"
      }
    },
    {
      "type": "way",
      "id": 1275474221,
      "nodes": [
        11842973203, 11842973208, 11842973231, 11842973215, 11842973217,
        11842973204, 11842973213, 11842973205, 11842973206, 11842973218,
        11842973216, 11842973207, 11842973208
      ],
      "tags": {
        "highway": "service",
        "service": "parking_aisle"
      }
    },
    {
      "type": "way",
      "id": 1275474222,
      "nodes": [
        11842973204, 11842973209, 11842973210, 11842973211, 11842973212,
        11842973213
      ],
      "tags": {
        "highway": "service",
        "service": "parking_aisle"
      }
    },
    {
      "type": "way",
      "id": 1275474223,
      "nodes": [11842973207, 11842973214],
      "tags": {
        "highway": "service",
        "service": "parking_aisle"
      }
    },
    {
      "type": "way",
      "id": 1275474224,
      "nodes": [11842973215, 11842973216],
      "tags": {
        "highway": "service",
        "service": "parking_aisle"
      }
    },
    {
      "type": "way",
      "id": 1275474225,
      "nodes": [11842973217, 11842973218],
      "tags": {
        "highway": "service",
        "service": "parking_aisle"
      }
    },
    {
      "type": "way",
      "id": 1275474227,
      "nodes": [11842973230, 11842973231],
      "tags": {
        "highway": "service",
        "service": "driveway"
      }
    },
    {
      "type": "way",
      "id": 1311003231,
      "nodes": [11842973206, 12135382799, 12135382800, 12135414301],
      "tags": {
        "highway": "path"
      }
    },
    {
      "type": "way",
      "id": 1355183093,
      "nodes": [9462588936, 12541972145],
      "tags": {
        "highway": "path",
        "surface": "grass",
        "width": "0.50"
      }
    },
    {
      "type": "way",
      "id": 1355183094,
      "nodes": [2181333312, 12541969404],
      "tags": {
        "highway": "path",
        "smoothness": "bad",
        "surface": "wood",
        "width": "1.50"
      }
    },
    {
      "type": "way",
      "id": 1389590321,
      "nodes": [12862836456, 12862836455],
      "tags": {
        "highway": "platform",
        "name": "Ärztehaus",
        "public_transport": "platform",
        "shelter": "yes",
        "wheelchair": "yes"
      }
    },
    {
      "type": "way",
      "id": 1435146667,
      "nodes": [10914524512, 2711681948],
      "tags": {
        "highway": "footway"
      }
    },
    {
      "type": "way",
      "id": 1435863698,
      "nodes": [13197494249, 13197494247],
      "tags": {
        "highway": "footway"
      }
    },
    {
      "type": "way",
      "id": 1435863699,
      "nodes": [13197494240, 9860237353, 9730200578],
      "tags": {
        "highway": "footway",
        "lit": "yes",
        "smoothness": "bad",
        "surface": "sett"
      }
    },
    {
      "type": "way",
      "id": 1435884415,
      "nodes": [13197639143, 13197639144],
      "tags": {
        "highway": "track",
        "motor_vehicle": "agricultural",
        "smoothness": "good",
        "surface": "asphalt",
        "tracktype": "grade1",
        "width": "2.5"
      }
    },
    {
      "type": "way",
      "id": 1435884416,
      "nodes": [13197639145, 13197639141, 13197639142, 13197639140],
      "tags": {
        "highway": "track",
        "motor_vehicle": "agricultural",
        "smoothness": "very_bad",
        "surface": "grass",
        "tracktype": "grade4",
        "width": "2.5"
      }
    },
    {
      "type": "way",
      "id": 1435890843,
      "nodes": [3202445264, 13197673577],
      "tags": {
        "handrail": "no",
        "highway": "steps",
        "incline": "up",
        "ramp": "no",
        "surface": "concrete",
        "tactile_paving": "no"
      }
    },
    {
      "type": "way",
      "id": 1435890844,
      "nodes": [13197673577, 13197673578, 13197673576, 13197673579],
      "tags": {
        "bridge": "yes",
        "highway": "path",
        "layer": "1",
        "smoothness": "intermediate",
        "surface": "concrete",
        "width": "0.5"
      }
    },
    {
      "type": "way",
      "id": 1435890846,
      "nodes": [2181333312, 13197673579],
      "tags": {
        "handrail": "no",
        "highway": "steps",
        "incline": "up",
        "ramp": "no",
        "surface": "concrete",
        "tactile_paving": "no"
      }
    },
    {
      "type": "way",
      "id": 1435897326,
      "nodes": [
        3202445264, 312406123, 312406125, 312406128, 312406130, 312406132,
        312406134, 312406135, 4116671172
      ],
      "tags": {
        "bicycle": "yes",
        "foot": "yes",
        "highway": "cycleway",
        "is_sidepath": "no",
        "name": "Radweg von Schönefeld zur Nieplitz",
        "note": "Routen 4 und D",
        "ref": "A9039"
      }
    },
    {
      "type": "way",
      "id": 1436197692,
      "nodes": [13200838526, 13200838525],
      "tags": {
        "highway": "service",
        "service": "parking_aisle",
        "smoothness": "bad",
        "surface": "compacted"
      }
    },
    {
      "type": "way",
      "id": 1436197693,
      "nodes": [13200838528, 13200838527],
      "tags": {
        "highway": "service",
        "service": "parking_aisle",
        "smoothness": "bad",
        "surface": "compacted"
      }
    },
    {
      "type": "way",
      "id": 1436197694,
      "nodes": [13200838530, 13200838529],
      "tags": {
        "highway": "service",
        "service": "parking_aisle",
        "smoothness": "bad",
        "surface": "compacted"
      }
    },
    {
      "type": "way",
      "id": 1436197695,
      "nodes": [13200838532, 13200838531],
      "tags": {
        "highway": "service",
        "service": "parking_aisle",
        "smoothness": "bad",
        "surface": "compacted"
      }
    },
    {
      "type": "way",
      "id": 1436197696,
      "nodes": [13200838534, 13200838533],
      "tags": {
        "highway": "service",
        "service": "parking_aisle",
        "smoothness": "bad",
        "surface": "compacted"
      }
    },
    {
      "type": "node",
      "id": 31206482,
      "lat": 52.2233926,
      "lon": 12.9754192
    },
    {
      "type": "node",
      "id": 2634296997,
      "lat": 52.2230098,
      "lon": 12.9731086
    },
    {
      "type": "node",
      "id": 2634297027,
      "lat": 52.2235325,
      "lon": 12.9761145
    },
    {
      "type": "node",
      "id": 311650600,
      "lat": 52.2320256,
      "lon": 12.97483
    },
    {
      "type": "node",
      "id": 311652451,
      "lat": 52.2336179,
      "lon": 12.975144
    },
    {
      "type": "node",
      "id": 311653590,
      "lat": 52.2351415,
      "lon": 12.9761094
    },
    {
      "type": "node",
      "id": 311653593,
      "lat": 52.2352029,
      "lon": 12.9756489
    },
    {
      "type": "node",
      "id": 311653595,
      "lat": 52.235237,
      "lon": 12.9752962
    },
    {
      "type": "node",
      "id": 311653597,
      "lat": 52.2352573,
      "lon": 12.9748997
    },
    {
      "type": "node",
      "id": 1757595043,
      "lat": 52.231342,
      "lon": 12.9745208
    },
    {
      "type": "node",
      "id": 9062418055,
      "lat": 52.2313784,
      "lon": 12.975803
    },
    {
      "type": "node",
      "id": 10236253744,
      "lat": 52.2352533,
      "lon": 12.9749787
    },
    {
      "type": "node",
      "id": 31206477,
      "lat": 52.2269097,
      "lon": 12.9821416
    },
    {
      "type": "node",
      "id": 31206479,
      "lat": 52.2252532,
      "lon": 12.9802888
    },
    {
      "type": "node",
      "id": 31206480,
      "lat": 52.2245924,
      "lon": 12.9791321
    },
    {
      "type": "node",
      "id": 31206481,
      "lat": 52.2241339,
      "lon": 12.9780798
    },
    {
      "type": "node",
      "id": 311650837,
      "lat": 52.2237028,
      "lon": 12.9767755
    },
    {
      "type": "node",
      "id": 311879244,
      "lat": 52.2259749,
      "lon": 12.9812452
    },
    {
      "type": "node",
      "id": 311879497,
      "lat": 52.2286147,
      "lon": 12.9809871
    },
    {
      "type": "node",
      "id": 2634297037,
      "lat": 52.2239108,
      "lon": 12.9774523
    },
    {
      "type": "node",
      "id": 2634297046,
      "lat": 52.2243599,
      "lon": 12.9786272
    },
    {
      "type": "node",
      "id": 2634297053,
      "lat": 52.224898,
      "lon": 12.9797048
    },
    {
      "type": "node",
      "id": 2634297061,
      "lat": 52.2255921,
      "lon": 12.9807784
    },
    {
      "type": "node",
      "id": 2634297067,
      "lat": 52.2264376,
      "lon": 12.9817333
    },
    {
      "type": "node",
      "id": 2634297070,
      "lat": 52.2273437,
      "lon": 12.9824458
    },
    {
      "type": "node",
      "id": 3202489965,
      "lat": 52.2287966,
      "lon": 12.9810844
    },
    {
      "type": "node",
      "id": 11666239658,
      "lat": 52.2245238,
      "lon": 12.9789831
    },
    {
      "type": "node",
      "id": 12304979621,
      "lat": 52.2287702,
      "lon": 12.9797327
    },
    {
      "type": "node",
      "id": 311650890,
      "lat": 52.2277297,
      "lon": 12.9826871
    },
    {
      "type": "node",
      "id": 312406135,
      "lat": 52.2287541,
      "lon": 12.9833525
    },
    {
      "type": "node",
      "id": 4116671172,
      "lat": 52.2283467,
      "lon": 12.9831729
    },
    {
      "type": "node",
      "id": 11666239654,
      "lat": 52.2287759,
      "lon": 12.9831556
    },
    {
      "type": "node",
      "id": 60373094,
      "lat": 52.2353121,
      "lon": 12.9782897
    },
    {
      "type": "node",
      "id": 262266033,
      "lat": 52.2353601,
      "lon": 12.9800268
    },
    {
      "type": "node",
      "id": 262266034,
      "lat": 52.2353519,
      "lon": 12.9780367
    },
    {
      "type": "node",
      "id": 262266035,
      "lat": 52.23542,
      "lon": 12.9791426
    },
    {
      "type": "node",
      "id": 268202420,
      "lat": 52.2353268,
      "lon": 12.9784646
    },
    {
      "type": "node",
      "id": 274915501,
      "lat": 52.2354345,
      "lon": 12.978478
    },
    {
      "type": "node",
      "id": 311649588,
      "lat": 52.2353397,
      "lon": 12.9785886
    },
    {
      "type": "node",
      "id": 311650588,
      "lat": 52.2323481,
      "lon": 12.9777632
    },
    {
      "type": "node",
      "id": 311650591,
      "lat": 52.2326918,
      "lon": 12.9777891
    },
    {
      "type": "node",
      "id": 311650599,
      "lat": 52.2351481,
      "lon": 12.9784322
    },
    {
      "type": "node",
      "id": 311650602,
      "lat": 52.2321872,
      "lon": 12.9761703
    },
    {
      "type": "node",
      "id": 311651777,
      "lat": 52.2354549,
      "lon": 12.9800505
    },
    {
      "type": "node",
      "id": 311651882,
      "lat": 52.2350295,
      "lon": 12.9783815
    },
    {
      "type": "node",
      "id": 311651970,
      "lat": 52.2331743,
      "lon": 12.9797943
    },
    {
      "type": "node",
      "id": 311651976,
      "lat": 52.2338693,
      "lon": 12.9792685
    },
    {
      "type": "node",
      "id": 311651980,
      "lat": 52.2341255,
      "lon": 12.9790252
    },
    {
      "type": "node",
      "id": 311651984,
      "lat": 52.2343271,
      "lon": 12.9785137
    },
    {
      "type": "node",
      "id": 311651985,
      "lat": 52.2343418,
      "lon": 12.97815
    },
    {
      "type": "node",
      "id": 311652043,
      "lat": 52.2321013,
      "lon": 12.9797819
    },
    {
      "type": "node",
      "id": 311652045,
      "lat": 52.2319199,
      "lon": 12.9795393
    },
    {
      "type": "node",
      "id": 311652075,
      "lat": 52.23437,
      "lon": 12.9772935
    },
    {
      "type": "node",
      "id": 311652147,
      "lat": 52.2325403,
      "lon": 12.9798256
    },
    {
      "type": "node",
      "id": 311652157,
      "lat": 52.2329408,
      "lon": 12.9798668
    },
    {
      "type": "node",
      "id": 311652198,
      "lat": 52.2327019,
      "lon": 12.9798118
    },
    {
      "type": "node",
      "id": 311652331,
      "lat": 52.2331181,
      "lon": 12.9778273
    },
    {
      "type": "node",
      "id": 311652333,
      "lat": 52.2328195,
      "lon": 12.9798028
    },
    {
      "type": "node",
      "id": 311652416,
      "lat": 52.23226,
      "lon": 12.9767669
    },
    {
      "type": "node",
      "id": 311652420,
      "lat": 52.2332877,
      "lon": 12.976861
    },
    {
      "type": "node",
      "id": 311652731,
      "lat": 52.2318028,
      "lon": 12.9768377
    },
    {
      "type": "node",
      "id": 311652950,
      "lat": 52.2301463,
      "lon": 12.9777803
    },
    {
      "type": "node",
      "id": 311652957,
      "lat": 52.2317986,
      "lon": 12.9775539
    },
    {
      "type": "node",
      "id": 311653581,
      "lat": 52.2350432,
      "lon": 12.9774054
    },
    {
      "type": "node",
      "id": 311653588,
      "lat": 52.2350847,
      "lon": 12.9765661
    },
    {
      "type": "node",
      "id": 311739065,
      "lat": 52.2350596,
      "lon": 12.9768446
    },
    {
      "type": "node",
      "id": 311770620,
      "lat": 52.2323418,
      "lon": 12.9825218
    },
    {
      "type": "node",
      "id": 311770621,
      "lat": 52.2323342,
      "lon": 12.9811845
    },
    {
      "type": "node",
      "id": 311770622,
      "lat": 52.2323444,
      "lon": 12.9811155
    },
    {
      "type": "node",
      "id": 311770623,
      "lat": 52.2323668,
      "lon": 12.9810638
    },
    {
      "type": "node",
      "id": 311770650,
      "lat": 52.2301093,
      "lon": 12.9777842
    },
    {
      "type": "node",
      "id": 311770651,
      "lat": 52.2305048,
      "lon": 12.9784467
    },
    {
      "type": "node",
      "id": 311770652,
      "lat": 52.230616,
      "lon": 12.9786605
    },
    {
      "type": "node",
      "id": 311770653,
      "lat": 52.2307396,
      "lon": 12.9789398
    },
    {
      "type": "node",
      "id": 311770655,
      "lat": 52.2308229,
      "lon": 12.9794036
    },
    {
      "type": "node",
      "id": 311770657,
      "lat": 52.231097,
      "lon": 12.981
    },
    {
      "type": "node",
      "id": 311770658,
      "lat": 52.2311892,
      "lon": 12.9815493
    },
    {
      "type": "node",
      "id": 311770659,
      "lat": 52.2312048,
      "lon": 12.981659
    },
    {
      "type": "node",
      "id": 311770660,
      "lat": 52.2312383,
      "lon": 12.9817367
    },
    {
      "type": "node",
      "id": 311770661,
      "lat": 52.2313049,
      "lon": 12.9818019
    },
    {
      "type": "node",
      "id": 311770662,
      "lat": 52.231368,
      "lon": 12.9818277
    },
    {
      "type": "node",
      "id": 311770664,
      "lat": 52.2314364,
      "lon": 12.9818277
    },
    {
      "type": "node",
      "id": 311770666,
      "lat": 52.2317099,
      "lon": 12.9816855
    },
    {
      "type": "node",
      "id": 311770668,
      "lat": 52.2323241,
      "lon": 12.9815736
    },
    {
      "type": "node",
      "id": 312406116,
      "lat": 52.2310209,
      "lon": 12.9818484
    },
    {
      "type": "node",
      "id": 1440441334,
      "lat": 52.2352989,
      "lon": 12.9822097
    },
    {
      "type": "node",
      "id": 1477057614,
      "lat": 52.2354511,
      "lon": 12.977509
    },
    {
      "type": "node",
      "id": 1657791478,
      "lat": 52.2327475,
      "lon": 12.9824282
    },
    {
      "type": "node",
      "id": 1657791479,
      "lat": 52.2327739,
      "lon": 12.9810699
    },
    {
      "type": "node",
      "id": 1657791480,
      "lat": 52.2332944,
      "lon": 12.9810184
    },
    {
      "type": "node",
      "id": 1657791481,
      "lat": 52.2338463,
      "lon": 12.9820483
    },
    {
      "type": "node",
      "id": 1657791482,
      "lat": 52.2338831,
      "lon": 12.980821
    },
    {
      "type": "node",
      "id": 1657791483,
      "lat": 52.2339567,
      "lon": 12.9819282
    },
    {
      "type": "node",
      "id": 1657791484,
      "lat": 52.2341459,
      "lon": 12.9812759
    },
    {
      "type": "node",
      "id": 1657791485,
      "lat": 52.2341847,
      "lon": 12.9806412
    },
    {
      "type": "node",
      "id": 1657791486,
      "lat": 52.234167,
      "lon": 12.9807952
    },
    {
      "type": "node",
      "id": 1657791487,
      "lat": 52.2343539,
      "lon": 12.9802892
    },
    {
      "type": "node",
      "id": 1657791490,
      "lat": 52.234626,
      "lon": 12.9801817
    },
    {
      "type": "node",
      "id": 1657791491,
      "lat": 52.2347909,
      "lon": 12.9795648
    },
    {
      "type": "node",
      "id": 1757595010,
      "lat": 52.2300131,
      "lon": 12.9778698
    },
    {
      "type": "node",
      "id": 1757595012,
      "lat": 52.2300593,
      "lon": 12.9778157
    },
    {
      "type": "node",
      "id": 1757595016,
      "lat": 52.2302892,
      "lon": 12.9778057
    },
    {
      "type": "node",
      "id": 1757595017,
      "lat": 52.2307573,
      "lon": 12.9777636
    },
    {
      "type": "node",
      "id": 1757595047,
      "lat": 52.2314151,
      "lon": 12.9766165
    },
    {
      "type": "node",
      "id": 1757595073,
      "lat": 52.2314302,
      "lon": 12.9770479
    },
    {
      "type": "node",
      "id": 1757595075,
      "lat": 52.2314465,
      "lon": 12.9776086
    },
    {
      "type": "node",
      "id": 1757595078,
      "lat": 52.2314844,
      "lon": 12.9776001
    },
    {
      "type": "node",
      "id": 1810983855,
      "lat": 52.2305974,
      "lon": 12.9812264
    },
    {
      "type": "node",
      "id": 2148311505,
      "lat": 52.2309674,
      "lon": 12.9817368
    },
    {
      "type": "node",
      "id": 2148311506,
      "lat": 52.2306133,
      "lon": 12.9816708
    },
    {
      "type": "node",
      "id": 2181333218,
      "lat": 52.2318393,
      "lon": 12.9792556
    },
    {
      "type": "node",
      "id": 2181333232,
      "lat": 52.2326101,
      "lon": 12.9798224
    },
    {
      "type": "node",
      "id": 2181333238,
      "lat": 52.232605,
      "lon": 12.9802179
    },
    {
      "type": "node",
      "id": 2181333239,
      "lat": 52.2325471,
      "lon": 12.9803125
    },
    {
      "type": "node",
      "id": 2181333240,
      "lat": 52.232532,
      "lon": 12.9804646
    },
    {
      "type": "node",
      "id": 2181333241,
      "lat": 52.2323003,
      "lon": 12.9804811
    },
    {
      "type": "node",
      "id": 2181333243,
      "lat": 52.2320837,
      "lon": 12.9804112
    },
    {
      "type": "node",
      "id": 2181333261,
      "lat": 52.231466,
      "lon": 12.9777121
    },
    {
      "type": "node",
      "id": 2181333283,
      "lat": 52.2314628,
      "lon": 12.9788343
    },
    {
      "type": "node",
      "id": 2181333286,
      "lat": 52.2314891,
      "lon": 12.9799271
    },
    {
      "type": "node",
      "id": 2181333289,
      "lat": 52.2315015,
      "lon": 12.9806596
    },
    {
      "type": "node",
      "id": 2181333295,
      "lat": 52.2314928,
      "lon": 12.9814124
    },
    {
      "type": "node",
      "id": 2181333301,
      "lat": 52.2316177,
      "lon": 12.9817066
    },
    {
      "type": "node",
      "id": 2181333308,
      "lat": 52.2312342,
      "lon": 12.9822654
    },
    {
      "type": "node",
      "id": 2181333406,
      "lat": 52.2331767,
      "lon": 12.9822396
    },
    {
      "type": "node",
      "id": 2250582342,
      "lat": 52.2353969,
      "lon": 12.9788897
    },
    {
      "type": "node",
      "id": 2305620162,
      "lat": 52.2327564,
      "lon": 12.977793
    },
    {
      "type": "node",
      "id": 2305620164,
      "lat": 52.2327803,
      "lon": 12.976739
    },
    {
      "type": "node",
      "id": 2305620165,
      "lat": 52.2342102,
      "lon": 12.9804915
    },
    {
      "type": "node",
      "id": 2305620166,
      "lat": 52.2342651,
      "lon": 12.9803818
    },
    {
      "type": "node",
      "id": 2305620167,
      "lat": 52.2348919,
      "lon": 12.9790924
    },
    {
      "type": "node",
      "id": 2305620168,
      "lat": 52.2350976,
      "lon": 12.9775084
    },
    {
      "type": "node",
      "id": 2305620169,
      "lat": 52.2351628,
      "lon": 12.9775576
    },
    {
      "type": "node",
      "id": 2305620170,
      "lat": 52.2354307,
      "lon": 12.9777457
    },
    {
      "type": "node",
      "id": 2711681940,
      "lat": 52.2354154,
      "lon": 12.9790332
    },
    {
      "type": "node",
      "id": 2711681944,
      "lat": 52.2353379,
      "lon": 12.9780974
    },
    {
      "type": "node",
      "id": 2711681948,
      "lat": 52.2350487,
      "lon": 12.9783897
    },
    {
      "type": "node",
      "id": 2992771019,
      "lat": 52.235412,
      "lon": 12.9794381
    },
    {
      "type": "node",
      "id": 3003230100,
      "lat": 52.2318182,
      "lon": 12.9783173
    },
    {
      "type": "node",
      "id": 3003230101,
      "lat": 52.2318673,
      "lon": 12.9794031
    },
    {
      "type": "node",
      "id": 3003230102,
      "lat": 52.2320004,
      "lon": 12.9796822
    },
    {
      "type": "node",
      "id": 3003230103,
      "lat": 52.2321874,
      "lon": 12.9797983
    },
    {
      "type": "node",
      "id": 3003230104,
      "lat": 52.2323101,
      "lon": 12.9798058
    },
    {
      "type": "node",
      "id": 3003230105,
      "lat": 52.2327013,
      "lon": 12.9791952
    },
    {
      "type": "node",
      "id": 3003230107,
      "lat": 52.2328727,
      "lon": 12.9798421
    },
    {
      "type": "node",
      "id": 3003230109,
      "lat": 52.2330595,
      "lon": 12.979838
    },
    {
      "type": "node",
      "id": 3003230111,
      "lat": 52.2334217,
      "lon": 12.9796297
    },
    {
      "type": "node",
      "id": 3003230114,
      "lat": 52.234001,
      "lon": 12.9791596
    },
    {
      "type": "node",
      "id": 3003230118,
      "lat": 52.2342483,
      "lon": 12.9788179
    },
    {
      "type": "node",
      "id": 3003230120,
      "lat": 52.2343412,
      "lon": 12.9783266
    },
    {
      "type": "node",
      "id": 3003230122,
      "lat": 52.2343819,
      "lon": 12.9775488
    },
    {
      "type": "node",
      "id": 3187963764,
      "lat": 52.2353219,
      "lon": 12.97819
    },
    {
      "type": "node",
      "id": 3187986462,
      "lat": 52.2352712,
      "lon": 12.9787687
    },
    {
      "type": "node",
      "id": 3192304761,
      "lat": 52.2347113,
      "lon": 12.9782467
    },
    {
      "type": "node",
      "id": 3192304762,
      "lat": 52.2348731,
      "lon": 12.9783032
    },
    {
      "type": "node",
      "id": 3201492576,
      "lat": 52.2324316,
      "lon": 12.978729
    },
    {
      "type": "node",
      "id": 3202445065,
      "lat": 52.2310055,
      "lon": 12.9826461
    },
    {
      "type": "node",
      "id": 3202445066,
      "lat": 52.2310055,
      "lon": 12.981781
    },
    {
      "type": "node",
      "id": 3202446462,
      "lat": 52.2302911,
      "lon": 12.9781449
    },
    {
      "type": "node",
      "id": 3202446463,
      "lat": 52.2307437,
      "lon": 12.9801591
    },
    {
      "type": "node",
      "id": 3202454461,
      "lat": 52.2323823,
      "lon": 12.9825485
    },
    {
      "type": "node",
      "id": 3202454462,
      "lat": 52.2298176,
      "lon": 12.9782256
    },
    {
      "type": "node",
      "id": 3202454463,
      "lat": 52.2301624,
      "lon": 12.9779374
    },
    {
      "type": "node",
      "id": 3202472064,
      "lat": 52.2307885,
      "lon": 12.9791496
    },
    {
      "type": "node",
      "id": 3202472261,
      "lat": 52.230126,
      "lon": 12.9778632
    },
    {
      "type": "node",
      "id": 3202472361,
      "lat": 52.2305265,
      "lon": 12.9777956
    },
    {
      "type": "node",
      "id": 3202490069,
      "lat": 52.2305379,
      "lon": 12.9801481
    },
    {
      "type": "node",
      "id": 3202490166,
      "lat": 52.2304668,
      "lon": 12.979572
    },
    {
      "type": "node",
      "id": 3202490168,
      "lat": 52.2305058,
      "lon": 12.9798188
    },
    {
      "type": "node",
      "id": 3202490169,
      "lat": 52.2305605,
      "lon": 12.9804509
    },
    {
      "type": "node",
      "id": 3202490170,
      "lat": 52.2305629,
      "lon": 12.9804831
    },
    {
      "type": "node",
      "id": 3202490171,
      "lat": 52.2305834,
      "lon": 12.9808557
    },
    {
      "type": "node",
      "id": 3202490268,
      "lat": 52.2302441,
      "lon": 12.9788766
    },
    {
      "type": "node",
      "id": 3202490368,
      "lat": 52.2291656,
      "lon": 12.981236
    },
    {
      "type": "node",
      "id": 3202490371,
      "lat": 52.2302204,
      "lon": 12.9812632
    },
    {
      "type": "node",
      "id": 3202490372,
      "lat": 52.2304097,
      "lon": 12.9793007
    },
    {
      "type": "node",
      "id": 3202490766,
      "lat": 52.2300769,
      "lon": 12.9786184
    },
    {
      "type": "node",
      "id": 3202490768,
      "lat": 52.2300851,
      "lon": 12.9812118
    },
    {
      "type": "node",
      "id": 3202490864,
      "lat": 52.2303352,
      "lon": 12.9790449
    },
    {
      "type": "node",
      "id": 3202672364,
      "lat": 52.2310133,
      "lon": 12.9818099
    },
    {
      "type": "node",
      "id": 3202677765,
      "lat": 52.2308321,
      "lon": 12.9817016
    },
    {
      "type": "node",
      "id": 3202679164,
      "lat": 52.2309179,
      "lon": 12.9817194
    },
    {
      "type": "node",
      "id": 3202679364,
      "lat": 52.2309893,
      "lon": 12.981749
    },
    {
      "type": "node",
      "id": 3210687856,
      "lat": 52.2354055,
      "lon": 12.9809322
    },
    {
      "type": "node",
      "id": 3251623761,
      "lat": 52.2348763,
      "lon": 12.9777798
    },
    {
      "type": "node",
      "id": 3251623861,
      "lat": 52.2349414,
      "lon": 12.9775864
    },
    {
      "type": "node",
      "id": 3251623961,
      "lat": 52.2350692,
      "lon": 12.9774546
    },
    {
      "type": "node",
      "id": 3251645663,
      "lat": 52.2343268,
      "lon": 12.976984
    },
    {
      "type": "node",
      "id": 3854023005,
      "lat": 52.234977,
      "lon": 12.9783532
    },
    {
      "type": "node",
      "id": 4549673210,
      "lat": 52.2342934,
      "lon": 12.9786877
    },
    {
      "type": "node",
      "id": 4549673211,
      "lat": 52.234194,
      "lon": 12.9789332
    },
    {
      "type": "node",
      "id": 5140213585,
      "lat": 52.234378,
      "lon": 12.9777852
    },
    {
      "type": "node",
      "id": 5420167375,
      "lat": 52.2350768,
      "lon": 12.977469
    },
    {
      "type": "node",
      "id": 5420167376,
      "lat": 52.2351443,
      "lon": 12.9768551
    },
    {
      "type": "node",
      "id": 5420167377,
      "lat": 52.2350892,
      "lon": 12.9765291
    },
    {
      "type": "node",
      "id": 5449515564,
      "lat": 52.235236,
      "lon": 12.977609
    },
    {
      "type": "node",
      "id": 5449515565,
      "lat": 52.2352133,
      "lon": 12.9777027
    },
    {
      "type": "node",
      "id": 6377255543,
      "lat": 52.2331377,
      "lon": 12.9777025
    },
    {
      "type": "node",
      "id": 6377255544,
      "lat": 52.2329888,
      "lon": 12.9778135
    },
    {
      "type": "node",
      "id": 6377255545,
      "lat": 52.2329374,
      "lon": 12.9778094
    },
    {
      "type": "node",
      "id": 6532010667,
      "lat": 52.2325502,
      "lon": 12.9772323
    },
    {
      "type": "node",
      "id": 6532010668,
      "lat": 52.2325512,
      "lon": 12.9777791
    },
    {
      "type": "node",
      "id": 6932058557,
      "lat": 52.2350833,
      "lon": 12.9791927
    },
    {
      "type": "node",
      "id": 6932058564,
      "lat": 52.2350995,
      "lon": 12.9791059
    },
    {
      "type": "node",
      "id": 6932058565,
      "lat": 52.2349791,
      "lon": 12.9791379
    },
    {
      "type": "node",
      "id": 6932058566,
      "lat": 52.2351326,
      "lon": 12.9789567
    },
    {
      "type": "node",
      "id": 6932067189,
      "lat": 52.2354216,
      "lon": 12.9792516
    },
    {
      "type": "node",
      "id": 7464201501,
      "lat": 52.230938,
      "lon": 12.9801015
    },
    {
      "type": "node",
      "id": 7846199436,
      "lat": 52.2347068,
      "lon": 12.9798796
    },
    {
      "type": "node",
      "id": 8843230095,
      "lat": 52.2314928,
      "lon": 12.9810314
    },
    {
      "type": "node",
      "id": 8846737708,
      "lat": 52.2309135,
      "lon": 12.9799445
    },
    {
      "type": "node",
      "id": 8846737709,
      "lat": 52.2309433,
      "lon": 12.9798668
    },
    {
      "type": "node",
      "id": 8846737710,
      "lat": 52.2309931,
      "lon": 12.9797941
    },
    {
      "type": "node",
      "id": 8846737711,
      "lat": 52.2310312,
      "lon": 12.9797473
    },
    {
      "type": "node",
      "id": 8846737712,
      "lat": 52.230842,
      "lon": 12.9788849
    },
    {
      "type": "node",
      "id": 8846737713,
      "lat": 52.2310293,
      "lon": 12.9787025
    },
    {
      "type": "node",
      "id": 8846737714,
      "lat": 52.2311771,
      "lon": 12.9785147
    },
    {
      "type": "node",
      "id": 8846737715,
      "lat": 52.231302,
      "lon": 12.9782653
    },
    {
      "type": "node",
      "id": 8846737716,
      "lat": 52.2313981,
      "lon": 12.9779971
    },
    {
      "type": "node",
      "id": 8846739417,
      "lat": 52.2314433,
      "lon": 12.9785791
    },
    {
      "type": "node",
      "id": 8846739418,
      "lat": 52.2314465,
      "lon": 12.978335
    },
    {
      "type": "node",
      "id": 8846739419,
      "lat": 52.2314794,
      "lon": 12.9780427
    },
    {
      "type": "node",
      "id": 8846739420,
      "lat": 52.2312346,
      "lon": 12.9799095
    },
    {
      "type": "node",
      "id": 8846739421,
      "lat": 52.2310999,
      "lon": 12.9798183
    },
    {
      "type": "node",
      "id": 8846739422,
      "lat": 52.230934,
      "lon": 12.9796064
    },
    {
      "type": "node",
      "id": 8846739424,
      "lat": 52.2313348,
      "lon": 12.9799551
    },
    {
      "type": "node",
      "id": 8846739425,
      "lat": 52.2310671,
      "lon": 12.9800543
    },
    {
      "type": "node",
      "id": 8846739426,
      "lat": 52.2303845,
      "lon": 12.9782759
    },
    {
      "type": "node",
      "id": 8846739428,
      "lat": 52.2303557,
      "lon": 12.9778029
    },
    {
      "type": "node",
      "id": 9062402708,
      "lat": 52.2304057,
      "lon": 12.9773835
    },
    {
      "type": "node",
      "id": 9062402709,
      "lat": 52.2305182,
      "lon": 12.9768882
    },
    {
      "type": "node",
      "id": 9062402710,
      "lat": 52.2301219,
      "lon": 12.9766341
    },
    {
      "type": "node",
      "id": 9062402711,
      "lat": 52.2295992,
      "lon": 12.9766179
    },
    {
      "type": "node",
      "id": 9062402712,
      "lat": 52.22935,
      "lon": 12.9768359
    },
    {
      "type": "node",
      "id": 9062402713,
      "lat": 52.2292272,
      "lon": 12.9770756
    },
    {
      "type": "node",
      "id": 9062418047,
      "lat": 52.231113,
      "lon": 12.9776726
    },
    {
      "type": "node",
      "id": 9062418048,
      "lat": 52.2311085,
      "lon": 12.9775055
    },
    {
      "type": "node",
      "id": 9062418049,
      "lat": 52.2307536,
      "lon": 12.9770625
    },
    {
      "type": "node",
      "id": 9062418050,
      "lat": 52.2305503,
      "lon": 12.9767381
    },
    {
      "type": "node",
      "id": 9411165834,
      "lat": 52.2317985,
      "lon": 12.9799966
    },
    {
      "type": "node",
      "id": 9411240775,
      "lat": 52.2316517,
      "lon": 12.9798977
    },
    {
      "type": "node",
      "id": 9411240776,
      "lat": 52.2314993,
      "lon": 12.9817308
    },
    {
      "type": "node",
      "id": 9411240778,
      "lat": 52.2315052,
      "lon": 12.9818091
    },
    {
      "type": "node",
      "id": 9411240779,
      "lat": 52.2309257,
      "lon": 12.9801071
    },
    {
      "type": "node",
      "id": 9411240780,
      "lat": 52.2305431,
      "lon": 12.9802181
    },
    {
      "type": "node",
      "id": 9411240781,
      "lat": 52.2303286,
      "lon": 12.9802874
    },
    {
      "type": "node",
      "id": 9411240782,
      "lat": 52.2300612,
      "lon": 12.9802307
    },
    {
      "type": "node",
      "id": 9411240786,
      "lat": 52.2302668,
      "lon": 12.9789185
    },
    {
      "type": "node",
      "id": 9411240788,
      "lat": 52.2293362,
      "lon": 12.9799642
    },
    {
      "type": "node",
      "id": 9687919605,
      "lat": 52.2352216,
      "lon": 12.9765742
    },
    {
      "type": "node",
      "id": 9688250693,
      "lat": 52.2354191,
      "lon": 12.9781692
    },
    {
      "type": "node",
      "id": 9688250694,
      "lat": 52.2353725,
      "lon": 12.9782718
    },
    {
      "type": "node",
      "id": 9688250697,
      "lat": 52.2353995,
      "lon": 12.9784736
    },
    {
      "type": "node",
      "id": 9688250698,
      "lat": 52.2351979,
      "lon": 12.9784412
    },
    {
      "type": "node",
      "id": 9688250699,
      "lat": 52.2353485,
      "lon": 12.9786351
    },
    {
      "type": "node",
      "id": 9688250700,
      "lat": 52.2353142,
      "lon": 12.9783151
    },
    {
      "type": "node",
      "id": 9688250701,
      "lat": 52.2353797,
      "lon": 12.9783882
    },
    {
      "type": "node",
      "id": 9688250702,
      "lat": 52.2353995,
      "lon": 12.9784175
    },
    {
      "type": "node",
      "id": 9688250703,
      "lat": 52.2354309,
      "lon": 12.9786657
    },
    {
      "type": "node",
      "id": 9688250704,
      "lat": 52.2354522,
      "lon": 12.9790778
    },
    {
      "type": "node",
      "id": 9688250705,
      "lat": 52.2354362,
      "lon": 12.9794418
    },
    {
      "type": "node",
      "id": 9688250706,
      "lat": 52.2354421,
      "lon": 12.9795462
    },
    {
      "type": "node",
      "id": 9688250707,
      "lat": 52.2354014,
      "lon": 12.9800371
    },
    {
      "type": "node",
      "id": 9688250708,
      "lat": 52.2354232,
      "lon": 12.9786189
    },
    {
      "type": "node",
      "id": 9688250709,
      "lat": 52.2352961,
      "lon": 12.9786442
    },
    {
      "type": "node",
      "id": 9688250710,
      "lat": 52.2353712,
      "lon": 12.9783331
    },
    {
      "type": "node",
      "id": 9688250711,
      "lat": 52.235216,
      "lon": 12.9782867
    },
    {
      "type": "node",
      "id": 9688250712,
      "lat": 52.2351846,
      "lon": 12.9785168
    },
    {
      "type": "node",
      "id": 9688250713,
      "lat": 52.2352637,
      "lon": 12.9785565
    },
    {
      "type": "node",
      "id": 9688250716,
      "lat": 52.2354086,
      "lon": 12.9775486
    },
    {
      "type": "node",
      "id": 9688293217,
      "lat": 52.2353703,
      "lon": 12.9777053
    },
    {
      "type": "node",
      "id": 9688293218,
      "lat": 52.2353678,
      "lon": 12.9783235
    },
    {
      "type": "node",
      "id": 9692924952,
      "lat": 52.2353794,
      "lon": 12.9797909
    },
    {
      "type": "node",
      "id": 9692924960,
      "lat": 52.2331582,
      "lon": 12.9778355
    },
    {
      "type": "node",
      "id": 9730200576,
      "lat": 52.2323302,
      "lon": 12.9775614
    },
    {
      "type": "node",
      "id": 9730200577,
      "lat": 52.2322592,
      "lon": 12.9775706
    },
    {
      "type": "node",
      "id": 9730200578,
      "lat": 52.2321246,
      "lon": 12.9775932
    },
    {
      "type": "node",
      "id": 9860169278,
      "lat": 52.2317642,
      "lon": 12.980172
    },
    {
      "type": "node",
      "id": 9860169280,
      "lat": 52.2309874,
      "lon": 12.977259
    },
    {
      "type": "node",
      "id": 9860169281,
      "lat": 52.2315503,
      "lon": 12.9798999
    },
    {
      "type": "node",
      "id": 9860169284,
      "lat": 52.2317686,
      "lon": 12.980078
    },
    {
      "type": "node",
      "id": 9860169285,
      "lat": 52.2310637,
      "lon": 12.9773504
    },
    {
      "type": "node",
      "id": 9860169286,
      "lat": 52.2315026,
      "lon": 12.9803087
    },
    {
      "type": "node",
      "id": 9860169288,
      "lat": 52.2318403,
      "lon": 12.9803481
    },
    {
      "type": "node",
      "id": 9860169291,
      "lat": 52.2316492,
      "lon": 12.9802948
    },
    {
      "type": "node",
      "id": 9860169293,
      "lat": 52.2317504,
      "lon": 12.9803044
    },
    {
      "type": "node",
      "id": 9860169296,
      "lat": 52.2317577,
      "lon": 12.9799691
    },
    {
      "type": "node",
      "id": 9860169297,
      "lat": 52.2317284,
      "lon": 12.980296
    },
    {
      "type": "node",
      "id": 9860169298,
      "lat": 52.2317976,
      "lon": 12.9803223
    },
    {
      "type": "node",
      "id": 9860237353,
      "lat": 52.2318286,
      "lon": 12.9776191
    },
    {
      "type": "node",
      "id": 9860279100,
      "lat": 52.2311317,
      "lon": 12.9792762
    },
    {
      "type": "node",
      "id": 9860279101,
      "lat": 52.2310987,
      "lon": 12.9793782
    },
    {
      "type": "node",
      "id": 9860279102,
      "lat": 52.2308116,
      "lon": 12.9790615
    },
    {
      "type": "node",
      "id": 9860279104,
      "lat": 52.2311307,
      "lon": 12.9793569
    },
    {
      "type": "node",
      "id": 9860279105,
      "lat": 52.2309204,
      "lon": 12.9793393
    },
    {
      "type": "node",
      "id": 9860279106,
      "lat": 52.230953,
      "lon": 12.9793618
    },
    {
      "type": "node",
      "id": 9860279107,
      "lat": 52.2309257,
      "lon": 12.9792987
    },
    {
      "type": "node",
      "id": 9860279108,
      "lat": 52.2309794,
      "lon": 12.9792649
    },
    {
      "type": "node",
      "id": 9860279109,
      "lat": 52.2312276,
      "lon": 12.9786038
    },
    {
      "type": "node",
      "id": 9860323308,
      "lat": 52.2304502,
      "lon": 12.9802481
    },
    {
      "type": "node",
      "id": 9860341586,
      "lat": 52.2319632,
      "lon": 12.9804987
    },
    {
      "type": "node",
      "id": 9860341587,
      "lat": 52.2318968,
      "lon": 12.9804342
    },
    {
      "type": "node",
      "id": 9860341588,
      "lat": 52.2320037,
      "lon": 12.9804541
    },
    {
      "type": "node",
      "id": 9860341589,
      "lat": 52.2320463,
      "lon": 12.9803568
    },
    {
      "type": "node",
      "id": 9983792243,
      "lat": 52.235222,
      "lon": 12.9818652
    },
    {
      "type": "node",
      "id": 10899697417,
      "lat": 52.2354751,
      "lon": 12.9785757
    },
    {
      "type": "node",
      "id": 10899697418,
      "lat": 52.2354369,
      "lon": 12.9786015
    },
    {
      "type": "node",
      "id": 10899759979,
      "lat": 52.2353468,
      "lon": 12.9777937
    },
    {
      "type": "node",
      "id": 10899759980,
      "lat": 52.2354062,
      "lon": 12.9778363
    },
    {
      "type": "node",
      "id": 10914524509,
      "lat": 52.2350186,
      "lon": 12.9784379
    },
    {
      "type": "node",
      "id": 10914524510,
      "lat": 52.2351621,
      "lon": 12.9783284
    },
    {
      "type": "node",
      "id": 10914524511,
      "lat": 52.2351156,
      "lon": 12.9783284
    },
    {
      "type": "node",
      "id": 10914524512,
      "lat": 52.2350647,
      "lon": 12.9783231
    },
    {
      "type": "node",
      "id": 10982293718,
      "lat": 52.2352354,
      "lon": 12.9822036
    },
    {
      "type": "node",
      "id": 11842973172,
      "lat": 52.235464,
      "lon": 12.9805101
    },
    {
      "type": "node",
      "id": 11842973203,
      "lat": 52.2353005,
      "lon": 12.9808202
    },
    {
      "type": "node",
      "id": 11842973204,
      "lat": 52.2346586,
      "lon": 12.9806928
    },
    {
      "type": "node",
      "id": 11842973205,
      "lat": 52.2346924,
      "lon": 12.9803428
    },
    {
      "type": "node",
      "id": 11842973206,
      "lat": 52.2347245,
      "lon": 12.9802042
    },
    {
      "type": "node",
      "id": 11842973207,
      "lat": 52.2352072,
      "lon": 12.980303
    },
    {
      "type": "node",
      "id": 11842973208,
      "lat": 52.2351684,
      "lon": 12.980794
    },
    {
      "type": "node",
      "id": 11842973209,
      "lat": 52.2343176,
      "lon": 12.9806247
    },
    {
      "type": "node",
      "id": 11842973210,
      "lat": 52.2343584,
      "lon": 12.9805085
    },
    {
      "type": "node",
      "id": 11842973211,
      "lat": 52.2344193,
      "lon": 12.9804458
    },
    {
      "type": "node",
      "id": 11842973212,
      "lat": 52.2344835,
      "lon": 12.9804275
    },
    {
      "type": "node",
      "id": 11842973213,
      "lat": 52.2346796,
      "lon": 12.9804752
    },
    {
      "type": "node",
      "id": 11842973214,
      "lat": 52.2352367,
      "lon": 12.9799303
    },
    {
      "type": "node",
      "id": 11842973215,
      "lat": 52.2350043,
      "lon": 12.9807614
    },
    {
      "type": "node",
      "id": 11842973216,
      "lat": 52.2350438,
      "lon": 12.9802696
    },
    {
      "type": "node",
      "id": 11842973217,
      "lat": 52.2348425,
      "lon": 12.9807293
    },
    {
      "type": "node",
      "id": 11842973218,
      "lat": 52.2348862,
      "lon": 12.9802373
    },
    {
      "type": "node",
      "id": 11842973230,
      "lat": 52.2349872,
      "lon": 12.981302
    },
    {
      "type": "node",
      "id": 11842973231,
      "lat": 52.2350294,
      "lon": 12.9807664
    },
    {
      "type": "node",
      "id": 12135382799,
      "lat": 52.2347449,
      "lon": 12.9798817
    },
    {
      "type": "node",
      "id": 12135382800,
      "lat": 52.2348082,
      "lon": 12.9796495
    },
    {
      "type": "node",
      "id": 12135414301,
      "lat": 52.2347748,
      "lon": 12.9796251
    },
    {
      "type": "node",
      "id": 12304979622,
      "lat": 52.2292133,
      "lon": 12.9798963
    },
    {
      "type": "node",
      "id": 12304979623,
      "lat": 52.2293064,
      "lon": 12.9799221
    },
    {
      "type": "node",
      "id": 12304979626,
      "lat": 52.2305091,
      "lon": 12.9802291
    },
    {
      "type": "node",
      "id": 13197494240,
      "lat": 52.2318003,
      "lon": 12.977621
    },
    {
      "type": "node",
      "id": 13197494247,
      "lat": 52.2318438,
      "lon": 12.9773846
    },
    {
      "type": "node",
      "id": 13197494249,
      "lat": 52.2318,
      "lon": 12.9773819
    },
    {
      "type": "node",
      "id": 13198084700,
      "lat": 52.2298678,
      "lon": 12.9765773
    },
    {
      "type": "node",
      "id": 13198132501,
      "lat": 52.2293033,
      "lon": 12.9771741
    },
    {
      "type": "node",
      "id": 13198132502,
      "lat": 52.2294549,
      "lon": 12.9772639
    },
    {
      "type": "node",
      "id": 13198132503,
      "lat": 52.2292794,
      "lon": 12.9769545
    },
    {
      "type": "node",
      "id": 31206471,
      "lat": 52.2341771,
      "lon": 12.9872986
    },
    {
      "type": "node",
      "id": 31206472,
      "lat": 52.2332068,
      "lon": 12.9866521
    },
    {
      "type": "node",
      "id": 31206474,
      "lat": 52.2308971,
      "lon": 12.9844517
    },
    {
      "type": "node",
      "id": 31206475,
      "lat": 52.2294678,
      "lon": 12.9834654
    },
    {
      "type": "node",
      "id": 60253241,
      "lat": 52.2337559,
      "lon": 12.9887588
    },
    {
      "type": "node",
      "id": 257402920,
      "lat": 52.231213,
      "lon": 12.9847167
    },
    {
      "type": "node",
      "id": 257402922,
      "lat": 52.2301865,
      "lon": 12.9839351
    },
    {
      "type": "node",
      "id": 257402923,
      "lat": 52.2339924,
      "lon": 12.9880539
    },
    {
      "type": "node",
      "id": 257402924,
      "lat": 52.2344486,
      "lon": 12.986619
    },
    {
      "type": "node",
      "id": 257402926,
      "lat": 52.2342737,
      "lon": 12.9873435
    },
    {
      "type": "node",
      "id": 257402927,
      "lat": 52.234358,
      "lon": 12.9870454
    },
    {
      "type": "node",
      "id": 257402928,
      "lat": 52.234982,
      "lon": 12.9876418
    },
    {
      "type": "node",
      "id": 257402947,
      "lat": 52.2344149,
      "lon": 12.9868123
    },
    {
      "type": "node",
      "id": 257402948,
      "lat": 52.2334663,
      "lon": 12.9868423
    },
    {
      "type": "node",
      "id": 257402949,
      "lat": 52.2340928,
      "lon": 12.9878208
    },
    {
      "type": "node",
      "id": 257402952,
      "lat": 52.2340294,
      "lon": 12.9874879
    },
    {
      "type": "node",
      "id": 257402953,
      "lat": 52.2340795,
      "lon": 12.9876375
    },
    {
      "type": "node",
      "id": 268202422,
      "lat": 52.2350958,
      "lon": 12.9834536
    },
    {
      "type": "node",
      "id": 268202558,
      "lat": 52.2343665,
      "lon": 12.9873819
    },
    {
      "type": "node",
      "id": 268202860,
      "lat": 52.2338307,
      "lon": 12.9871046
    },
    {
      "type": "node",
      "id": 268202862,
      "lat": 52.2328026,
      "lon": 12.9863363
    },
    {
      "type": "node",
      "id": 279165120,
      "lat": 52.2340238,
      "lon": 12.9872184
    },
    {
      "type": "node",
      "id": 311657068,
      "lat": 52.2331373,
      "lon": 12.9832889
    },
    {
      "type": "node",
      "id": 311657069,
      "lat": 52.2336881,
      "lon": 12.9833913
    },
    {
      "type": "node",
      "id": 311657071,
      "lat": 52.2345792,
      "lon": 12.9836183
    },
    {
      "type": "node",
      "id": 311657074,
      "lat": 52.2345005,
      "lon": 12.9845324
    },
    {
      "type": "node",
      "id": 311735889,
      "lat": 52.2352662,
      "lon": 12.9877386
    },
    {
      "type": "node",
      "id": 311743416,
      "lat": 52.2353591,
      "lon": 12.9851016
    },
    {
      "type": "node",
      "id": 311743441,
      "lat": 52.2348506,
      "lon": 12.9849664
    },
    {
      "type": "node",
      "id": 311765083,
      "lat": 52.2348813,
      "lon": 12.9847822
    },
    {
      "type": "node",
      "id": 311765085,
      "lat": 52.2347523,
      "lon": 12.9855568
    },
    {
      "type": "node",
      "id": 311864630,
      "lat": 52.2339062,
      "lon": 12.9886733
    },
    {
      "type": "node",
      "id": 311864837,
      "lat": 52.2340675,
      "lon": 12.9891503
    },
    {
      "type": "node",
      "id": 311864841,
      "lat": 52.2338093,
      "lon": 12.9886026
    },
    {
      "type": "node",
      "id": 311865419,
      "lat": 52.2336312,
      "lon": 12.9891559
    },
    {
      "type": "node",
      "id": 311866334,
      "lat": 52.235476,
      "lon": 12.987791
    },
    {
      "type": "node",
      "id": 312406117,
      "lat": 52.23099,
      "lon": 12.9834863
    },
    {
      "type": "node",
      "id": 312406123,
      "lat": 52.2309192,
      "lon": 12.9847078
    },
    {
      "type": "node",
      "id": 312406125,
      "lat": 52.230872,
      "lon": 12.984715
    },
    {
      "type": "node",
      "id": 312406128,
      "lat": 52.2305616,
      "lon": 12.9844539
    },
    {
      "type": "node",
      "id": 312406130,
      "lat": 52.2301782,
      "lon": 12.9841402
    },
    {
      "type": "node",
      "id": 312406132,
      "lat": 52.2298431,
      "lon": 12.9839106
    },
    {
      "type": "node",
      "id": 312406134,
      "lat": 52.2293742,
      "lon": 12.983653
    },
    {
      "type": "node",
      "id": 496110242,
      "lat": 52.2339366,
      "lon": 12.9879962
    },
    {
      "type": "node",
      "id": 496110244,
      "lat": 52.2340244,
      "lon": 12.9876258
    },
    {
      "type": "node",
      "id": 496110247,
      "lat": 52.2341045,
      "lon": 12.9872622
    },
    {
      "type": "node",
      "id": 496110250,
      "lat": 52.2342226,
      "lon": 12.9869894
    },
    {
      "type": "node",
      "id": 496110251,
      "lat": 52.2343669,
      "lon": 12.9866075
    },
    {
      "type": "node",
      "id": 496110253,
      "lat": 52.234589,
      "lon": 12.9860077
    },
    {
      "type": "node",
      "id": 600395387,
      "lat": 52.2346457,
      "lon": 12.9860136
    },
    {
      "type": "node",
      "id": 706010480,
      "lat": 52.2342123,
      "lon": 12.9873152
    },
    {
      "type": "node",
      "id": 1659393668,
      "lat": 52.23432,
      "lon": 12.986897
    },
    {
      "type": "node",
      "id": 1814541413,
      "lat": 52.2337683,
      "lon": 12.9885638
    },
    {
      "type": "node",
      "id": 2181333310,
      "lat": 52.2312196,
      "lon": 12.9833492
    },
    {
      "type": "node",
      "id": 2181333312,
      "lat": 52.2310999,
      "lon": 12.9847452
    },
    {
      "type": "node",
      "id": 2181333313,
      "lat": 52.2308619,
      "lon": 12.9872399
    },
    {
      "type": "node",
      "id": 2181333316,
      "lat": 52.230675,
      "lon": 12.9888945
    },
    {
      "type": "node",
      "id": 2799400616,
      "lat": 52.2343882,
      "lon": 12.9869325
    },
    {
      "type": "node",
      "id": 2799400617,
      "lat": 52.2343959,
      "lon": 12.9871261
    },
    {
      "type": "node",
      "id": 2799400618,
      "lat": 52.2344314,
      "lon": 12.9872805
    },
    {
      "type": "node",
      "id": 2799400619,
      "lat": 52.2344599,
      "lon": 12.9873476
    },
    {
      "type": "node",
      "id": 2799400620,
      "lat": 52.2345261,
      "lon": 12.9874501
    },
    {
      "type": "node",
      "id": 2909399130,
      "lat": 52.2340154,
      "lon": 12.9889569
    },
    {
      "type": "node",
      "id": 2991447112,
      "lat": 52.2340633,
      "lon": 12.9873834
    },
    {
      "type": "node",
      "id": 2991447115,
      "lat": 52.2341405,
      "lon": 12.9871251
    },
    {
      "type": "node",
      "id": 2991447116,
      "lat": 52.2343876,
      "lon": 12.9870583
    },
    {
      "type": "node",
      "id": 2991447117,
      "lat": 52.2344134,
      "lon": 12.987213
    },
    {
      "type": "node",
      "id": 2991862265,
      "lat": 52.2341853,
      "lon": 12.9870567
    },
    {
      "type": "node",
      "id": 3002084512,
      "lat": 52.2347037,
      "lon": 12.9857901
    },
    {
      "type": "node",
      "id": 3002084530,
      "lat": 52.2354759,
      "lon": 12.9851929
    },
    {
      "type": "node",
      "id": 3002847567,
      "lat": 52.2349959,
      "lon": 12.9849989
    },
    {
      "type": "node",
      "id": 3002847568,
      "lat": 52.2350238,
      "lon": 12.9848032
    },
    {
      "type": "node",
      "id": 3002847569,
      "lat": 52.2350402,
      "lon": 12.9847523
    },
    {
      "type": "node",
      "id": 3002847570,
      "lat": 52.2350632,
      "lon": 12.9847389
    },
    {
      "type": "node",
      "id": 3002864926,
      "lat": 52.2350021,
      "lon": 12.9840564
    },
    {
      "type": "node",
      "id": 3002864927,
      "lat": 52.2350819,
      "lon": 12.9840764
    },
    {
      "type": "node",
      "id": 3002864928,
      "lat": 52.2351472,
      "lon": 12.9840669
    },
    {
      "type": "node",
      "id": 3002864929,
      "lat": 52.2352254,
      "lon": 12.9839935
    },
    {
      "type": "node",
      "id": 3002864930,
      "lat": 52.2352675,
      "lon": 12.9839746
    },
    {
      "type": "node",
      "id": 3002864931,
      "lat": 52.2353341,
      "lon": 12.9839864
    },
    {
      "type": "node",
      "id": 3002864932,
      "lat": 52.2354095,
      "lon": 12.9840172
    },
    {
      "type": "node",
      "id": 3002865233,
      "lat": 52.2354733,
      "lon": 12.9840172
    },
    {
      "type": "node",
      "id": 3095147275,
      "lat": 52.2350575,
      "lon": 12.9837235
    },
    {
      "type": "node",
      "id": 3202445264,
      "lat": 52.2309553,
      "lon": 12.984635
    },
    {
      "type": "node",
      "id": 3202472264,
      "lat": 52.2309752,
      "lon": 12.9842009
    },
    {
      "type": "node",
      "id": 3202472665,
      "lat": 52.2309752,
      "lon": 12.9844038
    },
    {
      "type": "node",
      "id": 5446218646,
      "lat": 52.234193,
      "lon": 12.9875626
    },
    {
      "type": "node",
      "id": 5446218647,
      "lat": 52.2342565,
      "lon": 12.9870582
    },
    {
      "type": "node",
      "id": 5825307441,
      "lat": 52.2340664,
      "lon": 12.9844392
    },
    {
      "type": "node",
      "id": 7127846445,
      "lat": 52.2349282,
      "lon": 12.9845008
    },
    {
      "type": "node",
      "id": 7162481391,
      "lat": 52.2347139,
      "lon": 12.985741
    },
    {
      "type": "node",
      "id": 7162481392,
      "lat": 52.2349371,
      "lon": 12.9858488
    },
    {
      "type": "node",
      "id": 7162481393,
      "lat": 52.2349575,
      "lon": 12.985955
    },
    {
      "type": "node",
      "id": 7162481394,
      "lat": 52.2349379,
      "lon": 12.9860973
    },
    {
      "type": "node",
      "id": 7162481395,
      "lat": 52.2348823,
      "lon": 12.9858162
    },
    {
      "type": "node",
      "id": 7551846677,
      "lat": 52.2341932,
      "lon": 12.9846389
    },
    {
      "type": "node",
      "id": 7551846678,
      "lat": 52.2348011,
      "lon": 12.9847685
    },
    {
      "type": "node",
      "id": 9062402703,
      "lat": 52.2322335,
      "lon": 12.9840258
    },
    {
      "type": "node",
      "id": 9062402704,
      "lat": 52.2314952,
      "lon": 12.9838427
    },
    {
      "type": "node",
      "id": 9062402705,
      "lat": 52.2313126,
      "lon": 12.9836122
    },
    {
      "type": "node",
      "id": 9411167947,
      "lat": 52.2310996,
      "lon": 12.9849074
    },
    {
      "type": "node",
      "id": 9411167951,
      "lat": 52.2309596,
      "lon": 12.9845853
    },
    {
      "type": "node",
      "id": 9411240777,
      "lat": 52.2316437,
      "lon": 12.9838931
    },
    {
      "type": "node",
      "id": 9462561805,
      "lat": 52.2322274,
      "lon": 12.9832642
    },
    {
      "type": "node",
      "id": 9462561806,
      "lat": 52.232242,
      "lon": 12.9838835
    },
    {
      "type": "node",
      "id": 9462561807,
      "lat": 52.2316168,
      "lon": 12.9832
    },
    {
      "type": "node",
      "id": 9462561808,
      "lat": 52.234896,
      "lon": 12.9846857
    },
    {
      "type": "node",
      "id": 9462561812,
      "lat": 52.2346095,
      "lon": 12.98405
    },
    {
      "type": "node",
      "id": 9462561814,
      "lat": 52.2345154,
      "lon": 12.9843753
    },
    {
      "type": "node",
      "id": 9462588917,
      "lat": 52.234565,
      "lon": 12.9844921
    },
    {
      "type": "node",
      "id": 9462588918,
      "lat": 52.2346642,
      "lon": 12.9835914
    },
    {
      "type": "node",
      "id": 9462588919,
      "lat": 52.2349122,
      "lon": 12.9845959
    },
    {
      "type": "node",
      "id": 9462588921,
      "lat": 52.2345916,
      "lon": 12.9844983
    },
    {
      "type": "node",
      "id": 9462588923,
      "lat": 52.2343754,
      "lon": 12.9843857
    },
    {
      "type": "node",
      "id": 9462588925,
      "lat": 52.2344818,
      "lon": 12.9844128
    },
    {
      "type": "node",
      "id": 9462588926,
      "lat": 52.2342242,
      "lon": 12.9844714
    },
    {
      "type": "node",
      "id": 9462588931,
      "lat": 52.2337446,
      "lon": 12.9843627
    },
    {
      "type": "node",
      "id": 9462588936,
      "lat": 52.2321715,
      "lon": 12.9848958
    },
    {
      "type": "node",
      "id": 9462588937,
      "lat": 52.2332277,
      "lon": 12.9851376
    },
    {
      "type": "node",
      "id": 9462588938,
      "lat": 52.2334931,
      "lon": 12.9850289
    },
    {
      "type": "node",
      "id": 9462588939,
      "lat": 52.2335017,
      "lon": 12.9850985
    },
    {
      "type": "node",
      "id": 9462588940,
      "lat": 52.2335848,
      "lon": 12.9851849
    },
    {
      "type": "node",
      "id": 9462588941,
      "lat": 52.2336452,
      "lon": 12.9851725
    },
    {
      "type": "node",
      "id": 9462588942,
      "lat": 52.2336914,
      "lon": 12.9850987
    },
    {
      "type": "node",
      "id": 9462588943,
      "lat": 52.2335361,
      "lon": 12.9843155
    },
    {
      "type": "node",
      "id": 9462588944,
      "lat": 52.2347668,
      "lon": 12.9854695
    },
    {
      "type": "node",
      "id": 9462588945,
      "lat": 52.2340194,
      "lon": 12.9853006
    },
    {
      "type": "node",
      "id": 9462588946,
      "lat": 52.2340222,
      "lon": 12.9851034
    },
    {
      "type": "node",
      "id": 9462588947,
      "lat": 52.2340654,
      "lon": 12.9845211
    },
    {
      "type": "node",
      "id": 9462588948,
      "lat": 52.2345525,
      "lon": 12.9843441
    },
    {
      "type": "node",
      "id": 9462588949,
      "lat": 52.2345905,
      "lon": 12.9839702
    },
    {
      "type": "node",
      "id": 9462588950,
      "lat": 52.2320049,
      "lon": 12.9839801
    },
    {
      "type": "node",
      "id": 10982293719,
      "lat": 52.2351243,
      "lon": 12.9834758
    },
    {
      "type": "node",
      "id": 10982293720,
      "lat": 52.2351189,
      "lon": 12.9836095
    },
    {
      "type": "node",
      "id": 10982293721,
      "lat": 52.2350629,
      "lon": 12.984072
    },
    {
      "type": "node",
      "id": 10982293722,
      "lat": 52.2349208,
      "lon": 12.9849824
    },
    {
      "type": "node",
      "id": 11751256116,
      "lat": 52.2349796,
      "lon": 12.9836973
    },
    {
      "type": "node",
      "id": 11751256117,
      "lat": 52.2348239,
      "lon": 12.9845738
    },
    {
      "type": "node",
      "id": 11751256118,
      "lat": 52.2348094,
      "lon": 12.9846715
    },
    {
      "type": "node",
      "id": 11751256119,
      "lat": 52.2347955,
      "lon": 12.9847679
    },
    {
      "type": "node",
      "id": 11751256120,
      "lat": 52.2346966,
      "lon": 12.985385
    },
    {
      "type": "node",
      "id": 11751256121,
      "lat": 52.2346934,
      "lon": 12.9854531
    },
    {
      "type": "node",
      "id": 11751256122,
      "lat": 52.2346849,
      "lon": 12.9855828
    },
    {
      "type": "node",
      "id": 11751256123,
      "lat": 52.2346482,
      "lon": 12.9858005
    },
    {
      "type": "node",
      "id": 11777990128,
      "lat": 52.2349164,
      "lon": 12.9840139
    },
    {
      "type": "node",
      "id": 11777990129,
      "lat": 52.2349377,
      "lon": 12.9839281
    },
    {
      "type": "node",
      "id": 11777990130,
      "lat": 52.2346287,
      "lon": 12.9837078
    },
    {
      "type": "node",
      "id": 11777990131,
      "lat": 52.2345509,
      "lon": 12.9843822
    },
    {
      "type": "node",
      "id": 11777990132,
      "lat": 52.2345412,
      "lon": 12.9843423
    },
    {
      "type": "node",
      "id": 11777990133,
      "lat": 52.2346,
      "lon": 12.9840481
    },
    {
      "type": "node",
      "id": 11777990134,
      "lat": 52.2345778,
      "lon": 12.9839611
    },
    {
      "type": "node",
      "id": 11777990135,
      "lat": 52.2346338,
      "lon": 12.9836293
    },
    {
      "type": "node",
      "id": 12541969404,
      "lat": 52.2311287,
      "lon": 12.9844847
    },
    {
      "type": "node",
      "id": 12541972145,
      "lat": 52.2316575,
      "lon": 12.984756
    },
    {
      "type": "node",
      "id": 12862836455,
      "lat": 52.2349579,
      "lon": 12.9845101
    },
    {
      "type": "node",
      "id": 12862836456,
      "lat": 52.2349205,
      "lon": 12.9847415
    },
    {
      "type": "node",
      "id": 13012201297,
      "lat": 52.2335344,
      "lon": 12.9851602
    },
    {
      "type": "node",
      "id": 13012201298,
      "lat": 52.2333053,
      "lon": 12.9842641
    },
    {
      "type": "node",
      "id": 13012211010,
      "lat": 52.2335281,
      "lon": 12.9844481
    },
    {
      "type": "node",
      "id": 13012211011,
      "lat": 52.2337362,
      "lon": 12.9844801
    },
    {
      "type": "node",
      "id": 13197582275,
      "lat": 52.2335515,
      "lon": 12.9892211
    },
    {
      "type": "node",
      "id": 13197582276,
      "lat": 52.2341173,
      "lon": 12.9887884
    },
    {
      "type": "node",
      "id": 13197673576,
      "lat": 52.2311861,
      "lon": 12.9847999
    },
    {
      "type": "node",
      "id": 13197673577,
      "lat": 52.230864,
      "lon": 12.9845517
    },
    {
      "type": "node",
      "id": 13197673578,
      "lat": 52.2308735,
      "lon": 12.9845239
    },
    {
      "type": "node",
      "id": 13197673579,
      "lat": 52.2311794,
      "lon": 12.9848207
    },
    {
      "type": "node",
      "id": 13200838525,
      "lat": 52.2323571,
      "lon": 12.9849383
    },
    {
      "type": "node",
      "id": 13200838526,
      "lat": 52.232431,
      "lon": 12.9840697
    },
    {
      "type": "node",
      "id": 13200838527,
      "lat": 52.2325303,
      "lon": 12.9849779
    },
    {
      "type": "node",
      "id": 13200838528,
      "lat": 52.2326002,
      "lon": 12.9841073
    },
    {
      "type": "node",
      "id": 13200838529,
      "lat": 52.2327086,
      "lon": 12.9850188
    },
    {
      "type": "node",
      "id": 13200838530,
      "lat": 52.2327796,
      "lon": 12.9841472
    },
    {
      "type": "node",
      "id": 13200838531,
      "lat": 52.2328759,
      "lon": 12.9850571
    },
    {
      "type": "node",
      "id": 13200838532,
      "lat": 52.2329482,
      "lon": 12.9841847
    },
    {
      "type": "node",
      "id": 13200838533,
      "lat": 52.2330599,
      "lon": 12.9850992
    },
    {
      "type": "node",
      "id": 13200838534,
      "lat": 52.2331375,
      "lon": 12.9842268
    },
    {
      "type": "node",
      "id": 13200838535,
      "lat": 52.2322786,
      "lon": 12.9832027
    },
    {
      "type": "node",
      "id": 13200838536,
      "lat": 52.2322111,
      "lon": 12.9835494
    },
    {
      "type": "node",
      "id": 2181333332,
      "lat": 52.2289186,
      "lon": 12.9990552
    },
    {
      "type": "node",
      "id": 2181333334,
      "lat": 52.2287809,
      "lon": 13.0011516
    },
    {
      "type": "node",
      "id": 60253246,
      "lat": 52.2333654,
      "lon": 12.990043
    },
    {
      "type": "node",
      "id": 268203283,
      "lat": 52.2334232,
      "lon": 12.989789
    },
    {
      "type": "node",
      "id": 268203472,
      "lat": 52.2333308,
      "lon": 12.9902812
    },
    {
      "type": "node",
      "id": 311864822,
      "lat": 52.234785,
      "lon": 12.9905658
    },
    {
      "type": "node",
      "id": 311864823,
      "lat": 52.2345169,
      "lon": 12.990437
    },
    {
      "type": "node",
      "id": 311864827,
      "lat": 52.23406,
      "lon": 12.9902666
    },
    {
      "type": "node",
      "id": 311864828,
      "lat": 52.2340289,
      "lon": 12.9901979
    },
    {
      "type": "node",
      "id": 311864829,
      "lat": 52.2340164,
      "lon": 12.990111
    },
    {
      "type": "node",
      "id": 311864830,
      "lat": 52.2340364,
      "lon": 12.9899565
    },
    {
      "type": "node",
      "id": 311864831,
      "lat": 52.2340901,
      "lon": 12.9897843
    },
    {
      "type": "node",
      "id": 311864834,
      "lat": 52.2341124,
      "lon": 12.9895724
    },
    {
      "type": "node",
      "id": 311864836,
      "lat": 52.2340988,
      "lon": 12.9893223
    },
    {
      "type": "node",
      "id": 311865012,
      "lat": 52.2331233,
      "lon": 12.9949245
    },
    {
      "type": "node",
      "id": 311865020,
      "lat": 52.2331478,
      "lon": 12.9944461
    },
    {
      "type": "node",
      "id": 311865089,
      "lat": 52.2331623,
      "lon": 12.9940144
    },
    {
      "type": "node",
      "id": 311865090,
      "lat": 52.2331873,
      "lon": 12.9935034
    },
    {
      "type": "node",
      "id": 311865401,
      "lat": 52.234113,
      "lon": 12.9903096
    },
    {
      "type": "node",
      "id": 311865421,
      "lat": 52.2333053,
      "lon": 12.9905155
    },
    {
      "type": "node",
      "id": 496110234,
      "lat": 52.2331818,
      "lon": 12.9924053
    },
    {
      "type": "node",
      "id": 496110236,
      "lat": 52.2332352,
      "lon": 12.9906824
    },
    {
      "type": "node",
      "id": 496110238,
      "lat": 52.2332541,
      "lon": 12.9902759
    },
    {
      "type": "node",
      "id": 496110239,
      "lat": 52.233308,
      "lon": 12.9899655
    },
    {
      "type": "node",
      "id": 496110241,
      "lat": 52.2334027,
      "lon": 12.9896382
    },
    {
      "type": "node",
      "id": 1174593747,
      "lat": 52.2331851,
      "lon": 12.9918336
    },
    {
      "type": "node",
      "id": 2181333319,
      "lat": 52.2305224,
      "lon": 12.9898744
    },
    {
      "type": "node",
      "id": 2181333323,
      "lat": 52.2301781,
      "lon": 12.9918423
    },
    {
      "type": "node",
      "id": 2181333327,
      "lat": 52.2296172,
      "lon": 12.9950472
    },
    {
      "type": "node",
      "id": 2991862262,
      "lat": 52.2332423,
      "lon": 12.9904779
    },
    {
      "type": "node",
      "id": 2991862263,
      "lat": 52.2332785,
      "lon": 12.9901255
    },
    {
      "type": "node",
      "id": 2991862264,
      "lat": 52.2333475,
      "lon": 12.9898145
    },
    {
      "type": "node",
      "id": 13197639140,
      "lat": 52.2303697,
      "lon": 12.9907471
    },
    {
      "type": "node",
      "id": 13197639141,
      "lat": 52.2317897,
      "lon": 12.991069
    },
    {
      "type": "node",
      "id": 13197639142,
      "lat": 52.2310144,
      "lon": 12.9908659
    },
    {
      "type": "node",
      "id": 13197639143,
      "lat": 52.2332713,
      "lon": 12.9913769
    },
    {
      "type": "node",
      "id": 13197639144,
      "lat": 52.2332061,
      "lon": 12.9913685
    },
    {
      "type": "node",
      "id": 13197639145,
      "lat": 52.233206,
      "lon": 12.9913706
    },
    {
      "type": "node",
      "id": 60253239,
      "lat": 52.2329176,
      "lon": 12.9975786
    },
    {
      "type": "node",
      "id": 311864998,
      "lat": 52.232961,
      "lon": 12.9973695
    },
    {
      "type": "node",
      "id": 311865002,
      "lat": 52.2330827,
      "lon": 12.995897
    },
    {
      "type": "node",
      "id": 311865003,
      "lat": 52.2330584,
      "lon": 12.9963966
    },
    {
      "type": "node",
      "id": 496110217,
      "lat": 52.2319078,
      "lon": 13.0015034
    },
    {
      "type": "node",
      "id": 496110220,
      "lat": 52.2320005,
      "lon": 13.0009513
    },
    {
      "type": "node",
      "id": 496110222,
      "lat": 52.2329032,
      "lon": 12.9974006
    },
    {
      "type": "node",
      "id": 496110225,
      "lat": 52.2329768,
      "lon": 12.9968771
    },
    {
      "type": "node",
      "id": 496110227,
      "lat": 52.2330188,
      "lon": 12.996096
    },
    {
      "type": "node",
      "id": 2181333329,
      "lat": 52.2291253,
      "lon": 12.9977701
    },
    {
      "type": "node",
      "id": 2540969038,
      "lat": 52.2330158,
      "lon": 12.9970253
    },
    {
      "type": "node",
      "id": 2540969039,
      "lat": 52.2330426,
      "lon": 12.9966838
    },
    {
      "type": "node",
      "id": 3088891941,
      "lat": 52.2328291,
      "lon": 12.9975694
    },
    {
      "type": "node",
      "id": 9881814559,
      "lat": 52.2327032,
      "lon": 12.9984514
    },
    {
      "type": "node",
      "id": 268202419,
      "lat": 52.2356723,
      "lon": 12.9768607
    },
    {
      "type": "node",
      "id": 274915496,
      "lat": 52.2392629,
      "lon": 12.9789426
    },
    {
      "type": "node",
      "id": 311650243,
      "lat": 52.2358668,
      "lon": 12.9785323
    },
    {
      "type": "node",
      "id": 311651143,
      "lat": 52.2385779,
      "lon": 12.9789156
    },
    {
      "type": "node",
      "id": 311651144,
      "lat": 52.2386603,
      "lon": 12.977187
    },
    {
      "type": "node",
      "id": 311651351,
      "lat": 52.2386694,
      "lon": 12.9769969
    },
    {
      "type": "node",
      "id": 311651687,
      "lat": 52.2364976,
      "lon": 12.978651
    },
    {
      "type": "node",
      "id": 311651688,
      "lat": 52.2366316,
      "lon": 12.9776794
    },
    {
      "type": "node",
      "id": 311651689,
      "lat": 52.2366362,
      "lon": 12.9773957
    },
    {
      "type": "node",
      "id": 311651690,
      "lat": 52.2366178,
      "lon": 12.9770294
    },
    {
      "type": "node",
      "id": 311651765,
      "lat": 52.2367352,
      "lon": 12.9822257
    },
    {
      "type": "node",
      "id": 311651766,
      "lat": 52.2366198,
      "lon": 12.9818533
    },
    {
      "type": "node",
      "id": 311651767,
      "lat": 52.2364811,
      "lon": 12.9813303
    },
    {
      "type": "node",
      "id": 311651769,
      "lat": 52.2364543,
      "lon": 12.9811836
    },
    {
      "type": "node",
      "id": 311651770,
      "lat": 52.236239,
      "lon": 12.9810343
    },
    {
      "type": "node",
      "id": 311651771,
      "lat": 52.2362024,
      "lon": 12.9809985
    },
    {
      "type": "node",
      "id": 311651773,
      "lat": 52.2360159,
      "lon": 12.9805874
    },
    {
      "type": "node",
      "id": 311651775,
      "lat": 52.2357211,
      "lon": 12.9801933
    },
    {
      "type": "node",
      "id": 311651815,
      "lat": 52.2395435,
      "lon": 12.9822838
    },
    {
      "type": "node",
      "id": 311651819,
      "lat": 52.2396992,
      "lon": 12.9809954
    },
    {
      "type": "node",
      "id": 311651820,
      "lat": 52.2397291,
      "lon": 12.9806095
    },
    {
      "type": "node",
      "id": 311651823,
      "lat": 52.2397827,
      "lon": 12.9794817
    },
    {
      "type": "node",
      "id": 311651824,
      "lat": 52.2397885,
      "lon": 12.9789675
    },
    {
      "type": "node",
      "id": 311738694,
      "lat": 52.2355554,
      "lon": 12.9772848
    },
    {
      "type": "node",
      "id": 311740464,
      "lat": 52.2365436,
      "lon": 12.9815588
    },
    {
      "type": "node",
      "id": 311740484,
      "lat": 52.2359067,
      "lon": 12.9822934
    },
    {
      "type": "node",
      "id": 311740504,
      "lat": 52.2359249,
      "lon": 12.9815088
    },
    {
      "type": "node",
      "id": 311742904,
      "lat": 52.2388695,
      "lon": 12.9811958
    },
    {
      "type": "node",
      "id": 311742905,
      "lat": 52.2376017,
      "lon": 12.981055
    },
    {
      "type": "node",
      "id": 311742908,
      "lat": 52.2368229,
      "lon": 12.981206
    },
    {
      "type": "node",
      "id": 311742909,
      "lat": 52.2365816,
      "lon": 12.9812025
    },
    {
      "type": "node",
      "id": 311742957,
      "lat": 52.2361518,
      "lon": 12.980887
    },
    {
      "type": "node",
      "id": 311742958,
      "lat": 52.2358979,
      "lon": 12.9804183
    },
    {
      "type": "node",
      "id": 311742959,
      "lat": 52.2357863,
      "lon": 12.9802687
    },
    {
      "type": "node",
      "id": 311742960,
      "lat": 52.2355763,
      "lon": 12.9800948
    },
    {
      "type": "node",
      "id": 311743165,
      "lat": 52.2388882,
      "lon": 12.9802017
    },
    {
      "type": "node",
      "id": 311743166,
      "lat": 52.2388474,
      "lon": 12.9823189
    },
    {
      "type": "node",
      "id": 311743167,
      "lat": 52.2387873,
      "lon": 12.9824792
    },
    {
      "type": "node",
      "id": 311743171,
      "lat": 52.2392426,
      "lon": 12.9804559
    },
    {
      "type": "node",
      "id": 311743172,
      "lat": 52.2388775,
      "lon": 12.9804204
    },
    {
      "type": "node",
      "id": 311743288,
      "lat": 52.2376107,
      "lon": 12.9808616
    },
    {
      "type": "node",
      "id": 311743289,
      "lat": 52.2376265,
      "lon": 12.9804938
    },
    {
      "type": "node",
      "id": 311743290,
      "lat": 52.2376749,
      "lon": 12.9799063
    },
    {
      "type": "node",
      "id": 311743291,
      "lat": 52.2382336,
      "lon": 12.9811263
    },
    {
      "type": "node",
      "id": 311743295,
      "lat": 52.2382767,
      "lon": 12.9801055
    },
    {
      "type": "node",
      "id": 311743296,
      "lat": 52.2383236,
      "lon": 12.9799757
    },
    {
      "type": "node",
      "id": 311743297,
      "lat": 52.2382031,
      "lon": 12.9811229
    },
    {
      "type": "node",
      "id": 311743301,
      "lat": 52.2381765,
      "lon": 12.9817357
    },
    {
      "type": "node",
      "id": 311743308,
      "lat": 52.2372324,
      "lon": 12.9811385
    },
    {
      "type": "node",
      "id": 311743311,
      "lat": 52.2372152,
      "lon": 12.9816347
    },
    {
      "type": "node",
      "id": 311743312,
      "lat": 52.237205,
      "lon": 12.9811509
    },
    {
      "type": "node",
      "id": 1364435797,
      "lat": 52.2355702,
      "lon": 12.9807011
    },
    {
      "type": "node",
      "id": 1364435802,
      "lat": 52.235802,
      "lon": 12.9813096
    },
    {
      "type": "node",
      "id": 2250582288,
      "lat": 52.2382121,
      "lon": 12.9789346
    },
    {
      "type": "node",
      "id": 2250582302,
      "lat": 52.238894,
      "lon": 12.9805968
    },
    {
      "type": "node",
      "id": 2250582345,
      "lat": 52.2360252,
      "lon": 12.9812546
    },
    {
      "type": "node",
      "id": 2250582394,
      "lat": 52.2389256,
      "lon": 12.9788673
    },
    {
      "type": "node",
      "id": 2250582397,
      "lat": 52.2383317,
      "lon": 12.9822034
    },
    {
      "type": "node",
      "id": 2250582415,
      "lat": 52.2371491,
      "lon": 12.978755
    },
    {
      "type": "node",
      "id": 2250582420,
      "lat": 52.2383115,
      "lon": 12.982079
    },
    {
      "type": "node",
      "id": 2305620172,
      "lat": 52.2368595,
      "lon": 12.9787082
    },
    {
      "type": "node",
      "id": 2711681953,
      "lat": 52.2355724,
      "lon": 12.9784953
    },
    {
      "type": "node",
      "id": 2992089337,
      "lat": 52.2357559,
      "lon": 12.9810427
    },
    {
      "type": "node",
      "id": 2992753296,
      "lat": 52.2363048,
      "lon": 12.9809415
    },
    {
      "type": "node",
      "id": 2992753297,
      "lat": 52.2364356,
      "lon": 12.9808211
    },
    {
      "type": "node",
      "id": 2992753298,
      "lat": 52.2367564,
      "lon": 12.9807624
    },
    {
      "type": "node",
      "id": 2992753299,
      "lat": 52.2368064,
      "lon": 12.9796696
    },
    {
      "type": "node",
      "id": 2992753300,
      "lat": 52.2368177,
      "lon": 12.9807229
    },
    {
      "type": "node",
      "id": 2992753301,
      "lat": 52.2368225,
      "lon": 12.9797802
    },
    {
      "type": "node",
      "id": 2992753302,
      "lat": 52.2368049,
      "lon": 12.9794352
    },
    {
      "type": "node",
      "id": 2992753303,
      "lat": 52.236858,
      "lon": 12.9799013
    },
    {
      "type": "node",
      "id": 2992753304,
      "lat": 52.236866,
      "lon": 12.9806439
    },
    {
      "type": "node",
      "id": 2992753305,
      "lat": 52.2368741,
      "lon": 12.9799777
    },
    {
      "type": "node",
      "id": 2992753306,
      "lat": 52.2374231,
      "lon": 12.9810767
    },
    {
      "type": "node",
      "id": 2992753307,
      "lat": 52.2375432,
      "lon": 12.9810597
    },
    {
      "type": "node",
      "id": 2992753308,
      "lat": 52.2376563,
      "lon": 12.9813804
    },
    {
      "type": "node",
      "id": 2992753309,
      "lat": 52.237691,
      "lon": 12.9816086
    },
    {
      "type": "node",
      "id": 2992753310,
      "lat": 52.2377088,
      "lon": 12.9818565
    },
    {
      "type": "node",
      "id": 2992771025,
      "lat": 52.2355313,
      "lon": 12.9794805
    },
    {
      "type": "node",
      "id": 2992771029,
      "lat": 52.2356278,
      "lon": 12.9795031
    },
    {
      "type": "node",
      "id": 3187790362,
      "lat": 52.2368055,
      "lon": 12.9795275
    },
    {
      "type": "node",
      "id": 3192614466,
      "lat": 52.2372578,
      "lon": 12.9790544
    },
    {
      "type": "node",
      "id": 3192614765,
      "lat": 52.2372498,
      "lon": 12.9794879
    },
    {
      "type": "node",
      "id": 3192614767,
      "lat": 52.2372674,
      "lon": 12.9787683
    },
    {
      "type": "node",
      "id": 3192614771,
      "lat": 52.2372832,
      "lon": 12.981111
    },
    {
      "type": "node",
      "id": 3192614861,
      "lat": 52.2372527,
      "lon": 12.9807339
    },
    {
      "type": "node",
      "id": 3210687858,
      "lat": 52.2355157,
      "lon": 12.9802021
    },
    {
      "type": "node",
      "id": 4808010801,
      "lat": 52.2355154,
      "lon": 12.9794563
    },
    {
      "type": "node",
      "id": 5421102667,
      "lat": 52.2358874,
      "lon": 12.9812846
    },
    {
      "type": "node",
      "id": 5421102668,
      "lat": 52.2356572,
      "lon": 12.9801415
    },
    {
      "type": "node",
      "id": 5421102669,
      "lat": 52.235529,
      "lon": 12.9795064
    },
    {
      "type": "node",
      "id": 5421102670,
      "lat": 52.2356256,
      "lon": 12.979529
    },
    {
      "type": "node",
      "id": 5421102671,
      "lat": 52.235506,
      "lon": 12.9798578
    },
    {
      "type": "node",
      "id": 5421102672,
      "lat": 52.2355915,
      "lon": 12.9799173
    },
    {
      "type": "node",
      "id": 5421181360,
      "lat": 52.2395336,
      "lon": 12.9824489
    },
    {
      "type": "node",
      "id": 5449459340,
      "lat": 52.2382155,
      "lon": 12.9818896
    },
    {
      "type": "node",
      "id": 5449459341,
      "lat": 52.2381888,
      "lon": 12.9818165
    },
    {
      "type": "node",
      "id": 5449459342,
      "lat": 52.2383284,
      "lon": 12.9821411
    },
    {
      "type": "node",
      "id": 5449459364,
      "lat": 52.2376016,
      "lon": 12.9811902
    },
    {
      "type": "node",
      "id": 5449459365,
      "lat": 52.2363771,
      "lon": 12.9811433
    },
    {
      "type": "node",
      "id": 5449459366,
      "lat": 52.2366621,
      "lon": 12.9812016
    },
    {
      "type": "node",
      "id": 5449459367,
      "lat": 52.2367803,
      "lon": 12.9811882
    },
    {
      "type": "node",
      "id": 5449459368,
      "lat": 52.2370325,
      "lon": 12.9811929
    },
    {
      "type": "node",
      "id": 5449459369,
      "lat": 52.2370846,
      "lon": 12.9811701
    },
    {
      "type": "node",
      "id": 5449499803,
      "lat": 52.2403508,
      "lon": 12.9789908
    },
    {
      "type": "node",
      "id": 5449500997,
      "lat": 52.2376398,
      "lon": 12.9810546
    },
    {
      "type": "node",
      "id": 5449500998,
      "lat": 52.2376554,
      "lon": 12.9803279
    },
    {
      "type": "node",
      "id": 5449501003,
      "lat": 52.2388681,
      "lon": 12.9812319
    },
    {
      "type": "node",
      "id": 5449515566,
      "lat": 52.2365871,
      "lon": 12.9786651
    },
    {
      "type": "node",
      "id": 5449515567,
      "lat": 52.2365221,
      "lon": 12.9791605
    },
    {
      "type": "node",
      "id": 5449515568,
      "lat": 52.2365755,
      "lon": 12.9787536
    },
    {
      "type": "node",
      "id": 5449515575,
      "lat": 52.2358542,
      "lon": 12.9795655
    },
    {
      "type": "node",
      "id": 5449515576,
      "lat": 52.2358926,
      "lon": 12.9791707
    },
    {
      "type": "node",
      "id": 5449515577,
      "lat": 52.2359161,
      "lon": 12.9789358
    },
    {
      "type": "node",
      "id": 5449515603,
      "lat": 52.2369409,
      "lon": 12.9787213
    },
    {
      "type": "node",
      "id": 5449515604,
      "lat": 52.2369614,
      "lon": 12.9784188
    },
    {
      "type": "node",
      "id": 5449515605,
      "lat": 52.2369446,
      "lon": 12.9782257
    },
    {
      "type": "node",
      "id": 5449515606,
      "lat": 52.2378139,
      "lon": 12.9788297
    },
    {
      "type": "node",
      "id": 5449515607,
      "lat": 52.2378238,
      "lon": 12.978506
    },
    {
      "type": "node",
      "id": 5449515608,
      "lat": 52.2377794,
      "lon": 12.9784027
    },
    {
      "type": "node",
      "id": 5449515609,
      "lat": 52.2377856,
      "lon": 12.9781781
    },
    {
      "type": "node",
      "id": 5449515610,
      "lat": 52.2374949,
      "lon": 12.9787939
    },
    {
      "type": "node",
      "id": 5449515611,
      "lat": 52.2375088,
      "lon": 12.9781258
    },
    {
      "type": "node",
      "id": 5449515612,
      "lat": 52.2374624,
      "lon": 12.9777141
    },
    {
      "type": "node",
      "id": 5449515613,
      "lat": 52.2374686,
      "lon": 12.9774473
    },
    {
      "type": "node",
      "id": 5449515614,
      "lat": 52.2375634,
      "lon": 12.9774532
    },
    {
      "type": "node",
      "id": 5449516636,
      "lat": 52.2380714,
      "lon": 12.9788587
    },
    {
      "type": "node",
      "id": 5449516637,
      "lat": 52.2380759,
      "lon": 12.9786932
    },
    {
      "type": "node",
      "id": 5449516638,
      "lat": 52.2380799,
      "lon": 12.9785496
    },
    {
      "type": "node",
      "id": 5449516639,
      "lat": 52.2380837,
      "lon": 12.9784235
    },
    {
      "type": "node",
      "id": 5449516640,
      "lat": 52.2381449,
      "lon": 12.9783276
    },
    {
      "type": "node",
      "id": 5449516641,
      "lat": 52.2381921,
      "lon": 12.978266
    },
    {
      "type": "node",
      "id": 5449516642,
      "lat": 52.2383256,
      "lon": 12.9782794
    },
    {
      "type": "node",
      "id": 6047519813,
      "lat": 52.2366272,
      "lon": 12.9771683
    },
    {
      "type": "node",
      "id": 6373479210,
      "lat": 52.2382148,
      "lon": 12.9788748
    },
    {
      "type": "node",
      "id": 6373479211,
      "lat": 52.238925,
      "lon": 12.9789298
    },
    {
      "type": "node",
      "id": 6373479212,
      "lat": 52.2355435,
      "lon": 12.9771455
    },
    {
      "type": "node",
      "id": 6373479215,
      "lat": 52.2354877,
      "lon": 12.9775352
    },
    {
      "type": "node",
      "id": 7121877826,
      "lat": 52.2391155,
      "lon": 12.9812269
    },
    {
      "type": "node",
      "id": 7121877827,
      "lat": 52.2391107,
      "lon": 12.9813319
    },
    {
      "type": "node",
      "id": 7121877828,
      "lat": 52.2390905,
      "lon": 12.9813579
    },
    {
      "type": "node",
      "id": 7121877829,
      "lat": 52.2388652,
      "lon": 12.9813475
    },
    {
      "type": "node",
      "id": 7121877830,
      "lat": 52.2391072,
      "lon": 12.9813431
    },
    {
      "type": "node",
      "id": 7121877831,
      "lat": 52.2391003,
      "lon": 12.981354
    },
    {
      "type": "node",
      "id": 7768702855,
      "lat": 52.2407002,
      "lon": 12.979003
    },
    {
      "type": "node",
      "id": 8247188577,
      "lat": 52.2383756,
      "lon": 12.9767423
    },
    {
      "type": "node",
      "id": 8247188578,
      "lat": 52.2383716,
      "lon": 12.9769649
    },
    {
      "type": "node",
      "id": 8247188579,
      "lat": 52.2383738,
      "lon": 12.9770617
    },
    {
      "type": "node",
      "id": 8247188580,
      "lat": 52.2383668,
      "lon": 12.9772517
    },
    {
      "type": "node",
      "id": 8247188581,
      "lat": 52.2383587,
      "lon": 12.9774294
    },
    {
      "type": "node",
      "id": 8247188582,
      "lat": 52.2383533,
      "lon": 12.9776195
    },
    {
      "type": "node",
      "id": 8693262971,
      "lat": 52.2358307,
      "lon": 12.9797777
    },
    {
      "type": "node",
      "id": 9646661544,
      "lat": 52.2365778,
      "lon": 12.9787362
    },
    {
      "type": "node",
      "id": 9646661545,
      "lat": 52.2372643,
      "lon": 12.9788617
    },
    {
      "type": "node",
      "id": 9646661546,
      "lat": 52.2379456,
      "lon": 12.9789528
    },
    {
      "type": "node",
      "id": 9646661547,
      "lat": 52.2397872,
      "lon": 12.9790843
    },
    {
      "type": "node",
      "id": 9646661548,
      "lat": 52.240354,
      "lon": 12.9791045
    },
    {
      "type": "node",
      "id": 9646661549,
      "lat": 52.240695,
      "lon": 12.9791182
    },
    {
      "type": "node",
      "id": 9646661550,
      "lat": 52.2409488,
      "lon": 12.9791216
    },
    {
      "type": "node",
      "id": 9688186866,
      "lat": 52.2356289,
      "lon": 12.9768515
    },
    {
      "type": "node",
      "id": 9688250692,
      "lat": 52.2357392,
      "lon": 12.9768874
    },
    {
      "type": "node",
      "id": 9688250714,
      "lat": 52.2355659,
      "lon": 12.9770669
    },
    {
      "type": "node",
      "id": 9688250715,
      "lat": 52.2355252,
      "lon": 12.9770985
    },
    {
      "type": "node",
      "id": 9689867061,
      "lat": 52.2368535,
      "lon": 12.9787879
    },
    {
      "type": "node",
      "id": 9689867062,
      "lat": 52.2408035,
      "lon": 12.9790066
    },
    {
      "type": "node",
      "id": 9881416591,
      "lat": 52.2387572,
      "lon": 12.9825913
    },
    {
      "type": "node",
      "id": 9881416596,
      "lat": 52.2388422,
      "lon": 12.9825906
    },
    {
      "type": "node",
      "id": 9881814542,
      "lat": 52.2356378,
      "lon": 12.9769859
    },
    {
      "type": "node",
      "id": 10287001269,
      "lat": 52.2381049,
      "lon": 12.9789217
    },
    {
      "type": "node",
      "id": 10287001279,
      "lat": 52.2390355,
      "lon": 12.9788703
    },
    {
      "type": "node",
      "id": 10719096928,
      "lat": 52.2357052,
      "lon": 12.9770236
    },
    {
      "type": "node",
      "id": 10719096929,
      "lat": 52.2355912,
      "lon": 12.97696
    },
    {
      "type": "node",
      "id": 10719099482,
      "lat": 52.2409556,
      "lon": 12.978918
    },
    {
      "type": "node",
      "id": 10899697414,
      "lat": 52.2361695,
      "lon": 12.9786439
    },
    {
      "type": "node",
      "id": 10899697415,
      "lat": 52.2358058,
      "lon": 12.9785792
    },
    {
      "type": "node",
      "id": 10899697416,
      "lat": 52.2357976,
      "lon": 12.9786333
    },
    {
      "type": "node",
      "id": 10899759981,
      "lat": 52.2354881,
      "lon": 12.9778928
    },
    {
      "type": "node",
      "id": 10914515299,
      "lat": 52.2397831,
      "lon": 12.9788511
    },
    {
      "type": "node",
      "id": 10914515300,
      "lat": 52.2390373,
      "lon": 12.9788285
    },
    {
      "type": "node",
      "id": 10914515301,
      "lat": 52.2385834,
      "lon": 12.9788011
    },
    {
      "type": "node",
      "id": 10914515302,
      "lat": 52.2380747,
      "lon": 12.9787373
    },
    {
      "type": "node",
      "id": 10914515303,
      "lat": 52.2378176,
      "lon": 12.9787092
    },
    {
      "type": "node",
      "id": 10914515304,
      "lat": 52.2374975,
      "lon": 12.9786672
    },
    {
      "type": "node",
      "id": 10914524505,
      "lat": 52.2369486,
      "lon": 12.9786071
    },
    {
      "type": "node",
      "id": 10914524506,
      "lat": 52.2369106,
      "lon": 12.9786293
    },
    {
      "type": "node",
      "id": 10914524507,
      "lat": 52.2365086,
      "lon": 12.9785712
    },
    {
      "type": "node",
      "id": 10914524508,
      "lat": 52.2362686,
      "lon": 12.978544
    },
    {
      "type": "node",
      "id": 11842918968,
      "lat": 52.2355285,
      "lon": 12.9806243
    },
    {
      "type": "node",
      "id": 11842973169,
      "lat": 52.2357241,
      "lon": 12.9803408
    },
    {
      "type": "node",
      "id": 11842973170,
      "lat": 52.2357647,
      "lon": 12.9802437
    },
    {
      "type": "node",
      "id": 11842973171,
      "lat": 52.2356474,
      "lon": 12.980452
    },
    {
      "type": "node",
      "id": 11842973173,
      "lat": 52.2357954,
      "lon": 12.9798633
    },
    {
      "type": "node",
      "id": 11842973174,
      "lat": 52.2357578,
      "lon": 12.9800976
    },
    {
      "type": "node",
      "id": 31206467,
      "lat": 52.2396126,
      "lon": 12.9872314
    },
    {
      "type": "node",
      "id": 31206468,
      "lat": 52.2378523,
      "lon": 12.9878003
    },
    {
      "type": "node",
      "id": 31206469,
      "lat": 52.2367369,
      "lon": 12.9879358
    },
    {
      "type": "node",
      "id": 31206470,
      "lat": 52.2360357,
      "lon": 12.9879011
    },
    {
      "type": "node",
      "id": 280826181,
      "lat": 52.2416442,
      "lon": 12.9864545
    },
    {
      "type": "node",
      "id": 311651754,
      "lat": 52.2377996,
      "lon": 12.9875681
    },
    {
      "type": "node",
      "id": 311651755,
      "lat": 52.2377483,
      "lon": 12.986997
    },
    {
      "type": "node",
      "id": 311651756,
      "lat": 52.2377333,
      "lon": 12.986688
    },
    {
      "type": "node",
      "id": 311651757,
      "lat": 52.2377196,
      "lon": 12.9859225
    },
    {
      "type": "node",
      "id": 311651758,
      "lat": 52.237706,
      "lon": 12.9852569
    },
    {
      "type": "node",
      "id": 311651760,
      "lat": 52.237593,
      "lon": 12.9845549
    },
    {
      "type": "node",
      "id": 311651761,
      "lat": 52.2374754,
      "lon": 12.9841437
    },
    {
      "type": "node",
      "id": 311651762,
      "lat": 52.2372694,
      "lon": 12.9835542
    },
    {
      "type": "node",
      "id": 311735843,
      "lat": 52.2375173,
      "lon": 12.9878648
    },
    {
      "type": "node",
      "id": 311735860,
      "lat": 52.2370858,
      "lon": 12.987919
    },
    {
      "type": "node",
      "id": 311735861,
      "lat": 52.2363886,
      "lon": 12.9879336
    },
    {
      "type": "node",
      "id": 311735888,
      "lat": 52.2357172,
      "lon": 12.9878506
    },
    {
      "type": "node",
      "id": 311740468,
      "lat": 52.237397,
      "lon": 12.9839223
    },
    {
      "type": "node",
      "id": 311740522,
      "lat": 52.23588,
      "lon": 12.9827691
    },
    {
      "type": "node",
      "id": 311740523,
      "lat": 52.2370679,
      "lon": 12.9829851
    },
    {
      "type": "node",
      "id": 311743355,
      "lat": 52.237713,
      "lon": 12.985607
    },
    {
      "type": "node",
      "id": 311765071,
      "lat": 52.2377296,
      "lon": 12.9868353
    },
    {
      "type": "node",
      "id": 311765125,
      "lat": 52.2376693,
      "lon": 12.9848871
    },
    {
      "type": "node",
      "id": 311765181,
      "lat": 52.2377161,
      "lon": 12.9854111
    },
    {
      "type": "node",
      "id": 311766030,
      "lat": 52.2382854,
      "lon": 12.9834207
    },
    {
      "type": "node",
      "id": 311766031,
      "lat": 52.2377594,
      "lon": 12.9833945
    },
    {
      "type": "node",
      "id": 311766032,
      "lat": 52.2371916,
      "lon": 12.9833166
    },
    {
      "type": "node",
      "id": 311766266,
      "lat": 52.2374163,
      "lon": 12.983981
    },
    {
      "type": "node",
      "id": 311866176,
      "lat": 52.2391268,
      "lon": 12.9874106
    },
    {
      "type": "node",
      "id": 311866177,
      "lat": 52.238607,
      "lon": 12.9875934
    },
    {
      "type": "node",
      "id": 311866178,
      "lat": 52.2381914,
      "lon": 12.9877138
    },
    {
      "type": "node",
      "id": 311925872,
      "lat": 52.2378934,
      "lon": 12.9886796
    },
    {
      "type": "node",
      "id": 311943256,
      "lat": 52.2378801,
      "lon": 12.9880419
    },
    {
      "type": "node",
      "id": 311943261,
      "lat": 52.2379352,
      "lon": 12.9879826
    },
    {
      "type": "node",
      "id": 311943263,
      "lat": 52.2380447,
      "lon": 12.9879472
    },
    {
      "type": "node",
      "id": 311943265,
      "lat": 52.2383747,
      "lon": 12.9878752
    },
    {
      "type": "node",
      "id": 311943267,
      "lat": 52.2387163,
      "lon": 12.9877636
    },
    {
      "type": "node",
      "id": 311943268,
      "lat": 52.2391631,
      "lon": 12.987592
    },
    {
      "type": "node",
      "id": 311943269,
      "lat": 52.2397202,
      "lon": 12.9873688
    },
    {
      "type": "node",
      "id": 311943270,
      "lat": 52.2414284,
      "lon": 12.9866822
    },
    {
      "type": "node",
      "id": 311943271,
      "lat": 52.2420012,
      "lon": 12.9864847
    },
    {
      "type": "node",
      "id": 1174593815,
      "lat": 52.240145,
      "lon": 12.987198
    },
    {
      "type": "node",
      "id": 1364468259,
      "lat": 52.235962,
      "lon": 12.9892047
    },
    {
      "type": "node",
      "id": 2181319685,
      "lat": 52.2417157,
      "lon": 12.9865831
    },
    {
      "type": "node",
      "id": 2250582276,
      "lat": 52.2382903,
      "lon": 12.982746
    },
    {
      "type": "node",
      "id": 2994203989,
      "lat": 52.2394999,
      "lon": 12.9834608
    },
    {
      "type": "node",
      "id": 2994203995,
      "lat": 52.2394653,
      "lon": 12.9835896
    },
    {
      "type": "node",
      "id": 3002095143,
      "lat": 52.2356097,
      "lon": 12.9852395
    },
    {
      "type": "node",
      "id": 3002095145,
      "lat": 52.2357719,
      "lon": 12.9852905
    },
    {
      "type": "node",
      "id": 3002095148,
      "lat": 52.2360075,
      "lon": 12.9853638
    },
    {
      "type": "node",
      "id": 3002095150,
      "lat": 52.2366447,
      "lon": 12.9854888
    },
    {
      "type": "node",
      "id": 3002095151,
      "lat": 52.23759,
      "lon": 12.9857586
    },
    {
      "type": "node",
      "id": 3002095153,
      "lat": 52.2376307,
      "lon": 12.9857525
    },
    {
      "type": "node",
      "id": 3002095154,
      "lat": 52.23767,
      "lon": 12.985726
    },
    {
      "type": "node",
      "id": 3002095155,
      "lat": 52.2376986,
      "lon": 12.9856731
    },
    {
      "type": "node",
      "id": 3002847571,
      "lat": 52.2354817,
      "lon": 12.9848327
    },
    {
      "type": "node",
      "id": 3002847572,
      "lat": 52.2355227,
      "lon": 12.9848783
    },
    {
      "type": "node",
      "id": 3002847573,
      "lat": 52.2355243,
      "lon": 12.9849587
    },
    {
      "type": "node",
      "id": 3002847574,
      "lat": 52.2356458,
      "lon": 12.9848434
    },
    {
      "type": "node",
      "id": 3002847575,
      "lat": 52.2357935,
      "lon": 12.9849908
    },
    {
      "type": "node",
      "id": 3002865234,
      "lat": 52.2355544,
      "lon": 12.984029
    },
    {
      "type": "node",
      "id": 3002865235,
      "lat": 52.2356356,
      "lon": 12.9840622
    },
    {
      "type": "node",
      "id": 3002865236,
      "lat": 52.2357472,
      "lon": 12.9841261
    },
    {
      "type": "node",
      "id": 3002865237,
      "lat": 52.2358979,
      "lon": 12.9841654
    },
    {
      "type": "node",
      "id": 3002865239,
      "lat": 52.2358993,
      "lon": 12.9839864
    },
    {
      "type": "node",
      "id": 3002865240,
      "lat": 52.235908,
      "lon": 12.9834824
    },
    {
      "type": "node",
      "id": 3002865241,
      "lat": 52.2359339,
      "lon": 12.9835611
    },
    {
      "type": "node",
      "id": 3002865242,
      "lat": 52.2359428,
      "lon": 12.9835108
    },
    {
      "type": "node",
      "id": 5449459339,
      "lat": 52.2385949,
      "lon": 12.982754
    },
    {
      "type": "node",
      "id": 6424494654,
      "lat": 52.2358397,
      "lon": 12.9834455
    },
    {
      "type": "node",
      "id": 7551846609,
      "lat": 52.2359098,
      "lon": 12.98575
    },
    {
      "type": "node",
      "id": 7551846610,
      "lat": 52.2359535,
      "lon": 12.985347
    },
    {
      "type": "node",
      "id": 7551846611,
      "lat": 52.2361373,
      "lon": 12.9860102
    },
    {
      "type": "node",
      "id": 7551846612,
      "lat": 52.2361918,
      "lon": 12.9854
    },
    {
      "type": "node",
      "id": 7551846613,
      "lat": 52.2363311,
      "lon": 12.9858787
    },
    {
      "type": "node",
      "id": 7551846614,
      "lat": 52.2364114,
      "lon": 12.985443
    },
    {
      "type": "node",
      "id": 7551846615,
      "lat": 52.2365857,
      "lon": 12.9859337
    },
    {
      "type": "node",
      "id": 7551846616,
      "lat": 52.2366924,
      "lon": 12.9855024
    },
    {
      "type": "node",
      "id": 8247688856,
      "lat": 52.2385585,
      "lon": 12.9834221
    },
    {
      "type": "node",
      "id": 8247688857,
      "lat": 52.2387328,
      "lon": 12.9834107
    },
    {
      "type": "node",
      "id": 8247688858,
      "lat": 52.2388343,
      "lon": 12.9834009
    },
    {
      "type": "node",
      "id": 8247688859,
      "lat": 52.2389856,
      "lon": 12.9834009
    },
    {
      "type": "node",
      "id": 8247688860,
      "lat": 52.2390514,
      "lon": 12.9834009
    },
    {
      "type": "node",
      "id": 8247688861,
      "lat": 52.2390912,
      "lon": 12.9834074
    },
    {
      "type": "node",
      "id": 8247688862,
      "lat": 52.23912,
      "lon": 12.9834351
    },
    {
      "type": "node",
      "id": 8247688863,
      "lat": 52.2391459,
      "lon": 12.983453
    },
    {
      "type": "node",
      "id": 8247688864,
      "lat": 52.2391838,
      "lon": 12.9834855
    },
    {
      "type": "node",
      "id": 8247688865,
      "lat": 52.2392156,
      "lon": 12.983492
    },
    {
      "type": "node",
      "id": 8247688866,
      "lat": 52.2392614,
      "lon": 12.9834985
    },
    {
      "type": "node",
      "id": 8247688867,
      "lat": 52.239365,
      "lon": 12.9835017
    },
    {
      "type": "node",
      "id": 8247688868,
      "lat": 52.2394376,
      "lon": 12.9834952
    },
    {
      "type": "node",
      "id": 8381893261,
      "lat": 52.2359935,
      "lon": 12.9849896
    },
    {
      "type": "node",
      "id": 8381893262,
      "lat": 52.235964,
      "lon": 12.9844934
    },
    {
      "type": "node",
      "id": 8381893264,
      "lat": 52.2359574,
      "lon": 12.9842091
    },
    {
      "type": "node",
      "id": 8381893265,
      "lat": 52.2361545,
      "lon": 12.9842251
    },
    {
      "type": "node",
      "id": 8381893266,
      "lat": 52.2363779,
      "lon": 12.9842037
    },
    {
      "type": "node",
      "id": 8381893267,
      "lat": 52.2364535,
      "lon": 12.9842251
    },
    {
      "type": "node",
      "id": 8381893268,
      "lat": 52.2368973,
      "lon": 12.983744
    },
    {
      "type": "node",
      "id": 8381893269,
      "lat": 52.2368469,
      "lon": 12.9843418
    },
    {
      "type": "node",
      "id": 8381893270,
      "lat": 52.2369134,
      "lon": 12.9844612
    },
    {
      "type": "node",
      "id": 8381893271,
      "lat": 52.2371245,
      "lon": 12.9846959
    },
    {
      "type": "node",
      "id": 8381893272,
      "lat": 52.2373068,
      "lon": 12.9848447
    },
    {
      "type": "node",
      "id": 8381893273,
      "lat": 52.2374119,
      "lon": 12.9848582
    },
    {
      "type": "node",
      "id": 8381893274,
      "lat": 52.2375992,
      "lon": 12.9847857
    },
    {
      "type": "node",
      "id": 8381893275,
      "lat": 52.237635,
      "lon": 12.9847379
    },
    {
      "type": "node",
      "id": 9689828110,
      "lat": 52.2393398,
      "lon": 12.9835009
    },
    {
      "type": "node",
      "id": 9881416583,
      "lat": 52.2388787,
      "lon": 12.9827962
    },
    {
      "type": "node",
      "id": 9881416586,
      "lat": 52.2388389,
      "lon": 12.9827012
    },
    {
      "type": "node",
      "id": 9881416589,
      "lat": 52.2390768,
      "lon": 12.9828235
    },
    {
      "type": "node",
      "id": 9881416592,
      "lat": 52.2387296,
      "lon": 12.9831111
    },
    {
      "type": "node",
      "id": 9881416610,
      "lat": 52.2391266,
      "lon": 12.9831023
    },
    {
      "type": "node",
      "id": 311650539,
      "lat": 52.2475663,
      "lon": 12.9856212
    },
    {
      "type": "node",
      "id": 311928294,
      "lat": 52.2444155,
      "lon": 12.9857421
    },
    {
      "type": "node",
      "id": 311943272,
      "lat": 52.2435043,
      "lon": 12.9859869
    },
    {
      "type": "node",
      "id": 311943274,
      "lat": 52.2456117,
      "lon": 12.9854634
    },
    {
      "type": "node",
      "id": 311943275,
      "lat": 52.2466522,
      "lon": 12.9853003
    },
    {
      "type": "node",
      "id": 311943276,
      "lat": 52.2472122,
      "lon": 12.9852272
    },
    {
      "type": "node",
      "id": 311943278,
      "lat": 52.2474128,
      "lon": 12.9853271
    },
    {
      "type": "node",
      "id": 5449411105,
      "lat": 52.2475245,
      "lon": 12.9855413
    },
    {
      "type": "node",
      "id": 5449411131,
      "lat": 52.2473212,
      "lon": 12.9852464
    },
    {
      "type": "node",
      "id": 311864546,
      "lat": 52.2376474,
      "lon": 12.9896003
    },
    {
      "type": "node",
      "id": 311864547,
      "lat": 52.2379281,
      "lon": 12.9896462
    },
    {
      "type": "node",
      "id": 311925871,
      "lat": 52.2379279,
      "lon": 12.9892884
    },
    {
      "type": "node",
      "id": 311925958,
      "lat": 52.2376779,
      "lon": 12.9938894
    },
    {
      "type": "node",
      "id": 311925960,
      "lat": 52.2377606,
      "lon": 12.9929183
    },
    {
      "type": "node",
      "id": 311925962,
      "lat": 52.2378507,
      "lon": 12.9921003
    },
    {
      "type": "node",
      "id": 311925964,
      "lat": 52.2379063,
      "lon": 12.9912875
    },
    {
      "type": "node",
      "id": 311925967,
      "lat": 52.2379302,
      "lon": 12.990255
    },
    {
      "type": "node",
      "id": 311926348,
      "lat": 52.2377455,
      "lon": 12.9956862
    },
    {
      "type": "node",
      "id": 311926349,
      "lat": 52.2377627,
      "lon": 12.9952928
    },
    {
      "type": "node",
      "id": 311926350,
      "lat": 52.2377687,
      "lon": 12.9950723
    },
    {
      "type": "node",
      "id": 311926351,
      "lat": 52.2377386,
      "lon": 12.9946674
    },
    {
      "type": "node",
      "id": 311926352,
      "lat": 52.2376965,
      "lon": 12.9942315
    },
    {
      "type": "node",
      "id": 311926353,
      "lat": 52.2376868,
      "lon": 12.9939826
    },
    {
      "type": "node",
      "id": 311926335,
      "lat": 52.2374783,
      "lon": 13.0019219
    },
    {
      "type": "node",
      "id": 311926336,
      "lat": 52.2376713,
      "lon": 13.001461
    },
    {
      "type": "node",
      "id": 311926337,
      "lat": 52.2377533,
      "lon": 13.0012031
    },
    {
      "type": "node",
      "id": 311926338,
      "lat": 52.2378157,
      "lon": 13.0007486
    },
    {
      "type": "node",
      "id": 311926339,
      "lat": 52.2378681,
      "lon": 13.0002281
    },
    {
      "type": "node",
      "id": 311926340,
      "lat": 52.2378997,
      "lon": 12.9997646
    },
    {
      "type": "node",
      "id": 311926341,
      "lat": 52.237916,
      "lon": 12.9992074
    },
    {
      "type": "node",
      "id": 311926342,
      "lat": 52.2378162,
      "lon": 12.9978708
    },
    {
      "type": "node",
      "id": 311926343,
      "lat": 52.2377501,
      "lon": 12.996915
    },
    {
      "type": "node",
      "id": 311926344,
      "lat": 52.2377223,
      "lon": 12.9963755
    },
    {
      "type": "node",
      "id": 311926347,
      "lat": 52.2377252,
      "lon": 12.9960354
    },
    {
      "type": "node",
      "id": 312410367,
      "lat": 52.237859,
      "lon": 13.0003184
    },
    {
      "type": "node",
      "id": 2181333337,
      "lat": 52.2285398,
      "lon": 13.0045493
    },
    {
      "type": "node",
      "id": 2181333340,
      "lat": 52.2282692,
      "lon": 13.0078023
    },
    {
      "type": "node",
      "id": 2181333343,
      "lat": 52.2282131,
      "lon": 13.0081477
    },
    {
      "type": "node",
      "id": 2181333346,
      "lat": 52.2276484,
      "lon": 13.0109034
    },
    {
      "type": "node",
      "id": 2181333351,
      "lat": 52.2269487,
      "lon": 13.0142222
    },
    {
      "type": "node",
      "id": 13197732108,
      "lat": 52.2276662,
      "lon": 13.0106086
    },
    {
      "type": "node",
      "id": 496110210,
      "lat": 52.2314838,
      "lon": 13.0055889
    },
    {
      "type": "node",
      "id": 496110212,
      "lat": 52.2315101,
      "lon": 13.0050482
    },
    {
      "type": "node",
      "id": 496110214,
      "lat": 52.2316678,
      "lon": 13.0037435
    },
    {
      "type": "node",
      "id": 1657791474,
      "lat": 52.231417,
      "lon": 13.0084588
    },
    {
      "type": "node",
      "id": 3088891939,
      "lat": 52.231445,
      "lon": 13.0062309
    },
    {
      "type": "node",
      "id": 1318979627,
      "lat": 52.2314058,
      "lon": 13.009166
    },
    {
      "type": "node",
      "id": 1318979638,
      "lat": 52.2314242,
      "lon": 13.0099738
    },
    {
      "type": "node",
      "id": 1318979606,
      "lat": 52.2322386,
      "lon": 13.0199351
    },
    {
      "type": "node",
      "id": 1318979618,
      "lat": 52.2323569,
      "lon": 13.0205868
    },
    {
      "type": "node",
      "id": 1318979619,
      "lat": 52.2317461,
      "lon": 13.0172888
    },
    {
      "type": "node",
      "id": 1318979622,
      "lat": 52.2318841,
      "lon": 13.0182077
    },
    {
      "type": "node",
      "id": 1318979623,
      "lat": 52.2324012,
      "lon": 13.020933
    },
    {
      "type": "node",
      "id": 1318979635,
      "lat": 52.2319188,
      "lon": 13.0183635
    },
    {
      "type": "node",
      "id": 1318979636,
      "lat": 52.2324239,
      "lon": 13.0212781
    },
    {
      "type": "node",
      "id": 1318979639,
      "lat": 52.2324343,
      "lon": 13.0215837
    },
    {
      "type": "node",
      "id": 1318979645,
      "lat": 52.2319583,
      "lon": 13.0185356
    },
    {
      "type": "node",
      "id": 8869930078,
      "lat": 52.2317299,
      "lon": 13.0171259
    },
    {
      "type": "node",
      "id": 8869930079,
      "lat": 52.2317715,
      "lon": 13.0175521
    },
    {
      "type": "node",
      "id": 8869930080,
      "lat": 52.2318018,
      "lon": 13.0177843
    },
    {
      "type": "node",
      "id": 8869930082,
      "lat": 52.2319978,
      "lon": 13.0188004
    },
    {
      "type": "node",
      "id": 8869930083,
      "lat": 52.2321318,
      "lon": 13.0193989
    },
    {
      "type": "node",
      "id": 8869930084,
      "lat": 52.2322892,
      "lon": 13.0201769
    },
    {
      "type": "node",
      "id": 1318979608,
      "lat": 52.2324141,
      "lon": 13.0220286
    },
    {
      "type": "node",
      "id": 1318979613,
      "lat": 52.2323651,
      "lon": 13.0236622
    },
    {
      "type": "node",
      "id": 3088871435,
      "lat": 52.2323435,
      "lon": 13.0234466
    },
    {
      "type": "node",
      "id": 311926322,
      "lat": 52.2373578,
      "lon": 13.0085623
    },
    {
      "type": "node",
      "id": 311926323,
      "lat": 52.2373541,
      "lon": 13.0080677
    },
    {
      "type": "node",
      "id": 311926324,
      "lat": 52.2372386,
      "lon": 13.0069616
    },
    {
      "type": "node",
      "id": 311926325,
      "lat": 52.2372241,
      "lon": 13.0066531
    },
    {
      "type": "node",
      "id": 311926326,
      "lat": 52.2370688,
      "lon": 13.0059563
    },
    {
      "type": "node",
      "id": 311926327,
      "lat": 52.2369594,
      "lon": 13.0055155
    },
    {
      "type": "node",
      "id": 311926328,
      "lat": 52.2369029,
      "lon": 13.0047442
    },
    {
      "type": "node",
      "id": 311926330,
      "lat": 52.2368866,
      "lon": 13.0043856
    },
    {
      "type": "node",
      "id": 311926331,
      "lat": 52.2369618,
      "lon": 13.0037217
    },
    {
      "type": "node",
      "id": 311926332,
      "lat": 52.2370292,
      "lon": 13.0031097
    },
    {
      "type": "node",
      "id": 311926333,
      "lat": 52.2371022,
      "lon": 13.0027111
    },
    {
      "type": "node",
      "id": 311926334,
      "lat": 52.2372568,
      "lon": 13.002379
    },
    {
      "type": "node",
      "id": 312409986,
      "lat": 52.2371843,
      "lon": 13.0062963
    },
    {
      "type": "node",
      "id": 312409987,
      "lat": 52.2369293,
      "lon": 13.005176
    },
    {
      "type": "node",
      "id": 10018003922,
      "lat": 52.2372898,
      "lon": 13.0092777
    }
  ]
}
